<?xml version="1.0" encoding="UTF-8"?>
<!-- track-length = 14955 filtered ascend = 82 plain-ascend = 24 cost=23274 energy=0.1kwh time=46m 42s -->
<gpx 
 xmlns="http://www.topografix.com/GPX/1/1" 
 xmlns:xsi="http://www.w3.org/2001/XMLSchema-instance" 
 xsi:schemaLocation="http://www.topografix.com/GPX/1/1 http://www.topografix.com/GPX/1/1/gpx.xsd" 
 version="1.1" 
 creator="BRouter-Web 0.18.1">
 <trk>
  <name>APN</name>
  <trkseg>
   <trkpt lat="36.706682" lon="3.1672"><ele>11</ele></trkpt>
   <trkpt lat="36.706724" lon="3.167227"><ele>11.5</ele></trkpt>
   <trkpt lat="36.706814" lon="3.167245"><ele>12.75</ele></trkpt>
   <trkpt lat="36.706829" lon="3.167244"><ele>12.75</ele></trkpt>
   <trkpt lat="36.706844" lon="3.167243"><ele>13</ele></trkpt>
   <trkpt lat="36.706896" lon="3.16723"><ele>13.5</ele></trkpt>
   <trkpt lat="36.706946" lon="3.167205"><ele>14</ele></trkpt>
   <trkpt lat="36.706991" lon="3.167169"><ele>14</ele></trkpt>
   <trkpt lat="36.707004" lon="3.167155"><ele>14</ele></trkpt>
   <trkpt lat="36.707055" lon="3.167082"><ele>14</ele></trkpt>
   <trkpt lat="36.707088" lon="3.166995"><ele>14</ele></trkpt>
   <trkpt lat="36.707101" lon="3.1669"><ele>14</ele></trkpt>
   <trkpt lat="36.707093" lon="3.166804"><ele>14</ele></trkpt>
   <trkpt lat="36.707064" lon="3.166712"><ele>14</ele></trkpt>
   <trkpt lat="36.707016" lon="3.166633"><ele>14.25</ele></trkpt>
   <trkpt lat="36.706953" lon="3.166574"><ele>15.25</ele></trkpt>
   <trkpt lat="36.706867" lon="3.166463"><ele>16</ele></trkpt>
   <trkpt lat="36.706807" lon="3.166368"><ele>16.5</ele></trkpt>
   <trkpt lat="36.706774" lon="3.166293"><ele>16</ele></trkpt>
   <trkpt lat="36.706722" lon="3.166153"><ele>15.5</ele></trkpt>
   <trkpt lat="36.706735" lon="3.166101"><ele>15.5</ele></trkpt>
   <trkpt lat="36.707192" lon="3.165067"><ele>18</ele></trkpt>
   <trkpt lat="36.707732" lon="3.163872"><ele>21.5</ele></trkpt>
   <trkpt lat="36.707854" lon="3.163574"><ele>22</ele></trkpt>
   <trkpt lat="36.708162" lon="3.162882"><ele>21</ele></trkpt>
   <trkpt lat="36.708257" lon="3.162656"><ele>21</ele></trkpt>
   <trkpt lat="36.708657" lon="3.161778"><ele>25</ele></trkpt>
   <trkpt lat="36.709114" lon="3.160742"><ele>23.5</ele></trkpt>
   <trkpt lat="36.709545" lon="3.159746"><ele>25.75</ele></trkpt>
   <trkpt lat="36.70957" lon="3.159681"><ele>26</ele></trkpt>
   <trkpt lat="36.709871" lon="3.159006"><ele>25.25</ele></trkpt>
   <trkpt lat="36.709974" lon="3.158715"><ele>25</ele></trkpt>
   <trkpt lat="36.710088" lon="3.158419"><ele>25.25</ele></trkpt>
   <trkpt lat="36.710307" lon="3.157725"><ele>26</ele></trkpt>
   <trkpt lat="36.710627" lon="3.156801"><ele>26</ele></trkpt>
   <trkpt lat="36.710704" lon="3.156568"><ele>25.5</ele></trkpt>
   <trkpt lat="36.710755" lon="3.156417"><ele>25</ele></trkpt>
   <trkpt lat="36.711044" lon="3.155535"><ele>23</ele></trkpt>
   <trkpt lat="36.711319" lon="3.154656"><ele>19</ele></trkpt>
   <trkpt lat="36.7115" lon="3.154269"><ele>19</ele></trkpt>
   <trkpt lat="36.711763" lon="3.153823"><ele>14.5</ele></trkpt>
   <trkpt lat="36.712122" lon="3.153426"><ele>16</ele></trkpt>
   <trkpt lat="36.712363" lon="3.153231"><ele>14.75</ele></trkpt>
   <trkpt lat="36.712673" lon="3.153066"><ele>16</ele></trkpt>
   <trkpt lat="36.71311" lon="3.152997"><ele>18</ele></trkpt>
   <trkpt lat="36.713892" lon="3.152745"><ele>21</ele></trkpt>
   <trkpt lat="36.714038" lon="3.152567"><ele>21</ele></trkpt>
   <trkpt lat="36.714139" lon="3.152444"><ele>22</ele></trkpt>
   <trkpt lat="36.715532" lon="3.149806"><ele>30.25</ele></trkpt>
   <trkpt lat="36.715745" lon="3.149401"><ele>31</ele></trkpt>
   <trkpt lat="36.715877" lon="3.149159"><ele>31</ele></trkpt>
   <trkpt lat="36.716114" lon="3.148728"><ele>31</ele></trkpt>
   <trkpt lat="36.71671" lon="3.148033"><ele>29.5</ele></trkpt>
   <trkpt lat="36.717028" lon="3.147645"><ele>27</ele></trkpt>
   <trkpt lat="36.717069" lon="3.147602"><ele>27</ele></trkpt>
   <trkpt lat="36.717423" lon="3.146381"><ele>25.75</ele></trkpt>
   <trkpt lat="36.717489" lon="3.14618"><ele>26</ele></trkpt>
   <trkpt lat="36.717435" lon="3.145883"><ele>26</ele></trkpt>
   <trkpt lat="36.717333" lon="3.144815"><ele>25.25</ele></trkpt>
   <trkpt lat="36.717312" lon="3.14456"><ele>23.75</ele></trkpt>
   <trkpt lat="36.717312" lon="3.144496"><ele>24</ele></trkpt>
   <trkpt lat="36.717321" lon="3.144443"><ele>24</ele></trkpt>
   <trkpt lat="36.717497" lon="3.144017"><ele>20.75</ele></trkpt>
   <trkpt lat="36.717617" lon="3.143802"><ele>18.75</ele></trkpt>
   <trkpt lat="36.71769" lon="3.143672"><ele>19.25</ele></trkpt>
   <trkpt lat="36.717981" lon="3.143331"><ele>19.75</ele></trkpt>
   <trkpt lat="36.718454" lon="3.142639"><ele>23.5</ele></trkpt>
   <trkpt lat="36.719146" lon="3.140823"><ele>13.75</ele></trkpt>
   <trkpt lat="36.719173" lon="3.140702"><ele>13</ele></trkpt>
   <trkpt lat="36.719332" lon="3.14001"><ele>13.75</ele></trkpt>
   <trkpt lat="36.719403" lon="3.13969"><ele>10.5</ele></trkpt>
   <trkpt lat="36.719537" lon="3.139454"><ele>11</ele></trkpt>
   <trkpt lat="36.719954" lon="3.138836"><ele>9</ele></trkpt>
   <trkpt lat="36.720475" lon="3.13858"><ele>13</ele></trkpt>
   <trkpt lat="36.720891" lon="3.138398"><ele>12.75</ele></trkpt>
   <trkpt lat="36.72134" lon="3.138244"><ele>9.5</ele></trkpt>
   <trkpt lat="36.721714" lon="3.138078"><ele>6</ele></trkpt>
   <trkpt lat="36.721787" lon="3.138055"><ele>6.5</ele></trkpt>
   <trkpt lat="36.721696" lon="3.137415"><ele>5.25</ele></trkpt>
   <trkpt lat="36.721644" lon="3.137033"><ele>5</ele></trkpt>
   <trkpt lat="36.721523" lon="3.135994"><ele>5</ele></trkpt>
   <trkpt lat="36.721426" lon="3.136016"><ele>5</ele></trkpt>
   <trkpt lat="36.721427" lon="3.135945"><ele>5</ele></trkpt>
   <trkpt lat="36.721449" lon="3.135907"><ele>5</ele></trkpt>
   <trkpt lat="36.721465" lon="3.135896"><ele>5</ele></trkpt>
   <trkpt lat="36.721635" lon="3.135858"><ele>5</ele></trkpt>
   <trkpt lat="36.721691" lon="3.135838"><ele>4.75</ele></trkpt>
   <trkpt lat="36.721743" lon="3.135803"><ele>4.5</ele></trkpt>
   <trkpt lat="36.721803" lon="3.135776"><ele>4.25</ele></trkpt>
   <trkpt lat="36.722042" lon="3.135714"><ele>3.5</ele></trkpt>
   <trkpt lat="36.722128" lon="3.13566"><ele>3.25</ele></trkpt>
   <trkpt lat="36.722172" lon="3.135637"><ele>3.25</ele></trkpt>
   <trkpt lat="36.722147" lon="3.135569"><ele>3</ele></trkpt>
   <trkpt lat="36.722112" lon="3.135477"><ele>3</ele></trkpt>
   <trkpt lat="36.722063" lon="3.135338"><ele>3</ele></trkpt>
   <trkpt lat="36.72193" lon="3.13429"><ele>4</ele></trkpt>
   <trkpt lat="36.722054" lon="3.134166"><ele>4</ele></trkpt>
   <trkpt lat="36.722071" lon="3.134118"><ele>4.25</ele></trkpt>
   <trkpt lat="36.722031" lon="3.133846"><ele>6</ele></trkpt>
   <trkpt lat="36.722137" lon="3.133819"><ele>6</ele></trkpt>
   <trkpt lat="36.722187" lon="3.133795"><ele>6</ele></trkpt>
   <trkpt lat="36.722235" lon="3.133764"><ele>5.75</ele></trkpt>
   <trkpt lat="36.722371" lon="3.133647"><ele>6</ele></trkpt>
   <trkpt lat="36.722524" lon="3.133529"><ele>6</ele></trkpt>
   <trkpt lat="36.722635" lon="3.133463"><ele>6</ele></trkpt>
   <trkpt lat="36.722742" lon="3.133426"><ele>6</ele></trkpt>
   <trkpt lat="36.722927" lon="3.133385"><ele>6</ele></trkpt>
   <trkpt lat="36.723029" lon="3.133352"><ele>6</ele></trkpt>
   <trkpt lat="36.723163" lon="3.133295"><ele>6.5</ele></trkpt>
   <trkpt lat="36.72331" lon="3.133223"><ele>7.5</ele></trkpt>
   <trkpt lat="36.723765" lon="3.132934"><ele>9</ele></trkpt>
   <trkpt lat="36.724097" lon="3.132687"><ele>9</ele></trkpt>
   <trkpt lat="36.724381" lon="3.132384"><ele>8.5</ele></trkpt>
   <trkpt lat="36.724841" lon="3.132013"><ele>10</ele></trkpt>
   <trkpt lat="36.725301" lon="3.131734"><ele>4</ele></trkpt>
   <trkpt lat="36.725758" lon="3.131507"><ele>5.5</ele></trkpt>
   <trkpt lat="36.726565" lon="3.131175"><ele>6</ele></trkpt>
   <trkpt lat="36.726864" lon="3.131013"><ele>4.5</ele></trkpt>
   <trkpt lat="36.727103" lon="3.13081"><ele>4.25</ele></trkpt>
   <trkpt lat="36.727402" lon="3.13053"><ele>7</ele></trkpt>
   <trkpt lat="36.728402" lon="3.129785"><ele>5.25</ele></trkpt>
   <trkpt lat="36.728448" lon="3.129753"><ele>5.25</ele></trkpt>
   <trkpt lat="36.728496" lon="3.129738"><ele>5.25</ele></trkpt>
   <trkpt lat="36.728613" lon="3.129727"><ele>5</ele></trkpt>
   <trkpt lat="36.728661" lon="3.129701"><ele>5</ele></trkpt>
   <trkpt lat="36.728817" lon="3.129562"><ele>5</ele></trkpt>
   <trkpt lat="36.729254" lon="3.129117"><ele>5</ele></trkpt>
   <trkpt lat="36.729654" lon="3.128698"><ele>6</ele></trkpt>
   <trkpt lat="36.729759" lon="3.128591"><ele>6</ele></trkpt>
   <trkpt lat="36.729882" lon="3.128489"><ele>6</ele></trkpt>
   <trkpt lat="36.730025" lon="3.128382"><ele>5.5</ele></trkpt>
   <trkpt lat="36.730694" lon="3.127918"><ele>4</ele></trkpt>
   <trkpt lat="36.731245" lon="3.127572"><ele>5</ele></trkpt>
   <trkpt lat="36.731458" lon="3.127478"><ele>5</ele></trkpt>
   <trkpt lat="36.731679" lon="3.127408"><ele>4.75</ele></trkpt>
   <trkpt lat="36.731839" lon="3.127379"><ele>3.75</ele></trkpt>
   <trkpt lat="36.732096" lon="3.127377"><ele>3</ele></trkpt>
   <trkpt lat="36.732358" lon="3.127382"><ele>3</ele></trkpt>
   <trkpt lat="36.732455" lon="3.127405"><ele>3</ele></trkpt>
   <trkpt lat="36.732773" lon="3.127477"><ele>2</ele></trkpt>
   <trkpt lat="36.733226" lon="3.127618"><ele>2</ele></trkpt>
   <trkpt lat="36.734583" lon="3.128014"><ele>4</ele></trkpt>
   <trkpt lat="36.734823" lon="3.128089"><ele>3.75</ele></trkpt>
   <trkpt lat="36.735007" lon="3.12816"><ele>3.5</ele></trkpt>
   <trkpt lat="36.735563" lon="3.12832"><ele>3</ele></trkpt>
   <trkpt lat="36.736659" lon="3.128709"><ele>3</ele></trkpt>
   <trkpt lat="36.737731" lon="3.129103"><ele>1.5</ele></trkpt>
   <trkpt lat="36.738159" lon="3.12925"><ele>1</ele></trkpt>
   <trkpt lat="36.738396" lon="3.129342"><ele>1</ele></trkpt>
   <trkpt lat="36.738578" lon="3.129425"><ele>1</ele></trkpt>
   <trkpt lat="36.739184" lon="3.129683"><ele>0.75</ele></trkpt>
   <trkpt lat="36.739205" lon="3.129687"><ele>0.5</ele></trkpt>
   <trkpt lat="36.739303" lon="3.129664"><ele>0</ele></trkpt>
   <trkpt lat="36.739439" lon="3.129718"><ele>0</ele></trkpt>
   <trkpt lat="36.740896" lon="3.130416"><ele>-0.75</ele></trkpt>
   <trkpt lat="36.741453" lon="3.13069"><ele>-1.25</ele></trkpt>
   <trkpt lat="36.741463" lon="3.130655"><ele>-1</ele></trkpt>
   <trkpt lat="36.741668" lon="3.12942"><ele>-0.75</ele></trkpt>
   <trkpt lat="36.741677" lon="3.129287"><ele>-0.75</ele></trkpt>
   <trkpt lat="36.741687" lon="3.128814"><ele>-0.75</ele></trkpt>
   <trkpt lat="36.741705" lon="3.128365"><ele>-0.5</ele></trkpt>
   <trkpt lat="36.741814" lon="3.125166"><ele>0</ele></trkpt>
   <trkpt lat="36.741842" lon="3.12486"><ele>0</ele></trkpt>
   <trkpt lat="36.741889" lon="3.124597"><ele>0</ele></trkpt>
   <trkpt lat="36.74206" lon="3.123769"><ele>0.25</ele></trkpt>
   <trkpt lat="36.742076" lon="3.12367"><ele>0.25</ele></trkpt>
   <trkpt lat="36.742088" lon="3.123621"><ele>0.25</ele></trkpt>
   <trkpt lat="36.742107" lon="3.123544"><ele>0.25</ele></trkpt>
   <trkpt lat="36.742324" lon="3.122667"><ele>0.5</ele></trkpt>
   <trkpt lat="36.742412" lon="3.122259"><ele>0.5</ele></trkpt>
   <trkpt lat="36.742466" lon="3.121921"><ele>0.5</ele></trkpt>
   <trkpt lat="36.742485" lon="3.121548"><ele>0.75</ele></trkpt>
   <trkpt lat="36.742485" lon="3.121396"><ele>0.75</ele></trkpt>
   <trkpt lat="36.742464" lon="3.121214"><ele>0.75</ele></trkpt>
   <trkpt lat="36.742423" lon="3.12087"><ele>0.75</ele></trkpt>
   <trkpt lat="36.742416" lon="3.120822"><ele>0.75</ele></trkpt>
   <trkpt lat="36.742438" lon="3.120494"><ele>1</ele></trkpt>
   <trkpt lat="36.742443" lon="3.120266"><ele>1</ele></trkpt>
   <trkpt lat="36.742446" lon="3.12015"><ele>1</ele></trkpt>
   <trkpt lat="36.742479" lon="3.1198"><ele>1</ele></trkpt>
   <trkpt lat="36.74248" lon="3.11979"><ele>1</ele></trkpt>
   <trkpt lat="36.74253" lon="3.119477"><ele>1</ele></trkpt>
   <trkpt lat="36.742538" lon="3.119246"><ele>1.25</ele></trkpt>
   <trkpt lat="36.742527" lon="3.118763"><ele>1.25</ele></trkpt>
   <trkpt lat="36.74253" lon="3.118366"><ele>1.25</ele></trkpt>
   <trkpt lat="36.742522" lon="3.11776"><ele>1.5</ele></trkpt>
   <trkpt lat="36.742524" lon="3.117705"><ele>1.5</ele></trkpt>
   <trkpt lat="36.742553" lon="3.117364"><ele>1.5</ele></trkpt>
   <trkpt lat="36.742573" lon="3.11718"><ele>1.5</ele></trkpt>
   <trkpt lat="36.742657" lon="3.116716"><ele>1.75</ele></trkpt>
   <trkpt lat="36.742727" lon="3.11638"><ele>1</ele></trkpt>
   <trkpt lat="36.742769" lon="3.116064"><ele>1</ele></trkpt>
   <trkpt lat="36.742795" lon="3.115932"><ele>1</ele></trkpt>
   <trkpt lat="36.742831" lon="3.115858"><ele>1</ele></trkpt>
   <trkpt lat="36.742873" lon="3.115807"><ele>1</ele></trkpt>
   <trkpt lat="36.742882" lon="3.115767"><ele>1</ele></trkpt>
   <trkpt lat="36.742887" lon="3.115745"><ele>1</ele></trkpt>
   <trkpt lat="36.742975" lon="3.115431"><ele>1</ele></trkpt>
   <trkpt lat="36.743039" lon="3.115209"><ele>1</ele></trkpt>
   <trkpt lat="36.743085" lon="3.115015"><ele>1</ele></trkpt>
   <trkpt lat="36.743125" lon="3.114793"><ele>1</ele></trkpt>
   <trkpt lat="36.743167" lon="3.11444"><ele>1</ele></trkpt>
   <trkpt lat="36.743196" lon="3.114103"><ele>1</ele></trkpt>
   <trkpt lat="36.743254" lon="3.113768"><ele>2</ele></trkpt>
   <trkpt lat="36.743309" lon="3.113633"><ele>1.75</ele></trkpt>
   <trkpt lat="36.743339" lon="3.113456"><ele>1.75</ele></trkpt>
   <trkpt lat="36.743391" lon="3.113134"><ele>1.75</ele></trkpt>
   <trkpt lat="36.743444" lon="3.112798"><ele>1.5</ele></trkpt>
   <trkpt lat="36.743497" lon="3.112467"><ele>1.5</ele></trkpt>
   <trkpt lat="36.743551" lon="3.112133"><ele>1.5</ele></trkpt>
   <trkpt lat="36.743616" lon="3.111793"><ele>1.25</ele></trkpt>
   <trkpt lat="36.743726" lon="3.111331"><ele>1.25</ele></trkpt>
   <trkpt lat="36.743772" lon="3.111139"><ele>1</ele></trkpt>
   <trkpt lat="36.743838" lon="3.110837"><ele>1</ele></trkpt>
   <trkpt lat="36.743916" lon="3.110509"><ele>1</ele></trkpt>
   <trkpt lat="36.743919" lon="3.110495"><ele>1</ele></trkpt>
   <trkpt lat="36.743967" lon="3.110298"><ele>1</ele></trkpt>
   <trkpt lat="36.743998" lon="3.110202"><ele>1</ele></trkpt>
   <trkpt lat="36.744115" lon="3.109869"><ele>1</ele></trkpt>
   <trkpt lat="36.74431" lon="3.109313"><ele>1</ele></trkpt>
   <trkpt lat="36.744443" lon="3.108952"><ele>1</ele></trkpt>
   <trkpt lat="36.744566" lon="3.108649"><ele>1</ele></trkpt>
   <trkpt lat="36.74465" lon="3.108344"><ele>1</ele></trkpt>
   <trkpt lat="36.744696" lon="3.108127"><ele>1</ele></trkpt>
   <trkpt lat="36.744731" lon="3.107962"><ele>1</ele></trkpt>
   <trkpt lat="36.744783" lon="3.107728"><ele>1</ele></trkpt>
   <trkpt lat="36.744788" lon="3.107703"><ele>1</ele></trkpt>
   <trkpt lat="36.74486" lon="3.107359"><ele>1.5</ele></trkpt>
   <trkpt lat="36.744931" lon="3.107037"><ele>2</ele></trkpt>
   <trkpt lat="36.744969" lon="3.106856"><ele>2</ele></trkpt>
   <trkpt lat="36.744981" lon="3.106706"><ele>1.75</ele></trkpt>
   <trkpt lat="36.745011" lon="3.10635"><ele>1.75</ele></trkpt>
   <trkpt lat="36.745049" lon="3.106026"><ele>1.5</ele></trkpt>
   <trkpt lat="36.745093" lon="3.105685"><ele>1.25</ele></trkpt>
   <trkpt lat="36.745138" lon="3.10537"><ele>1.25</ele></trkpt>
   <trkpt lat="36.745181" lon="3.105026"><ele>1</ele></trkpt>
   <trkpt lat="36.745229" lon="3.104689"><ele>1</ele></trkpt>
   <trkpt lat="36.745283" lon="3.104365"><ele>1</ele></trkpt>
   <trkpt lat="36.745343" lon="3.104044"><ele>1.75</ele></trkpt>
   <trkpt lat="36.745345" lon="3.104031"><ele>1.75</ele></trkpt>
   <trkpt lat="36.745503" lon="3.103335"><ele>3</ele></trkpt>
   <trkpt lat="36.745569" lon="3.103064"><ele>3.75</ele></trkpt>
   <trkpt lat="36.745648" lon="3.10274"><ele>4</ele></trkpt>
   <trkpt lat="36.745728" lon="3.102422"><ele>4.25</ele></trkpt>
   <trkpt lat="36.745785" lon="3.10219"><ele>3.5</ele></trkpt>
   <trkpt lat="36.745858" lon="3.101903"><ele>2.75</ele></trkpt>
   <trkpt lat="36.745948" lon="3.1016"><ele>2</ele></trkpt>
   <trkpt lat="36.745991" lon="3.101481"><ele>1.5</ele></trkpt>
   <trkpt lat="36.746005" lon="3.101445"><ele>1.5</ele></trkpt>
   <trkpt lat="36.746067" lon="3.101155"><ele>0.75</ele></trkpt>
   <trkpt lat="36.746136" lon="3.100818"><ele>0</ele></trkpt>
   <trkpt lat="36.746258" lon="3.100167"><ele>-1.5</ele></trkpt>
   <trkpt lat="36.746306" lon="3.099838"><ele>-2.25</ele></trkpt>
   <trkpt lat="36.746394" lon="3.099184"><ele>-4</ele></trkpt>
   <trkpt lat="36.746447" lon="3.098842"><ele>-5</ele></trkpt>
   <trkpt lat="36.746515" lon="3.098522"><ele>-5</ele></trkpt>
   <trkpt lat="36.746564" lon="3.098259"><ele>-3</ele></trkpt>
   <trkpt lat="36.746574" lon="3.098197"><ele>-1.5</ele></trkpt>
   <trkpt lat="36.746653" lon="3.09786"><ele>-1.25</ele></trkpt>
   <trkpt lat="36.746682" lon="3.097693"><ele>-1</ele></trkpt>
   <trkpt lat="36.746678" lon="3.0976"><ele>-1</ele></trkpt>
   <trkpt lat="36.74669" lon="3.097517"><ele>-1</ele></trkpt>
   <trkpt lat="36.746693" lon="3.097497"><ele>-0.75</ele></trkpt>
   <trkpt lat="36.746743" lon="3.097189"><ele>-0.75</ele></trkpt>
   <trkpt lat="36.746798" lon="3.096844"><ele>-0.5</ele></trkpt>
   <trkpt lat="36.746844" lon="3.096529"><ele>-0.25</ele></trkpt>
   <trkpt lat="36.746896" lon="3.096173"><ele>0</ele></trkpt>
   <trkpt lat="36.746991" lon="3.095528"><ele>0.25</ele></trkpt>
   <trkpt lat="36.747055" lon="3.095195"><ele>0.5</ele></trkpt>
   <trkpt lat="36.747117" lon="3.094869"><ele>0.75</ele></trkpt>
   <trkpt lat="36.74715" lon="3.094705"><ele>1</ele></trkpt>
   <trkpt lat="36.747232" lon="3.094301"><ele>1</ele></trkpt>
   <trkpt lat="36.747244" lon="3.094238"><ele>1</ele></trkpt>
   <trkpt lat="36.747253" lon="3.094196"><ele>1</ele></trkpt>
   <trkpt lat="36.747303" lon="3.093902"><ele>-0.75</ele></trkpt>
   <trkpt lat="36.74738" lon="3.093483"><ele>-0.5</ele></trkpt>
   <trkpt lat="36.747458" lon="3.092984"><ele>-0.25</ele></trkpt>
   <trkpt lat="36.747524" lon="3.092633"><ele>-0.25</ele></trkpt>
   <trkpt lat="36.747631" lon="3.091765"><ele>0</ele></trkpt>
   <trkpt lat="36.747674" lon="3.091421"><ele>0</ele></trkpt>
   <trkpt lat="36.747768" lon="3.0909"><ele>0.25</ele></trkpt>
   <trkpt lat="36.747828" lon="3.090575"><ele>0.25</ele></trkpt>
   <trkpt lat="36.747903" lon="3.090258"><ele>0.5</ele></trkpt>
   <trkpt lat="36.747914" lon="3.090214"><ele>0.5</ele></trkpt>
   <trkpt lat="36.747971" lon="3.089977"><ele>0.5</ele></trkpt>
   <trkpt lat="36.747983" lon="3.089927"><ele>0.5</ele></trkpt>
   <trkpt lat="36.747999" lon="3.089858"><ele>0.5</ele></trkpt>
   <trkpt lat="36.748078" lon="3.089623"><ele>0.75</ele></trkpt>
   <trkpt lat="36.748096" lon="3.089567"><ele>0.75</ele></trkpt>
   <trkpt lat="36.748151" lon="3.089354"><ele>0.75</ele></trkpt>
   <trkpt lat="36.748246" lon="3.088986"><ele>1</ele></trkpt>
   <trkpt lat="36.748329" lon="3.08866"><ele>1</ele></trkpt>
   <trkpt lat="36.748364" lon="3.088527"><ele>1</ele></trkpt>
   <trkpt lat="36.748429" lon="3.08829"><ele>1.25</ele></trkpt>
   <trkpt lat="36.74844" lon="3.088252"><ele>1.25</ele></trkpt>
   <trkpt lat="36.748453" lon="3.088199"><ele>1.25</ele></trkpt>
   <trkpt lat="36.748474" lon="3.08815"><ele>1.25</ele></trkpt>
   <trkpt lat="36.748473" lon="3.088121"><ele>1.25</ele></trkpt>
   <trkpt lat="36.748499" lon="3.088112"><ele>1.25</ele></trkpt>
   <trkpt lat="36.748546" lon="3.088099"><ele>1.25</ele></trkpt>
   <trkpt lat="36.748528" lon="3.088013"><ele>1.25</ele></trkpt>
   <trkpt lat="36.748519" lon="3.087927"><ele>1.25</ele></trkpt>
   <trkpt lat="36.748535" lon="3.087755"><ele>1.5</ele></trkpt>
   <trkpt lat="36.748558" lon="3.087653"><ele>1.5</ele></trkpt>
   <trkpt lat="36.748643" lon="3.087435"><ele>1.5</ele></trkpt>
   <trkpt lat="36.748719" lon="3.087203"><ele>1.75</ele></trkpt>
   <trkpt lat="36.748811" lon="3.086846"><ele>1.75</ele></trkpt>
   <trkpt lat="36.748884" lon="3.086521"><ele>2</ele></trkpt>
   <trkpt lat="36.748962" lon="3.086193"><ele>2</ele></trkpt>
   <trkpt lat="36.749123" lon="3.085604"><ele>2.25</ele></trkpt>
   <trkpt lat="36.749129" lon="3.085581"><ele>2.25</ele></trkpt>
   <trkpt lat="36.749162" lon="3.085462"><ele>2.25</ele></trkpt>
   <trkpt lat="36.749378" lon="3.084668"><ele>2.5</ele></trkpt>
   <trkpt lat="36.749569" lon="3.083882"><ele>3</ele></trkpt>
   <trkpt lat="36.749658" lon="3.083519"><ele>3</ele></trkpt>
   <trkpt lat="36.74973" lon="3.083261"><ele>2.5</ele></trkpt>
   <trkpt lat="36.750023" lon="3.082371"><ele>1</ele></trkpt>
   <trkpt lat="36.750027" lon="3.082344"><ele>1</ele></trkpt>
   <trkpt lat="36.750019" lon="3.082295"><ele>1</ele></trkpt>
   <trkpt lat="36.749974" lon="3.082218"><ele>1</ele></trkpt>
   <trkpt lat="36.750004" lon="3.082183"><ele>1</ele></trkpt>
   <trkpt lat="36.750027" lon="3.082151"><ele>1</ele></trkpt>
   <trkpt lat="36.750335" lon="3.081438"><ele>1.5</ele></trkpt>
   <trkpt lat="36.750353" lon="3.081413"><ele>1.5</ele></trkpt>
   <trkpt lat="36.750475" lon="3.08114"><ele>1.75</ele></trkpt>
   <trkpt lat="36.750622" lon="3.080798"><ele>1.75</ele></trkpt>
   <trkpt lat="36.751167" lon="3.079347"><ele>2.75</ele></trkpt>
   <trkpt lat="36.751691" lon="3.078021"><ele>3.75</ele></trkpt>
   <trkpt lat="36.751718" lon="3.077791"><ele>3.75</ele></trkpt>
   <trkpt lat="36.751763" lon="3.077526"><ele>3.75</ele></trkpt>
   <trkpt lat="36.751838" lon="3.077277"><ele>3.75</ele></trkpt>
   <trkpt lat="36.752086" lon="3.076376"><ele>3.75</ele></trkpt>
   <trkpt lat="36.752198" lon="3.075935"><ele>3.75</ele></trkpt>
   <trkpt lat="36.752354" lon="3.075494"><ele>4</ele></trkpt>
   <trkpt lat="36.752378" lon="3.075408"><ele>4</ele></trkpt>
   <trkpt lat="36.752593" lon="3.074872"><ele>4.25</ele></trkpt>
   <trkpt lat="36.752924" lon="3.074161"><ele>4</ele></trkpt>
   <trkpt lat="36.753005" lon="3.073994"><ele>4.5</ele></trkpt>
   <trkpt lat="36.753532" lon="3.072918"><ele>3.5</ele></trkpt>
   <trkpt lat="36.75425" lon="3.07134"><ele>5.5</ele></trkpt>
   <trkpt lat="36.75627" lon="3.066826"><ele>4</ele></trkpt>
   <trkpt lat="36.756362" lon="3.066638"><ele>3.75</ele></trkpt>
   <trkpt lat="36.756431" lon="3.066517"><ele>3.25</ele></trkpt>
   <trkpt lat="36.756721" lon="3.066152"><ele>2.75</ele></trkpt>
   <trkpt lat="36.756883" lon="3.065939"><ele>2</ele></trkpt>
   <trkpt lat="36.756907" lon="3.065896"><ele>2</ele></trkpt>
   <trkpt lat="36.757008" lon="3.065764"><ele>1.75</ele></trkpt>
   <trkpt lat="36.757831" lon="3.064819"><ele>3.5</ele></trkpt>
   <trkpt lat="36.758227" lon="3.064344"><ele>4</ele></trkpt>
   <trkpt lat="36.758321" lon="3.06437"><ele>4</ele></trkpt>
   <trkpt lat="36.75912" lon="3.064372"><ele>1</ele></trkpt>
   <trkpt lat="36.760008" lon="3.064376"><ele>2</ele></trkpt>
   <trkpt lat="36.760321" lon="3.063376"><ele>3</ele></trkpt>
   <trkpt lat="36.760908" lon="3.061537"><ele>1.75</ele></trkpt>
   <trkpt lat="36.761046" lon="3.06128"><ele>2</ele></trkpt>
   <trkpt lat="36.761175" lon="3.06114"><ele>2</ele></trkpt>
   <trkpt lat="36.761338" lon="3.061022"><ele>2</ele></trkpt>
   <trkpt lat="36.76151" lon="3.060958"><ele>2</ele></trkpt>
   <trkpt lat="36.761854" lon="3.060861"><ele>1.5</ele></trkpt>
   <trkpt lat="36.762687" lon="3.0607"><ele>0.75</ele></trkpt>
   <trkpt lat="36.764617" lon="3.060369"><ele>-1</ele></trkpt>
   <trkpt lat="36.765562" lon="3.060203"><ele>-0.25</ele></trkpt>
   <trkpt lat="36.765867" lon="3.0601"><ele>0</ele></trkpt>
   <trkpt lat="36.766173" lon="3.059886"><ele>0</ele></trkpt>
   <trkpt lat="36.76618" lon="3.059881"><ele>0</ele></trkpt>
   <trkpt lat="36.766351" lon="3.059654"><ele>0.25</ele></trkpt>
   <trkpt lat="36.766338" lon="3.059516"><ele>0.5</ele></trkpt>
   <trkpt lat="36.766393" lon="3.059238"><ele>0.5</ele></trkpt>
   <trkpt lat="36.766402" lon="3.059146"><ele>0.5</ele></trkpt>
   <trkpt lat="36.766417" lon="3.058891"><ele>0.75</ele></trkpt>
   <trkpt lat="36.766514" lon="3.058769"><ele>0.75</ele></trkpt>
   <trkpt lat="36.766552" lon="3.058593"><ele>1</ele></trkpt>
   <trkpt lat="36.766686" lon="3.057989"><ele>2</ele></trkpt>
   <trkpt lat="36.766719" lon="3.057925"><ele>2</ele></trkpt>
   <trkpt lat="36.766826" lon="3.057843"><ele>2</ele></trkpt>
   <trkpt lat="36.766945" lon="3.057792"><ele>2</ele></trkpt>
   <trkpt lat="36.768599" lon="3.058042"><ele>12.5</ele></trkpt>
   <trkpt lat="36.768971" lon="3.058106"><ele>18.25</ele></trkpt>
   <trkpt lat="36.769096" lon="3.05812"><ele>20.25</ele></trkpt>
   <trkpt lat="36.76922" lon="3.058105"><ele>22</ele></trkpt>
   <trkpt lat="36.769272" lon="3.058078"><ele>23</ele></trkpt>
   <trkpt lat="36.769327" lon="3.058037"><ele>24</ele></trkpt>
   <trkpt lat="36.769375" lon="3.057984"><ele>25</ele></trkpt>
   <trkpt lat="36.769413" lon="3.057919"><ele>26</ele></trkpt>
   <trkpt lat="36.769537" lon="3.057637"><ele>26</ele></trkpt>
   <trkpt lat="36.769692" lon="3.057342"><ele>27</ele></trkpt>
   <trkpt lat="36.769738" lon="3.057235"><ele>27.75</ele></trkpt>
   <trkpt lat="36.769782" lon="3.057237"><ele>27.75</ele></trkpt>
   <trkpt lat="36.769821" lon="3.057284"><ele>27.5</ele></trkpt>
   <trkpt lat="36.770128" lon="3.057646"><ele>29</ele></trkpt>
   <trkpt lat="36.770231" lon="3.057658"><ele>31.75</ele></trkpt>
   <trkpt lat="36.770623" lon="3.058145"><ele>32.25</ele></trkpt>
   <trkpt lat="36.771026" lon="3.058647"><ele>33</ele></trkpt>
   <trkpt lat="36.771089" lon="3.058724"><ele>33.75</ele></trkpt>
   <trkpt lat="36.771346" lon="3.059039"><ele>28.5</ele></trkpt>
   <trkpt lat="36.771699" lon="3.059463"><ele>24</ele></trkpt>
   <trkpt lat="36.771903" lon="3.059721"><ele>25.5</ele></trkpt>
   <trkpt lat="36.771935" lon="3.059757"><ele>26</ele></trkpt>
   <trkpt lat="36.771978" lon="3.059811"><ele>26.5</ele></trkpt>
   <trkpt lat="36.772174" lon="3.060045"><ele>28</ele></trkpt>
   <trkpt lat="36.772302" lon="3.060214"><ele>28</ele></trkpt>
   <trkpt lat="36.772427" lon="3.06037"><ele>28</ele></trkpt>
   <trkpt lat="36.772554" lon="3.060522"><ele>28.75</ele></trkpt>
   <trkpt lat="36.772718" lon="3.060718"><ele>26.25</ele></trkpt>
   <trkpt lat="36.773035" lon="3.061082"><ele>24</ele></trkpt>
   <trkpt lat="36.773064" lon="3.0611"><ele>23.75</ele></trkpt>
   <trkpt lat="36.77311" lon="3.061108"><ele>24</ele></trkpt>
   <trkpt lat="36.773406" lon="3.06104"><ele>21.75</ele></trkpt>
   <trkpt lat="36.773862" lon="3.060935"><ele>16</ele></trkpt>
   <trkpt lat="36.774319" lon="3.06083"><ele>12.75</ele></trkpt>
   <trkpt lat="36.774383" lon="3.060816"><ele>12.25</ele></trkpt>
   <trkpt lat="36.774775" lon="3.060727"><ele>16.75</ele></trkpt>
   <trkpt lat="36.77512" lon="3.060649"><ele>21.25</ele></trkpt>
   <trkpt lat="36.775805" lon="3.060492"><ele>27</ele></trkpt>
   <trkpt lat="36.775801" lon="3.060468"><ele>35</ele></trkpt>
  </trkseg>
 </trk>
</gpx>