<?xml version="1.0" encoding="UTF-8"?>
<!-- track-length = 20556 filtered ascend = 410 plain-ascend = 279 cost=36038 energy=0.2kwh time=1h 37m 37s -->
<gpx 
 xmlns="http://www.topografix.com/GPX/1/1" 
 xmlns:xsi="http://www.w3.org/2001/XMLSchema-instance" 
 xsi:schemaLocation="http://www.topografix.com/GPX/1/1 http://www.topografix.com/GPX/1/1/gpx.xsd" 
 version="1.1" 
 creator="BRouter-Web 0.18.1">
 <trk>
  <name>Bouzareah - Air de France</name>
  <trkseg>
   <trkpt lat="36.707094" lon="3.166948"><ele>14</ele></trkpt>
   <trkpt lat="36.707101" lon="3.1669"><ele>14</ele></trkpt>
   <trkpt lat="36.707093" lon="3.166804"><ele>14</ele></trkpt>
   <trkpt lat="36.707064" lon="3.166712"><ele>14</ele></trkpt>
   <trkpt lat="36.707016" lon="3.166633"><ele>14.25</ele></trkpt>
   <trkpt lat="36.706953" lon="3.166574"><ele>15.25</ele></trkpt>
   <trkpt lat="36.706867" lon="3.166463"><ele>16</ele></trkpt>
   <trkpt lat="36.706807" lon="3.166368"><ele>16.5</ele></trkpt>
   <trkpt lat="36.706774" lon="3.166293"><ele>16</ele></trkpt>
   <trkpt lat="36.706722" lon="3.166153"><ele>15.5</ele></trkpt>
   <trkpt lat="36.706735" lon="3.166101"><ele>15.5</ele></trkpt>
   <trkpt lat="36.707192" lon="3.165067"><ele>18</ele></trkpt>
   <trkpt lat="36.707732" lon="3.163872"><ele>21.5</ele></trkpt>
   <trkpt lat="36.707854" lon="3.163574"><ele>22</ele></trkpt>
   <trkpt lat="36.708162" lon="3.162882"><ele>21</ele></trkpt>
   <trkpt lat="36.708257" lon="3.162656"><ele>21</ele></trkpt>
   <trkpt lat="36.708657" lon="3.161778"><ele>25</ele></trkpt>
   <trkpt lat="36.709114" lon="3.160742"><ele>23.5</ele></trkpt>
   <trkpt lat="36.709545" lon="3.159746"><ele>25.75</ele></trkpt>
   <trkpt lat="36.70957" lon="3.159681"><ele>26</ele></trkpt>
   <trkpt lat="36.709871" lon="3.159006"><ele>25.25</ele></trkpt>
   <trkpt lat="36.709974" lon="3.158715"><ele>25</ele></trkpt>
   <trkpt lat="36.710088" lon="3.158419"><ele>25.25</ele></trkpt>
   <trkpt lat="36.710307" lon="3.157725"><ele>26</ele></trkpt>
   <trkpt lat="36.710627" lon="3.156801"><ele>26</ele></trkpt>
   <trkpt lat="36.710704" lon="3.156568"><ele>25.5</ele></trkpt>
   <trkpt lat="36.710755" lon="3.156417"><ele>25</ele></trkpt>
   <trkpt lat="36.711044" lon="3.155535"><ele>23</ele></trkpt>
   <trkpt lat="36.711319" lon="3.154656"><ele>19</ele></trkpt>
   <trkpt lat="36.7115" lon="3.154269"><ele>19</ele></trkpt>
   <trkpt lat="36.711763" lon="3.153823"><ele>14.5</ele></trkpt>
   <trkpt lat="36.712122" lon="3.153426"><ele>16</ele></trkpt>
   <trkpt lat="36.712363" lon="3.153231"><ele>14.75</ele></trkpt>
   <trkpt lat="36.712673" lon="3.153066"><ele>16</ele></trkpt>
   <trkpt lat="36.71311" lon="3.152997"><ele>18</ele></trkpt>
   <trkpt lat="36.713892" lon="3.152745"><ele>21</ele></trkpt>
   <trkpt lat="36.714038" lon="3.152567"><ele>21</ele></trkpt>
   <trkpt lat="36.714139" lon="3.152444"><ele>22</ele></trkpt>
   <trkpt lat="36.715532" lon="3.149806"><ele>30.25</ele></trkpt>
   <trkpt lat="36.715745" lon="3.149401"><ele>31</ele></trkpt>
   <trkpt lat="36.715877" lon="3.149159"><ele>31</ele></trkpt>
   <trkpt lat="36.716114" lon="3.148728"><ele>31</ele></trkpt>
   <trkpt lat="36.71671" lon="3.148033"><ele>29.5</ele></trkpt>
   <trkpt lat="36.717028" lon="3.147645"><ele>27</ele></trkpt>
   <trkpt lat="36.716736" lon="3.147132"><ele>26.75</ele></trkpt>
   <trkpt lat="36.71667" lon="3.146916"><ele>26.75</ele></trkpt>
   <trkpt lat="36.716634" lon="3.145384"><ele>23</ele></trkpt>
   <trkpt lat="36.716622" lon="3.14441"><ele>20</ele></trkpt>
   <trkpt lat="36.71667" lon="3.144135"><ele>19.5</ele></trkpt>
   <trkpt lat="36.716921" lon="3.143572"><ele>17.75</ele></trkpt>
   <trkpt lat="36.71673" lon="3.143426"><ele>17</ele></trkpt>
   <trkpt lat="36.716551" lon="3.143387"><ele>17</ele></trkpt>
   <trkpt lat="36.716296" lon="3.143407"><ele>17</ele></trkpt>
   <trkpt lat="36.716234" lon="3.143425"><ele>17</ele></trkpt>
   <trkpt lat="36.71604" lon="3.143427"><ele>16.25</ele></trkpt>
   <trkpt lat="36.715816" lon="3.143388"><ele>15</ele></trkpt>
   <trkpt lat="36.715258" lon="3.143226"><ele>12.5</ele></trkpt>
   <trkpt lat="36.714935" lon="3.143045"><ele>8</ele></trkpt>
   <trkpt lat="36.714797" lon="3.14289"><ele>8</ele></trkpt>
   <trkpt lat="36.714644" lon="3.142354"><ele>7.25</ele></trkpt>
   <trkpt lat="36.714577" lon="3.142118"><ele>7</ele></trkpt>
   <trkpt lat="36.714583" lon="3.141986"><ele>7</ele></trkpt>
   <trkpt lat="36.714614" lon="3.141395"><ele>6</ele></trkpt>
   <trkpt lat="36.714622" lon="3.141237"><ele>6</ele></trkpt>
   <trkpt lat="36.714624" lon="3.141195"><ele>6</ele></trkpt>
   <trkpt lat="36.714667" lon="3.140573"><ele>6.75</ele></trkpt>
   <trkpt lat="36.714691" lon="3.13993"><ele>7.25</ele></trkpt>
   <trkpt lat="36.714701" lon="3.139735"><ele>7.75</ele></trkpt>
   <trkpt lat="36.71474" lon="3.138983"><ele>7.25</ele></trkpt>
   <trkpt lat="36.714758" lon="3.138645"><ele>7</ele></trkpt>
   <trkpt lat="36.714772" lon="3.138381"><ele>7</ele></trkpt>
   <trkpt lat="36.714828" lon="3.137417"><ele>7</ele></trkpt>
   <trkpt lat="36.714867" lon="3.136883"><ele>7</ele></trkpt>
   <trkpt lat="36.714718" lon="3.136796"><ele>7</ele></trkpt>
   <trkpt lat="36.714561" lon="3.136736"><ele>7</ele></trkpt>
   <trkpt lat="36.714467" lon="3.136452"><ele>5.25</ele></trkpt>
   <trkpt lat="36.714384" lon="3.136143"><ele>6</ele></trkpt>
   <trkpt lat="36.714373" lon="3.135967"><ele>6.25</ele></trkpt>
   <trkpt lat="36.71438" lon="3.135829"><ele>6</ele></trkpt>
   <trkpt lat="36.714398" lon="3.135771"><ele>5.75</ele></trkpt>
   <trkpt lat="36.714426" lon="3.135719"><ele>5.5</ele></trkpt>
   <trkpt lat="36.714463" lon="3.135677"><ele>5.5</ele></trkpt>
   <trkpt lat="36.714507" lon="3.135648"><ele>5.5</ele></trkpt>
   <trkpt lat="36.715044" lon="3.135476"><ele>5.5</ele></trkpt>
   <trkpt lat="36.715313" lon="3.135377"><ele>4</ele></trkpt>
   <trkpt lat="36.715413" lon="3.135308"><ele>4</ele></trkpt>
   <trkpt lat="36.715458" lon="3.135262"><ele>4</ele></trkpt>
   <trkpt lat="36.715531" lon="3.135151"><ele>4</ele></trkpt>
   <trkpt lat="36.715558" lon="3.135088"><ele>4</ele></trkpt>
   <trkpt lat="36.715268" lon="3.134801"><ele>4.5</ele></trkpt>
   <trkpt lat="36.71507" lon="3.134638"><ele>4.25</ele></trkpt>
   <trkpt lat="36.714905" lon="3.134513"><ele>4</ele></trkpt>
   <trkpt lat="36.714378" lon="3.1342"><ele>5</ele></trkpt>
   <trkpt lat="36.714239" lon="3.134083"><ele>7.5</ele></trkpt>
   <trkpt lat="36.714073" lon="3.133894"><ele>8</ele></trkpt>
   <trkpt lat="36.713884" lon="3.133517"><ele>8</ele></trkpt>
   <trkpt lat="36.713836" lon="3.133381"><ele>8</ele></trkpt>
   <trkpt lat="36.713793" lon="3.133154"><ele>7.25</ele></trkpt>
   <trkpt lat="36.713749" lon="3.132865"><ele>7</ele></trkpt>
   <trkpt lat="36.713687" lon="3.132374"><ele>5.5</ele></trkpt>
   <trkpt lat="36.713665" lon="3.132058"><ele>4</ele></trkpt>
   <trkpt lat="36.71367" lon="3.131512"><ele>2.75</ele></trkpt>
   <trkpt lat="36.713667" lon="3.131274"><ele>2</ele></trkpt>
   <trkpt lat="36.713662" lon="3.131231"><ele>1.75</ele></trkpt>
   <trkpt lat="36.713651" lon="3.131188"><ele>2</ele></trkpt>
   <trkpt lat="36.7136" lon="3.131079"><ele>2</ele></trkpt>
   <trkpt lat="36.71356" lon="3.130967"><ele>3</ele></trkpt>
   <trkpt lat="36.713555" lon="3.130887"><ele>3</ele></trkpt>
   <trkpt lat="36.714912" lon="3.131391"><ele>9.75</ele></trkpt>
   <trkpt lat="36.714948" lon="3.131403"><ele>9.75</ele></trkpt>
   <trkpt lat="36.715069" lon="3.131393"><ele>10</ele></trkpt>
   <trkpt lat="36.71505" lon="3.131338"><ele>10</ele></trkpt>
   <trkpt lat="36.715045" lon="3.131219"><ele>10</ele></trkpt>
   <trkpt lat="36.71513" lon="3.129767"><ele>16</ele></trkpt>
   <trkpt lat="36.715131" lon="3.129601"><ele>16.5</ele></trkpt>
   <trkpt lat="36.715118" lon="3.129443"><ele>16</ele></trkpt>
   <trkpt lat="36.715084" lon="3.129271"><ele>14.5</ele></trkpt>
   <trkpt lat="36.715009" lon="3.129058"><ele>11.25</ele></trkpt>
   <trkpt lat="36.714725" lon="3.128354"><ele>11</ele></trkpt>
   <trkpt lat="36.715241" lon="3.127985"><ele>14.25</ele></trkpt>
   <trkpt lat="36.715222" lon="3.127832"><ele>13.75</ele></trkpt>
   <trkpt lat="36.715323" lon="3.126976"><ele>12</ele></trkpt>
   <trkpt lat="36.715216" lon="3.12665"><ele>11.75</ele></trkpt>
   <trkpt lat="36.715065" lon="3.126347"><ele>11.25</ele></trkpt>
   <trkpt lat="36.714921" lon="3.126123"><ele>11</ele></trkpt>
   <trkpt lat="36.714678" lon="3.125504"><ele>17</ele></trkpt>
   <trkpt lat="36.714527" lon="3.124905"><ele>17.5</ele></trkpt>
   <trkpt lat="36.714452" lon="3.124613"><ele>19</ele></trkpt>
   <trkpt lat="36.714402" lon="3.123774"><ele>23.75</ele></trkpt>
   <trkpt lat="36.714301" lon="3.12265"><ele>26</ele></trkpt>
   <trkpt lat="36.714203" lon="3.121609"><ele>29.5</ele></trkpt>
   <trkpt lat="36.714141" lon="3.120844"><ele>33</ele></trkpt>
   <trkpt lat="36.714105" lon="3.120584"><ele>33</ele></trkpt>
   <trkpt lat="36.714098" lon="3.120222"><ele>33</ele></trkpt>
   <trkpt lat="36.714057" lon="3.119731"><ele>35.75</ele></trkpt>
   <trkpt lat="36.714053" lon="3.119677"><ele>36</ele></trkpt>
   <trkpt lat="36.714009" lon="3.119132"><ele>36.5</ele></trkpt>
   <trkpt lat="36.713983" lon="3.118765"><ele>42</ele></trkpt>
   <trkpt lat="36.713912" lon="3.117951"><ele>44</ele></trkpt>
   <trkpt lat="36.713904" lon="3.117861"><ele>44</ele></trkpt>
   <trkpt lat="36.713819" lon="3.11685"><ele>48</ele></trkpt>
   <trkpt lat="36.713772" lon="3.116481"><ele>47.25</ele></trkpt>
   <trkpt lat="36.71371" lon="3.116153"><ele>47</ele></trkpt>
   <trkpt lat="36.713563" lon="3.115568"><ele>44.75</ele></trkpt>
   <trkpt lat="36.713156" lon="3.114244"><ele>45</ele></trkpt>
   <trkpt lat="36.713121" lon="3.114027"><ele>46</ele></trkpt>
   <trkpt lat="36.713128" lon="3.113864"><ele>47</ele></trkpt>
   <trkpt lat="36.713195" lon="3.113682"><ele>47</ele></trkpt>
   <trkpt lat="36.713477" lon="3.113036"><ele>47.75</ele></trkpt>
   <trkpt lat="36.713589" lon="3.112818"><ele>46.25</ele></trkpt>
   <trkpt lat="36.713632" lon="3.112735"><ele>46</ele></trkpt>
   <trkpt lat="36.71371" lon="3.112688"><ele>46</ele></trkpt>
   <trkpt lat="36.713796" lon="3.112672"><ele>46</ele></trkpt>
   <trkpt lat="36.713827" lon="3.112663"><ele>46</ele></trkpt>
   <trkpt lat="36.713845" lon="3.11265"><ele>46</ele></trkpt>
   <trkpt lat="36.71387" lon="3.11261"><ele>46</ele></trkpt>
   <trkpt lat="36.713876" lon="3.112585"><ele>46</ele></trkpt>
   <trkpt lat="36.713872" lon="3.112535"><ele>46</ele></trkpt>
   <trkpt lat="36.71386" lon="3.112507"><ele>46</ele></trkpt>
   <trkpt lat="36.713842" lon="3.112485"><ele>46</ele></trkpt>
   <trkpt lat="36.71383" lon="3.112406"><ele>46.5</ele></trkpt>
   <trkpt lat="36.713833" lon="3.112327"><ele>47</ele></trkpt>
   <trkpt lat="36.714091" lon="3.111851"><ele>48</ele></trkpt>
   <trkpt lat="36.713588" lon="3.111349"><ele>50</ele></trkpt>
   <trkpt lat="36.713917" lon="3.110198"><ele>52</ele></trkpt>
   <trkpt lat="36.713967" lon="3.110063"><ele>52</ele></trkpt>
   <trkpt lat="36.714022" lon="3.109961"><ele>52.25</ele></trkpt>
   <trkpt lat="36.714149" lon="3.109752"><ele>53.75</ele></trkpt>
   <trkpt lat="36.714344" lon="3.109489"><ele>54.5</ele></trkpt>
   <trkpt lat="36.714512" lon="3.109299"><ele>55</ele></trkpt>
   <trkpt lat="36.714629" lon="3.10915"><ele>54.75</ele></trkpt>
   <trkpt lat="36.714881" lon="3.108867"><ele>53</ele></trkpt>
   <trkpt lat="36.715374" lon="3.108239"><ele>52.25</ele></trkpt>
   <trkpt lat="36.715689" lon="3.108038"><ele>53</ele></trkpt>
   <trkpt lat="36.716105" lon="3.107799"><ele>51</ele></trkpt>
   <trkpt lat="36.716581" lon="3.107538"><ele>51</ele></trkpt>
   <trkpt lat="36.716622" lon="3.107514"><ele>51</ele></trkpt>
   <trkpt lat="36.716787" lon="3.107409"><ele>49.75</ele></trkpt>
   <trkpt lat="36.717021" lon="3.107235"><ele>48</ele></trkpt>
   <trkpt lat="36.717312" lon="3.106964"><ele>48</ele></trkpt>
   <trkpt lat="36.71803" lon="3.106238"><ele>48</ele></trkpt>
   <trkpt lat="36.718421" lon="3.105802"><ele>47</ele></trkpt>
   <trkpt lat="36.718749" lon="3.105486"><ele>39</ele></trkpt>
   <trkpt lat="36.718834" lon="3.105407"><ele>39</ele></trkpt>
   <trkpt lat="36.719086" lon="3.105117"><ele>39</ele></trkpt>
   <trkpt lat="36.719262" lon="3.104933"><ele>38.25</ele></trkpt>
   <trkpt lat="36.719374" lon="3.104779"><ele>37.75</ele></trkpt>
   <trkpt lat="36.71955" lon="3.104524"><ele>37</ele></trkpt>
   <trkpt lat="36.71988" lon="3.104021"><ele>38</ele></trkpt>
   <trkpt lat="36.720005" lon="3.103765"><ele>39</ele></trkpt>
   <trkpt lat="36.720066" lon="3.103668"><ele>39</ele></trkpt>
   <trkpt lat="36.720165" lon="3.103464"><ele>39.5</ele></trkpt>
   <trkpt lat="36.720349" lon="3.103164"><ele>39.25</ele></trkpt>
   <trkpt lat="36.720641" lon="3.102639"><ele>39</ele></trkpt>
   <trkpt lat="36.720833" lon="3.102258"><ele>39.75</ele></trkpt>
   <trkpt lat="36.720886" lon="3.102131"><ele>41.25</ele></trkpt>
   <trkpt lat="36.721179" lon="3.101572"><ele>45.75</ele></trkpt>
   <trkpt lat="36.721272" lon="3.10143"><ele>44.25</ele></trkpt>
   <trkpt lat="36.721391" lon="3.101277"><ele>44</ele></trkpt>
   <trkpt lat="36.721584" lon="3.101063"><ele>44</ele></trkpt>
   <trkpt lat="36.721378" lon="3.100746"><ele>44.25</ele></trkpt>
   <trkpt lat="36.720927" lon="3.100108"><ele>43</ele></trkpt>
   <trkpt lat="36.721243" lon="3.099832"><ele>46.75</ele></trkpt>
   <trkpt lat="36.72131" lon="3.099747"><ele>47.5</ele></trkpt>
   <trkpt lat="36.72135" lon="3.099623"><ele>48</ele></trkpt>
   <trkpt lat="36.721383" lon="3.099462"><ele>48</ele></trkpt>
   <trkpt lat="36.72153" lon="3.098241"><ele>47.25</ele></trkpt>
   <trkpt lat="36.721544" lon="3.098091"><ele>46.25</ele></trkpt>
   <trkpt lat="36.721543" lon="3.097975"><ele>46</ele></trkpt>
   <trkpt lat="36.721337" lon="3.096589"><ele>48</ele></trkpt>
   <trkpt lat="36.721223" lon="3.095876"><ele>54</ele></trkpt>
   <trkpt lat="36.721159" lon="3.095477"><ele>62</ele></trkpt>
   <trkpt lat="36.72101" lon="3.094524"><ele>61.75</ele></trkpt>
   <trkpt lat="36.720945" lon="3.094112"><ele>58.5</ele></trkpt>
   <trkpt lat="36.720953" lon="3.09394"><ele>56</ele></trkpt>
   <trkpt lat="36.72111" lon="3.092997"><ele>53.75</ele></trkpt>
   <trkpt lat="36.721497" lon="3.092878"><ele>54</ele></trkpt>
   <trkpt lat="36.721897" lon="3.092737"><ele>62.25</ele></trkpt>
   <trkpt lat="36.722325" lon="3.09257"><ele>64</ele></trkpt>
   <trkpt lat="36.722051" lon="3.091374"><ele>57</ele></trkpt>
   <trkpt lat="36.722155" lon="3.091181"><ele>57</ele></trkpt>
   <trkpt lat="36.722239" lon="3.091008"><ele>57</ele></trkpt>
   <trkpt lat="36.722321" lon="3.090825"><ele>57</ele></trkpt>
   <trkpt lat="36.722401" lon="3.090601"><ele>59.5</ele></trkpt>
   <trkpt lat="36.722457" lon="3.090381"><ele>60</ele></trkpt>
   <trkpt lat="36.722492" lon="3.09018"><ele>60</ele></trkpt>
   <trkpt lat="36.722499" lon="3.090087"><ele>60</ele></trkpt>
   <trkpt lat="36.72251" lon="3.089928"><ele>61.25</ele></trkpt>
   <trkpt lat="36.722589" lon="3.087796"><ele>64</ele></trkpt>
   <trkpt lat="36.722605" lon="3.087682"><ele>64</ele></trkpt>
   <trkpt lat="36.722669" lon="3.087521"><ele>64</ele></trkpt>
   <trkpt lat="36.722849" lon="3.087261"><ele>62.25</ele></trkpt>
   <trkpt lat="36.723332" lon="3.086266"><ele>67</ele></trkpt>
   <trkpt lat="36.723351" lon="3.086204"><ele>67</ele></trkpt>
   <trkpt lat="36.723656" lon="3.085606"><ele>68</ele></trkpt>
   <trkpt lat="36.723685" lon="3.085544"><ele>68</ele></trkpt>
   <trkpt lat="36.724061" lon="3.084786"><ele>71</ele></trkpt>
   <trkpt lat="36.724095" lon="3.084739"><ele>71.75</ele></trkpt>
   <trkpt lat="36.724136" lon="3.084702"><ele>72</ele></trkpt>
   <trkpt lat="36.724182" lon="3.084675"><ele>72.25</ele></trkpt>
   <trkpt lat="36.724232" lon="3.08466"><ele>73</ele></trkpt>
   <trkpt lat="36.724419" lon="3.084617"><ele>76.5</ele></trkpt>
   <trkpt lat="36.724504" lon="3.084627"><ele>77</ele></trkpt>
   <trkpt lat="36.724612" lon="3.083908"><ele>76</ele></trkpt>
   <trkpt lat="36.724698" lon="3.083424"><ele>76</ele></trkpt>
   <trkpt lat="36.724817" lon="3.082914"><ele>76</ele></trkpt>
   <trkpt lat="36.724976" lon="3.08229"><ele>78.25</ele></trkpt>
   <trkpt lat="36.725151" lon="3.081645"><ele>81.75</ele></trkpt>
   <trkpt lat="36.72528" lon="3.081127"><ele>85</ele></trkpt>
   <trkpt lat="36.725314" lon="3.080935"><ele>85</ele></trkpt>
   <trkpt lat="36.725337" lon="3.080901"><ele>85</ele></trkpt>
   <trkpt lat="36.725342" lon="3.08088"><ele>85</ele></trkpt>
   <trkpt lat="36.725339" lon="3.080836"><ele>85</ele></trkpt>
   <trkpt lat="36.72533" lon="3.080817"><ele>85</ele></trkpt>
   <trkpt lat="36.725405" lon="3.08054"><ele>86</ele></trkpt>
   <trkpt lat="36.725575" lon="3.079995"><ele>86</ele></trkpt>
   <trkpt lat="36.725678" lon="3.079684"><ele>89</ele></trkpt>
   <trkpt lat="36.725791" lon="3.079372"><ele>89</ele></trkpt>
   <trkpt lat="36.725948" lon="3.078921"><ele>93.5</ele></trkpt>
   <trkpt lat="36.726008" lon="3.078785"><ele>92.5</ele></trkpt>
   <trkpt lat="36.726062" lon="3.078722"><ele>91</ele></trkpt>
   <trkpt lat="36.726082" lon="3.078689"><ele>90.5</ele></trkpt>
   <trkpt lat="36.726099" lon="3.078637"><ele>90.25</ele></trkpt>
   <trkpt lat="36.726104" lon="3.078582"><ele>90</ele></trkpt>
   <trkpt lat="36.72612" lon="3.07849"><ele>90</ele></trkpt>
   <trkpt lat="36.726152" lon="3.078399"><ele>90</ele></trkpt>
   <trkpt lat="36.726598" lon="3.077476"><ele>95.5</ele></trkpt>
   <trkpt lat="36.72696" lon="3.076641"><ele>99.25</ele></trkpt>
   <trkpt lat="36.727019" lon="3.076489"><ele>102</ele></trkpt>
   <trkpt lat="36.727084" lon="3.076289"><ele>104</ele></trkpt>
   <trkpt lat="36.727111" lon="3.076178"><ele>104</ele></trkpt>
   <trkpt lat="36.727155" lon="3.075964"><ele>104</ele></trkpt>
   <trkpt lat="36.727269" lon="3.075325"><ele>106.75</ele></trkpt>
   <trkpt lat="36.727388" lon="3.074694"><ele>115</ele></trkpt>
   <trkpt lat="36.727467" lon="3.074248"><ele>115</ele></trkpt>
   <trkpt lat="36.727844" lon="3.072208"><ele>134</ele></trkpt>
   <trkpt lat="36.727942" lon="3.071749"><ele>134</ele></trkpt>
   <trkpt lat="36.727989" lon="3.071458"><ele>132.25</ele></trkpt>
   <trkpt lat="36.728004" lon="3.071373"><ele>132</ele></trkpt>
   <trkpt lat="36.72805" lon="3.071106"><ele>132</ele></trkpt>
   <trkpt lat="36.728102" lon="3.070751"><ele>132</ele></trkpt>
   <trkpt lat="36.728158" lon="3.070461"><ele>132</ele></trkpt>
   <trkpt lat="36.728255" lon="3.070189"><ele>132</ele></trkpt>
   <trkpt lat="36.72839" lon="3.069943"><ele>132.25</ele></trkpt>
   <trkpt lat="36.728559" lon="3.069731"><ele>131.5</ele></trkpt>
   <trkpt lat="36.728737" lon="3.069538"><ele>131</ele></trkpt>
   <trkpt lat="36.729119" lon="3.069276"><ele>131</ele></trkpt>
   <trkpt lat="36.729179" lon="3.069229"><ele>130.5</ele></trkpt>
   <trkpt lat="36.729354" lon="3.069094"><ele>126.25</ele></trkpt>
   <trkpt lat="36.730004" lon="3.068594"><ele>124.75</ele></trkpt>
   <trkpt lat="36.730733" lon="3.068071"><ele>128.25</ele></trkpt>
   <trkpt lat="36.731031" lon="3.067848"><ele>126</ele></trkpt>
   <trkpt lat="36.731401" lon="3.067585"><ele>125</ele></trkpt>
   <trkpt lat="36.731874" lon="3.067242"><ele>130.25</ele></trkpt>
   <trkpt lat="36.732042" lon="3.067142"><ele>132</ele></trkpt>
   <trkpt lat="36.732073" lon="3.06715"><ele>132</ele></trkpt>
   <trkpt lat="36.732105" lon="3.067145"><ele>132</ele></trkpt>
   <trkpt lat="36.732116" lon="3.06714"><ele>132</ele></trkpt>
   <trkpt lat="36.73215" lon="3.067109"><ele>132</ele></trkpt>
   <trkpt lat="36.73217" lon="3.067069"><ele>132</ele></trkpt>
   <trkpt lat="36.732446" lon="3.066847"><ele>132</ele></trkpt>
   <trkpt lat="36.732573" lon="3.066643"><ele>135</ele></trkpt>
   <trkpt lat="36.73267" lon="3.066412"><ele>137.5</ele></trkpt>
   <trkpt lat="36.732767" lon="3.066152"><ele>141.5</ele></trkpt>
   <trkpt lat="36.733511" lon="3.063916"><ele>140.75</ele></trkpt>
   <trkpt lat="36.733581" lon="3.063794"><ele>142</ele></trkpt>
   <trkpt lat="36.733664" lon="3.063677"><ele>143</ele></trkpt>
   <trkpt lat="36.733722" lon="3.063634"><ele>143</ele></trkpt>
   <trkpt lat="36.733772" lon="3.063578"><ele>143</ele></trkpt>
   <trkpt lat="36.733812" lon="3.063509"><ele>143</ele></trkpt>
   <trkpt lat="36.73383" lon="3.063437"><ele>143</ele></trkpt>
   <trkpt lat="36.733835" lon="3.063361"><ele>143</ele></trkpt>
   <trkpt lat="36.733826" lon="3.063286"><ele>142.25</ele></trkpt>
   <trkpt lat="36.733809" lon="3.06323"><ele>141.75</ele></trkpt>
   <trkpt lat="36.733803" lon="3.063147"><ele>140.75</ele></trkpt>
   <trkpt lat="36.733794" lon="3.063106"><ele>140.5</ele></trkpt>
   <trkpt lat="36.733725" lon="3.06292"><ele>140</ele></trkpt>
   <trkpt lat="36.73367" lon="3.062813"><ele>140</ele></trkpt>
   <trkpt lat="36.733515" lon="3.06257"><ele>137.5</ele></trkpt>
   <trkpt lat="36.733458" lon="3.062454"><ele>136.25</ele></trkpt>
   <trkpt lat="36.73343" lon="3.062319"><ele>136.5</ele></trkpt>
   <trkpt lat="36.733422" lon="3.062187"><ele>137.25</ele></trkpt>
   <trkpt lat="36.733425" lon="3.061946"><ele>137.25</ele></trkpt>
   <trkpt lat="36.733482" lon="3.061202"><ele>136.25</ele></trkpt>
   <trkpt lat="36.733493" lon="3.06048"><ele>138.5</ele></trkpt>
   <trkpt lat="36.73362" lon="3.060435"><ele>137</ele></trkpt>
   <trkpt lat="36.733638" lon="3.060387"><ele>137</ele></trkpt>
   <trkpt lat="36.73396" lon="3.059989"><ele>137.25</ele></trkpt>
   <trkpt lat="36.734087" lon="3.059854"><ele>140.5</ele></trkpt>
   <trkpt lat="36.734275" lon="3.059772"><ele>139.25</ele></trkpt>
   <trkpt lat="36.734875" lon="3.05965"><ele>135</ele></trkpt>
   <trkpt lat="36.734881" lon="3.05943"><ele>135</ele></trkpt>
   <trkpt lat="36.734845" lon="3.058887"><ele>140</ele></trkpt>
   <trkpt lat="36.734861" lon="3.058739"><ele>140</ele></trkpt>
   <trkpt lat="36.734924" lon="3.058473"><ele>140</ele></trkpt>
   <trkpt lat="36.735132" lon="3.057869"><ele>149.75</ele></trkpt>
   <trkpt lat="36.735171" lon="3.057702"><ele>150.5</ele></trkpt>
   <trkpt lat="36.735197" lon="3.05751"><ele>151.25</ele></trkpt>
   <trkpt lat="36.735198" lon="3.057121"><ele>155.25</ele></trkpt>
   <trkpt lat="36.735185" lon="3.057028"><ele>155.25</ele></trkpt>
   <trkpt lat="36.735132" lon="3.056567"><ele>155.5</ele></trkpt>
   <trkpt lat="36.735068" lon="3.056258"><ele>157.25</ele></trkpt>
   <trkpt lat="36.735331" lon="3.055714"><ele>153.5</ele></trkpt>
   <trkpt lat="36.735606" lon="3.055165"><ele>152</ele></trkpt>
   <trkpt lat="36.735775" lon="3.05483"><ele>150</ele></trkpt>
   <trkpt lat="36.735825" lon="3.054729"><ele>149</ele></trkpt>
   <trkpt lat="36.735955" lon="3.054442"><ele>146.75</ele></trkpt>
   <trkpt lat="36.736012" lon="3.054231"><ele>145.75</ele></trkpt>
   <trkpt lat="36.736044" lon="3.054006"><ele>143.75</ele></trkpt>
   <trkpt lat="36.736065" lon="3.053547"><ele>142.25</ele></trkpt>
   <trkpt lat="36.736095" lon="3.05332"><ele>142.25</ele></trkpt>
   <trkpt lat="36.736124" lon="3.052972"><ele>148</ele></trkpt>
   <trkpt lat="36.736201" lon="3.052682"><ele>148</ele></trkpt>
   <trkpt lat="36.736388" lon="3.052049"><ele>145</ele></trkpt>
   <trkpt lat="36.736433" lon="3.051919"><ele>145</ele></trkpt>
   <trkpt lat="36.736645" lon="3.051494"><ele>146</ele></trkpt>
   <trkpt lat="36.736877" lon="3.051079"><ele>139.25</ele></trkpt>
   <trkpt lat="36.736926" lon="3.05101"><ele>137.5</ele></trkpt>
   <trkpt lat="36.737304" lon="3.050537"><ele>133</ele></trkpt>
   <trkpt lat="36.737424" lon="3.050439"><ele>133</ele></trkpt>
   <trkpt lat="36.737842" lon="3.050138"><ele>123</ele></trkpt>
   <trkpt lat="36.738007" lon="3.050034"><ele>122.75</ele></trkpt>
   <trkpt lat="36.738179" lon="3.049972"><ele>122.75</ele></trkpt>
   <trkpt lat="36.738628" lon="3.049857"><ele>123</ele></trkpt>
   <trkpt lat="36.738487" lon="3.049759"><ele>125.75</ele></trkpt>
   <trkpt lat="36.738225" lon="3.049541"><ele>122</ele></trkpt>
   <trkpt lat="36.737766" lon="3.049079"><ele>124.25</ele></trkpt>
   <trkpt lat="36.737815" lon="3.048989"><ele>126.25</ele></trkpt>
   <trkpt lat="36.737914" lon="3.048763"><ele>129</ele></trkpt>
   <trkpt lat="36.738028" lon="3.048524"><ele>129</ele></trkpt>
   <trkpt lat="36.738399" lon="3.047811"><ele>133.5</ele></trkpt>
   <trkpt lat="36.738446" lon="3.047699"><ele>136</ele></trkpt>
   <trkpt lat="36.738473" lon="3.047576"><ele>137.5</ele></trkpt>
   <trkpt lat="36.738486" lon="3.047222"><ele>141.5</ele></trkpt>
   <trkpt lat="36.738405" lon="3.047213"><ele>138</ele></trkpt>
   <trkpt lat="36.738285" lon="3.047121"><ele>135</ele></trkpt>
   <trkpt lat="36.738235" lon="3.047065"><ele>135</ele></trkpt>
   <trkpt lat="36.738214" lon="3.047022"><ele>135</ele></trkpt>
   <trkpt lat="36.738202" lon="3.046977"><ele>135</ele></trkpt>
   <trkpt lat="36.738198" lon="3.04693"><ele>135</ele></trkpt>
   <trkpt lat="36.738216" lon="3.046709"><ele>135</ele></trkpt>
   <trkpt lat="36.738221" lon="3.04648"><ele>137</ele></trkpt>
   <trkpt lat="36.738217" lon="3.046366"><ele>138</ele></trkpt>
   <trkpt lat="36.738191" lon="3.04614"><ele>138</ele></trkpt>
   <trkpt lat="36.738144" lon="3.045919"><ele>138</ele></trkpt>
   <trkpt lat="36.737999" lon="3.045425"><ele>142</ele></trkpt>
   <trkpt lat="36.737849" lon="3.04502"><ele>142</ele></trkpt>
   <trkpt lat="36.737812" lon="3.04486"><ele>139.25</ele></trkpt>
   <trkpt lat="36.737794" lon="3.044727"><ele>137</ele></trkpt>
   <trkpt lat="36.737797" lon="3.044577"><ele>137</ele></trkpt>
   <trkpt lat="36.737816" lon="3.04443"><ele>137</ele></trkpt>
   <trkpt lat="36.737843" lon="3.044305"><ele>137</ele></trkpt>
   <trkpt lat="36.737892" lon="3.044168"><ele>137</ele></trkpt>
   <trkpt lat="36.738005" lon="3.043956"><ele>137.75</ele></trkpt>
   <trkpt lat="36.738024" lon="3.043942"><ele>137.75</ele></trkpt>
   <trkpt lat="36.738042" lon="3.043916"><ele>137.75</ele></trkpt>
   <trkpt lat="36.738052" lon="3.043866"><ele>138</ele></trkpt>
   <trkpt lat="36.738381" lon="3.043659"><ele>139</ele></trkpt>
   <trkpt lat="36.739013" lon="3.043405"><ele>144</ele></trkpt>
   <trkpt lat="36.739235" lon="3.043268"><ele>147.75</ele></trkpt>
   <trkpt lat="36.739519" lon="3.042989"><ele>145</ele></trkpt>
   <trkpt lat="36.739679" lon="3.042748"><ele>145</ele></trkpt>
   <trkpt lat="36.739845" lon="3.042399"><ele>143.75</ele></trkpt>
   <trkpt lat="36.739943" lon="3.042166"><ele>142</ele></trkpt>
   <trkpt lat="36.739958" lon="3.042132"><ele>142</ele></trkpt>
   <trkpt lat="36.740046" lon="3.041834"><ele>144.5</ele></trkpt>
   <trkpt lat="36.740098" lon="3.041608"><ele>147.75</ele></trkpt>
   <trkpt lat="36.740191" lon="3.04102"><ele>151.75</ele></trkpt>
   <trkpt lat="36.740226" lon="3.040893"><ele>153</ele></trkpt>
   <trkpt lat="36.740294" lon="3.040761"><ele>153</ele></trkpt>
   <trkpt lat="36.740374" lon="3.040652"><ele>150.25</ele></trkpt>
   <trkpt lat="36.740459" lon="3.040553"><ele>148</ele></trkpt>
   <trkpt lat="36.740628" lon="3.040388"><ele>148</ele></trkpt>
   <trkpt lat="36.740854" lon="3.04025"><ele>148.5</ele></trkpt>
   <trkpt lat="36.740909" lon="3.04021"><ele>150</ele></trkpt>
   <trkpt lat="36.741088" lon="3.04021"><ele>155.25</ele></trkpt>
   <trkpt lat="36.741115" lon="3.04021"><ele>156</ele></trkpt>
   <trkpt lat="36.741289" lon="3.040142"><ele>156</ele></trkpt>
   <trkpt lat="36.741476" lon="3.040158"><ele>156</ele></trkpt>
   <trkpt lat="36.741692" lon="3.040196"><ele>156.75</ele></trkpt>
   <trkpt lat="36.74191" lon="3.040208"><ele>164.75</ele></trkpt>
   <trkpt lat="36.74213" lon="3.040081"><ele>166</ele></trkpt>
   <trkpt lat="36.742524" lon="3.039824"><ele>174</ele></trkpt>
   <trkpt lat="36.743208" lon="3.039399"><ele>184</ele></trkpt>
   <trkpt lat="36.743341" lon="3.039306"><ele>184</ele></trkpt>
   <trkpt lat="36.743545" lon="3.039198"><ele>184.75</ele></trkpt>
   <trkpt lat="36.743732" lon="3.039072"><ele>189.75</ele></trkpt>
   <trkpt lat="36.74409" lon="3.038847"><ele>199</ele></trkpt>
   <trkpt lat="36.744982" lon="3.038395"><ele>197</ele></trkpt>
   <trkpt lat="36.745878" lon="3.038015"><ele>206.5</ele></trkpt>
   <trkpt lat="36.74596" lon="3.037965"><ele>204.25</ele></trkpt>
   <trkpt lat="36.746038" lon="3.037883"><ele>202</ele></trkpt>
   <trkpt lat="36.746145" lon="3.037729"><ele>200</ele></trkpt>
   <trkpt lat="36.746286" lon="3.037481"><ele>200.5</ele></trkpt>
   <trkpt lat="36.746449" lon="3.037216"><ele>208</ele></trkpt>
   <trkpt lat="36.746489" lon="3.037128"><ele>208</ele></trkpt>
   <trkpt lat="36.746501" lon="3.037045"><ele>208</ele></trkpt>
   <trkpt lat="36.746513" lon="3.03687"><ele>208</ele></trkpt>
   <trkpt lat="36.746529" lon="3.036761"><ele>208</ele></trkpt>
   <trkpt lat="36.746555" lon="3.036688"><ele>208</ele></trkpt>
   <trkpt lat="36.74679" lon="3.036294"><ele>205</ele></trkpt>
   <trkpt lat="36.746913" lon="3.036014"><ele>200</ele></trkpt>
   <trkpt lat="36.746832" lon="3.035157"><ele>206</ele></trkpt>
   <trkpt lat="36.746795" lon="3.034999"><ele>207.25</ele></trkpt>
   <trkpt lat="36.746803" lon="3.034821"><ele>210.5</ele></trkpt>
   <trkpt lat="36.746872" lon="3.034516"><ele>211.25</ele></trkpt>
   <trkpt lat="36.74693" lon="3.034434"><ele>210.25</ele></trkpt>
   <trkpt lat="36.747037" lon="3.034025"><ele>213.5</ele></trkpt>
   <trkpt lat="36.747078" lon="3.033807"><ele>217</ele></trkpt>
   <trkpt lat="36.747058" lon="3.03369"><ele>217</ele></trkpt>
   <trkpt lat="36.746974" lon="3.033399"><ele>217</ele></trkpt>
   <trkpt lat="36.746964" lon="3.03329"><ele>217.75</ele></trkpt>
   <trkpt lat="36.746879" lon="3.032699"><ele>222</ele></trkpt>
   <trkpt lat="36.74689" lon="3.032536"><ele>222</ele></trkpt>
   <trkpt lat="36.746939" lon="3.032433"><ele>221</ele></trkpt>
   <trkpt lat="36.74703" lon="3.032332"><ele>219.5</ele></trkpt>
   <trkpt lat="36.747591" lon="3.032223"><ele>220.5</ele></trkpt>
   <trkpt lat="36.747807" lon="3.032154"><ele>226</ele></trkpt>
   <trkpt lat="36.74789" lon="3.0321"><ele>226</ele></trkpt>
   <trkpt lat="36.747932" lon="3.032064"><ele>226</ele></trkpt>
   <trkpt lat="36.748188" lon="3.031782"><ele>226</ele></trkpt>
   <trkpt lat="36.74832" lon="3.031632"><ele>225.25</ele></trkpt>
   <trkpt lat="36.748456" lon="3.031509"><ele>224.75</ele></trkpt>
   <trkpt lat="36.748552" lon="3.031468"><ele>225.75</ele></trkpt>
   <trkpt lat="36.748648" lon="3.031439"><ele>226.25</ele></trkpt>
   <trkpt lat="36.74877" lon="3.031417"><ele>225.5</ele></trkpt>
   <trkpt lat="36.749552" lon="3.031333"><ele>229</ele></trkpt>
   <trkpt lat="36.749683" lon="3.031277"><ele>229</ele></trkpt>
   <trkpt lat="36.749962" lon="3.031185"><ele>229</ele></trkpt>
   <trkpt lat="36.750064" lon="3.031152"><ele>227.75</ele></trkpt>
   <trkpt lat="36.750413" lon="3.031028"><ele>224</ele></trkpt>
   <trkpt lat="36.750539" lon="3.031024"><ele>224</ele></trkpt>
   <trkpt lat="36.750688" lon="3.031095"><ele>224</ele></trkpt>
   <trkpt lat="36.750791" lon="3.031198"><ele>224</ele></trkpt>
   <trkpt lat="36.750968" lon="3.031486"><ele>226</ele></trkpt>
   <trkpt lat="36.751301" lon="3.032023"><ele>228</ele></trkpt>
   <trkpt lat="36.751603" lon="3.032502"><ele>229</ele></trkpt>
   <trkpt lat="36.751741" lon="3.032614"><ele>231.75</ele></trkpt>
   <trkpt lat="36.751786" lon="3.032462"><ele>233</ele></trkpt>
   <trkpt lat="36.752042" lon="3.032037"><ele>233</ele></trkpt>
   <trkpt lat="36.752123" lon="3.031904"><ele>233</ele></trkpt>
   <trkpt lat="36.752301" lon="3.031475"><ele>231.5</ele></trkpt>
   <trkpt lat="36.75249" lon="3.031181"><ele>231</ele></trkpt>
   <trkpt lat="36.752541" lon="3.031017"><ele>230.5</ele></trkpt>
   <trkpt lat="36.752624" lon="3.030538"><ele>225.75</ele></trkpt>
   <trkpt lat="36.752692" lon="3.030052"><ele>224.5</ele></trkpt>
   <trkpt lat="36.752697" lon="3.029925"><ele>223.75</ele></trkpt>
   <trkpt lat="36.752721" lon="3.029672"><ele>221.75</ele></trkpt>
   <trkpt lat="36.752788" lon="3.02956"><ele>221</ele></trkpt>
   <trkpt lat="36.75302" lon="3.029179"><ele>221</ele></trkpt>
   <trkpt lat="36.753325" lon="3.028719"><ele>225</ele></trkpt>
   <trkpt lat="36.753422" lon="3.028554"><ele>222</ele></trkpt>
   <trkpt lat="36.753565" lon="3.028279"><ele>219.25</ele></trkpt>
   <trkpt lat="36.753655" lon="3.028156"><ele>222.25</ele></trkpt>
   <trkpt lat="36.753711" lon="3.028123"><ele>223.5</ele></trkpt>
   <trkpt lat="36.753758" lon="3.028103"><ele>224.25</ele></trkpt>
   <trkpt lat="36.753857" lon="3.028078"><ele>225</ele></trkpt>
   <trkpt lat="36.754345" lon="3.027985"><ele>223.25</ele></trkpt>
   <trkpt lat="36.754553" lon="3.027919"><ele>222</ele></trkpt>
   <trkpt lat="36.754635" lon="3.027884"><ele>222</ele></trkpt>
   <trkpt lat="36.754753" lon="3.027802"><ele>222</ele></trkpt>
   <trkpt lat="36.754809" lon="3.027745"><ele>222</ele></trkpt>
   <trkpt lat="36.754867" lon="3.027672"><ele>222</ele></trkpt>
   <trkpt lat="36.754941" lon="3.027536"><ele>222</ele></trkpt>
   <trkpt lat="36.755034" lon="3.027313"><ele>218.5</ele></trkpt>
   <trkpt lat="36.755117" lon="3.027087"><ele>215</ele></trkpt>
   <trkpt lat="36.755205" lon="3.026829"><ele>212.25</ele></trkpt>
   <trkpt lat="36.755238" lon="3.026715"><ele>211.25</ele></trkpt>
   <trkpt lat="36.755294" lon="3.026618"><ele>210</ele></trkpt>
   <trkpt lat="36.755351" lon="3.026539"><ele>210</ele></trkpt>
   <trkpt lat="36.755404" lon="3.02649"><ele>210</ele></trkpt>
   <trkpt lat="36.755462" lon="3.026465"><ele>210</ele></trkpt>
   <trkpt lat="36.755495" lon="3.02646"><ele>210</ele></trkpt>
   <trkpt lat="36.755556" lon="3.026467"><ele>210</ele></trkpt>
   <trkpt lat="36.755587" lon="3.026481"><ele>210</ele></trkpt>
   <trkpt lat="36.755617" lon="3.026501"><ele>210</ele></trkpt>
   <trkpt lat="36.755659" lon="3.026547"><ele>210</ele></trkpt>
   <trkpt lat="36.755726" lon="3.026657"><ele>210</ele></trkpt>
   <trkpt lat="36.755867" lon="3.027025"><ele>210.5</ele></trkpt>
   <trkpt lat="36.756062" lon="3.027566"><ele>206</ele></trkpt>
   <trkpt lat="36.7561" lon="3.027655"><ele>206</ele></trkpt>
   <trkpt lat="36.75616" lon="3.027782"><ele>206</ele></trkpt>
   <trkpt lat="36.75622" lon="3.027887"><ele>206</ele></trkpt>
   <trkpt lat="36.756277" lon="3.027959"><ele>206</ele></trkpt>
   <trkpt lat="36.756351" lon="3.028022"><ele>206</ele></trkpt>
   <trkpt lat="36.756365" lon="3.028094"><ele>205.25</ele></trkpt>
   <trkpt lat="36.756391" lon="3.028159"><ele>204</ele></trkpt>
   <trkpt lat="36.756426" lon="3.028213"><ele>203</ele></trkpt>
   <trkpt lat="36.756468" lon="3.028256"><ele>202.25</ele></trkpt>
   <trkpt lat="36.756528" lon="3.028292"><ele>201.5</ele></trkpt>
   <trkpt lat="36.756592" lon="3.028308"><ele>201.25</ele></trkpt>
   <trkpt lat="36.756658" lon="3.028304"><ele>201.5</ele></trkpt>
   <trkpt lat="36.756716" lon="3.028282"><ele>203</ele></trkpt>
   <trkpt lat="36.756769" lon="3.028244"><ele>204.75</ele></trkpt>
   <trkpt lat="36.756813" lon="3.028191"><ele>205.75</ele></trkpt>
   <trkpt lat="36.756847" lon="3.028127"><ele>206</ele></trkpt>
   <trkpt lat="36.756868" lon="3.028055"><ele>206</ele></trkpt>
   <trkpt lat="36.756922" lon="3.027983"><ele>206</ele></trkpt>
   <trkpt lat="36.757061" lon="3.027832"><ele>206</ele></trkpt>
   <trkpt lat="36.757204" lon="3.027753"><ele>205.75</ele></trkpt>
   <trkpt lat="36.757614" lon="3.027454"><ele>208</ele></trkpt>
   <trkpt lat="36.758322" lon="3.026903"><ele>209</ele></trkpt>
   <trkpt lat="36.758774" lon="3.026528"><ele>212</ele></trkpt>
   <trkpt lat="36.758969" lon="3.026378"><ele>210</ele></trkpt>
   <trkpt lat="36.759286" lon="3.026149"><ele>213.25</ele></trkpt>
   <trkpt lat="36.759442" lon="3.026064"><ele>217.75</ele></trkpt>
   <trkpt lat="36.759638" lon="3.025939"><ele>218</ele></trkpt>
   <trkpt lat="36.759925" lon="3.025803"><ele>218</ele></trkpt>
   <trkpt lat="36.760319" lon="3.025604"><ele>218</ele></trkpt>
   <trkpt lat="36.761239" lon="3.025027"><ele>226</ele></trkpt>
   <trkpt lat="36.761461" lon="3.02487"><ele>224</ele></trkpt>
   <trkpt lat="36.76224" lon="3.024269"><ele>226</ele></trkpt>
   <trkpt lat="36.762938" lon="3.023776"><ele>231</ele></trkpt>
   <trkpt lat="36.763299" lon="3.023544"><ele>231</ele></trkpt>
   <trkpt lat="36.763682" lon="3.023245"><ele>234.5</ele></trkpt>
   <trkpt lat="36.76382" lon="3.023115"><ele>235.5</ele></trkpt>
   <trkpt lat="36.76396" lon="3.022926"><ele>235.75</ele></trkpt>
   <trkpt lat="36.76404" lon="3.022795"><ele>236</ele></trkpt>
   <trkpt lat="36.76428" lon="3.022362"><ele>240.25</ele></trkpt>
   <trkpt lat="36.764304" lon="3.022319"><ele>241</ele></trkpt>
   <trkpt lat="36.764335" lon="3.022296"><ele>241.5</ele></trkpt>
   <trkpt lat="36.764347" lon="3.022274"><ele>241.75</ele></trkpt>
   <trkpt lat="36.76435" lon="3.022221"><ele>242.25</ele></trkpt>
   <trkpt lat="36.764422" lon="3.021951"><ele>242.75</ele></trkpt>
   <trkpt lat="36.764595" lon="3.021262"><ele>242</ele></trkpt>
   <trkpt lat="36.764771" lon="3.020213"><ele>243</ele></trkpt>
   <trkpt lat="36.764896" lon="3.019506"><ele>245</ele></trkpt>
   <trkpt lat="36.765098" lon="3.018368"><ele>249.25</ele></trkpt>
   <trkpt lat="36.765248" lon="3.017589"><ele>251</ele></trkpt>
   <trkpt lat="36.765332" lon="3.017133"><ele>254</ele></trkpt>
   <trkpt lat="36.765396" lon="3.016887"><ele>254</ele></trkpt>
   <trkpt lat="36.765443" lon="3.016763"><ele>254</ele></trkpt>
   <trkpt lat="36.765466" lon="3.016717"><ele>254</ele></trkpt>
   <trkpt lat="36.765514" lon="3.016685"><ele>254</ele></trkpt>
   <trkpt lat="36.765527" lon="3.016683"><ele>254</ele></trkpt>
   <trkpt lat="36.76556" lon="3.016667"><ele>254</ele></trkpt>
   <trkpt lat="36.765588" lon="3.016638"><ele>254</ele></trkpt>
   <trkpt lat="36.765606" lon="3.016599"><ele>254</ele></trkpt>
   <trkpt lat="36.765613" lon="3.016556"><ele>254.25</ele></trkpt>
   <trkpt lat="36.765609" lon="3.016516"><ele>254.5</ele></trkpt>
   <trkpt lat="36.765595" lon="3.016479"><ele>254.5</ele></trkpt>
   <trkpt lat="36.765573" lon="3.016449"><ele>254.75</ele></trkpt>
   <trkpt lat="36.765545" lon="3.016429"><ele>254.75</ele></trkpt>
   <trkpt lat="36.765503" lon="3.01642"><ele>254.75</ele></trkpt>
   <trkpt lat="36.765338" lon="3.01628"><ele>255</ele></trkpt>
   <trkpt lat="36.765235" lon="3.016204"><ele>255.75</ele></trkpt>
   <trkpt lat="36.765126" lon="3.016106"><ele>257.5</ele></trkpt>
   <trkpt lat="36.76508" lon="3.01606"><ele>258.5</ele></trkpt>
   <trkpt lat="36.765044" lon="3.016013"><ele>259</ele></trkpt>
   <trkpt lat="36.764973" lon="3.015898"><ele>260</ele></trkpt>
   <trkpt lat="36.764875" lon="3.015696"><ele>261.25</ele></trkpt>
   <trkpt lat="36.764812" lon="3.015565"><ele>262.75</ele></trkpt>
   <trkpt lat="36.764655" lon="3.015272"><ele>263</ele></trkpt>
   <trkpt lat="36.764534" lon="3.015066"><ele>263</ele></trkpt>
   <trkpt lat="36.764365" lon="3.014817"><ele>265.25</ele></trkpt>
   <trkpt lat="36.76398" lon="3.014244"><ele>265</ele></trkpt>
   <trkpt lat="36.763835" lon="3.014051"><ele>263.75</ele></trkpt>
   <trkpt lat="36.763758" lon="3.014012"><ele>263.25</ele></trkpt>
   <trkpt lat="36.763624" lon="3.013834"><ele>262</ele></trkpt>
   <trkpt lat="36.763603" lon="3.01379"><ele>262</ele></trkpt>
   <trkpt lat="36.763571" lon="3.013757"><ele>262.25</ele></trkpt>
   <trkpt lat="36.763651" lon="3.013653"><ele>262</ele></trkpt>
   <trkpt lat="36.763694" lon="3.01361"><ele>262</ele></trkpt>
   <trkpt lat="36.763988" lon="3.01333"><ele>262</ele></trkpt>
   <trkpt lat="36.76469" lon="3.012682"><ele>267</ele></trkpt>
   <trkpt lat="36.764882" lon="3.012519"><ele>267</ele></trkpt>
   <trkpt lat="36.765001" lon="3.012387"><ele>268.5</ele></trkpt>
   <trkpt lat="36.765083" lon="3.012272"><ele>269.75</ele></trkpt>
   <trkpt lat="36.765156" lon="3.012116"><ele>269.75</ele></trkpt>
   <trkpt lat="36.765301" lon="3.011768"><ele>269</ele></trkpt>
   <trkpt lat="36.7654" lon="3.011531"><ele>269.75</ele></trkpt>
   <trkpt lat="36.765477" lon="3.011369"><ele>271</ele></trkpt>
   <trkpt lat="36.76559" lon="3.011167"><ele>271</ele></trkpt>
   <trkpt lat="36.765713" lon="3.010964"><ele>271</ele></trkpt>
   <trkpt lat="36.765891" lon="3.010733"><ele>269</ele></trkpt>
   <trkpt lat="36.766103" lon="3.01048"><ele>265</ele></trkpt>
   <trkpt lat="36.766179" lon="3.010374"><ele>265</ele></trkpt>
   <trkpt lat="36.766242" lon="3.01026"><ele>265</ele></trkpt>
   <trkpt lat="36.766347" lon="3.010077"><ele>265</ele></trkpt>
   <trkpt lat="36.766485" lon="3.009877"><ele>265.25</ele></trkpt>
   <trkpt lat="36.766556" lon="3.009817"><ele>265.5</ele></trkpt>
   <trkpt lat="36.766596" lon="3.009799"><ele>265.5</ele></trkpt>
   <trkpt lat="36.766647" lon="3.009788"><ele>265.75</ele></trkpt>
   <trkpt lat="36.766779" lon="3.009782"><ele>266.25</ele></trkpt>
   <trkpt lat="36.766848" lon="3.009782"><ele>266.5</ele></trkpt>
   <trkpt lat="36.767228" lon="3.009932"><ele>267</ele></trkpt>
   <trkpt lat="36.767466" lon="3.010022"><ele>267</ele></trkpt>
   <trkpt lat="36.767476" lon="3.009979"><ele>267</ele></trkpt>
   <trkpt lat="36.767483" lon="3.009949"><ele>267</ele></trkpt>
   <trkpt lat="36.767491" lon="3.009914"><ele>267</ele></trkpt>
   <trkpt lat="36.767918" lon="3.010076"><ele>263</ele></trkpt>
   <trkpt lat="36.768197" lon="3.010208"><ele>263</ele></trkpt>
   <trkpt lat="36.768295" lon="3.010261"><ele>263</ele></trkpt>
   <trkpt lat="36.76833" lon="3.010275"><ele>263</ele></trkpt>
   <trkpt lat="36.768359" lon="3.010296"><ele>263.25</ele></trkpt>
   <trkpt lat="36.768453" lon="3.01032"><ele>264.5</ele></trkpt>
   <trkpt lat="36.768507" lon="3.010315"><ele>265.5</ele></trkpt>
   <trkpt lat="36.768533" lon="3.010299"><ele>265.75</ele></trkpt>
   <trkpt lat="36.768577" lon="3.010256"><ele>266.5</ele></trkpt>
   <trkpt lat="36.768607" lon="3.0102"><ele>266.75</ele></trkpt>
   <trkpt lat="36.768617" lon="3.010165"><ele>267</ele></trkpt>
   <trkpt lat="36.768624" lon="3.01007"><ele>266.75</ele></trkpt>
   <trkpt lat="36.768693" lon="3.010038"><ele>267</ele></trkpt>
   <trkpt lat="36.768776" lon="3.009997"><ele>267</ele></trkpt>
   <trkpt lat="36.768832" lon="3.009972"><ele>267.5</ele></trkpt>
   <trkpt lat="36.769332" lon="3.009791"><ele>274.5</ele></trkpt>
   <trkpt lat="36.769443" lon="3.009788"><ele>276.75</ele></trkpt>
   <trkpt lat="36.769573" lon="3.009797"><ele>276.5</ele></trkpt>
   <trkpt lat="36.769692" lon="3.009835"><ele>275.75</ele></trkpt>
   <trkpt lat="36.769779" lon="3.009883"><ele>275</ele></trkpt>
   <trkpt lat="36.770018" lon="3.010067"><ele>273.25</ele></trkpt>
   <trkpt lat="36.770177" lon="3.010169"><ele>277.25</ele></trkpt>
   <trkpt lat="36.770291" lon="3.010232"><ele>280</ele></trkpt>
   <trkpt lat="36.770422" lon="3.010279"><ele>280</ele></trkpt>
   <trkpt lat="36.770527" lon="3.010306"><ele>280</ele></trkpt>
   <trkpt lat="36.770631" lon="3.010322"><ele>280</ele></trkpt>
   <trkpt lat="36.770566" lon="3.010016"><ele>280</ele></trkpt>
   <trkpt lat="36.770427" lon="3.009244"><ele>284</ele></trkpt>
   <trkpt lat="36.77045" lon="3.009248"><ele>284</ele></trkpt>
   <trkpt lat="36.770494" lon="3.009228"><ele>284</ele></trkpt>
   <trkpt lat="36.770557" lon="3.009269"><ele>284</ele></trkpt>
   <trkpt lat="36.771191" lon="3.009551"><ele>284</ele></trkpt>
   <trkpt lat="36.771709" lon="3.009743"><ele>284</ele></trkpt>
   <trkpt lat="36.771813" lon="3.009797"><ele>284.75</ele></trkpt>
   <trkpt lat="36.771898" lon="3.009835"><ele>285.25</ele></trkpt>
   <trkpt lat="36.772738" lon="3.010143"><ele>291.25</ele></trkpt>
   <trkpt lat="36.772891" lon="3.010196"><ele>292</ele></trkpt>
   <trkpt lat="36.773159" lon="3.010295"><ele>292</ele></trkpt>
   <trkpt lat="36.773324" lon="3.01038"><ele>292</ele></trkpt>
   <trkpt lat="36.77343" lon="3.010439"><ele>294.25</ele></trkpt>
   <trkpt lat="36.773576" lon="3.010556"><ele>298</ele></trkpt>
   <trkpt lat="36.773786" lon="3.010569"><ele>299</ele></trkpt>
   <trkpt lat="36.773538" lon="3.010338"><ele>297</ele></trkpt>
   <trkpt lat="36.773459" lon="3.010324"><ele>295</ele></trkpt>
   <trkpt lat="36.773181" lon="3.008974"><ele>287.25</ele></trkpt>
   <trkpt lat="36.773156" lon="3.0089"><ele>287</ele></trkpt>
   <trkpt lat="36.773328" lon="3.008814"><ele>287</ele></trkpt>
   <trkpt lat="36.773612" lon="3.008788"><ele>290</ele></trkpt>
   <trkpt lat="36.773981" lon="3.008711"><ele>290</ele></trkpt>
   <trkpt lat="36.774056" lon="3.008713"><ele>292.5</ele></trkpt>
  </trkseg>
 </trk>
</gpx>