<?xml version="1.0" encoding="UTF-8"?>
<!-- track-length = 25678 filtered ascend = 81 plain-ascend = 34 cost=37586 energy=0.1kwh time=1h 18m 12s -->
<gpx 
 xmlns="http://www.topografix.com/GPX/1/1" 
 xmlns:xsi="http://www.w3.org/2001/XMLSchema-instance" 
 xsi:schemaLocation="http://www.topografix.com/GPX/1/1 http://www.topografix.com/GPX/1/1/gpx.xsd" 
 version="1.1" 
 creator="BRouter-Web 0.18.1">
 <trk>
  <name>Birtouta</name>
  <trkseg>
   <trkpt lat="36.707094" lon="3.166945"><ele>14</ele></trkpt>
   <trkpt lat="36.707101" lon="3.1669"><ele>14</ele></trkpt>
   <trkpt lat="36.707093" lon="3.166804"><ele>14</ele></trkpt>
   <trkpt lat="36.707064" lon="3.166712"><ele>14</ele></trkpt>
   <trkpt lat="36.707016" lon="3.166633"><ele>14.25</ele></trkpt>
   <trkpt lat="36.706953" lon="3.166574"><ele>15.25</ele></trkpt>
   <trkpt lat="36.706867" lon="3.166463"><ele>16</ele></trkpt>
   <trkpt lat="36.706807" lon="3.166368"><ele>16.5</ele></trkpt>
   <trkpt lat="36.706774" lon="3.166293"><ele>16</ele></trkpt>
   <trkpt lat="36.706722" lon="3.166153"><ele>15.5</ele></trkpt>
   <trkpt lat="36.706735" lon="3.166101"><ele>15.5</ele></trkpt>
   <trkpt lat="36.707192" lon="3.165067"><ele>18</ele></trkpt>
   <trkpt lat="36.707732" lon="3.163872"><ele>21.5</ele></trkpt>
   <trkpt lat="36.707854" lon="3.163574"><ele>22</ele></trkpt>
   <trkpt lat="36.708162" lon="3.162882"><ele>21</ele></trkpt>
   <trkpt lat="36.708257" lon="3.162656"><ele>21</ele></trkpt>
   <trkpt lat="36.708657" lon="3.161778"><ele>25</ele></trkpt>
   <trkpt lat="36.709114" lon="3.160742"><ele>23.5</ele></trkpt>
   <trkpt lat="36.709545" lon="3.159746"><ele>25.75</ele></trkpt>
   <trkpt lat="36.70957" lon="3.159681"><ele>26</ele></trkpt>
   <trkpt lat="36.709871" lon="3.159006"><ele>25.25</ele></trkpt>
   <trkpt lat="36.709974" lon="3.158715"><ele>25</ele></trkpt>
   <trkpt lat="36.710088" lon="3.158419"><ele>25.25</ele></trkpt>
   <trkpt lat="36.710307" lon="3.157725"><ele>26</ele></trkpt>
   <trkpt lat="36.710627" lon="3.156801"><ele>26</ele></trkpt>
   <trkpt lat="36.710704" lon="3.156568"><ele>25.5</ele></trkpt>
   <trkpt lat="36.710755" lon="3.156417"><ele>25</ele></trkpt>
   <trkpt lat="36.711044" lon="3.155535"><ele>23</ele></trkpt>
   <trkpt lat="36.711319" lon="3.154656"><ele>19</ele></trkpt>
   <trkpt lat="36.7115" lon="3.154269"><ele>19</ele></trkpt>
   <trkpt lat="36.711763" lon="3.153823"><ele>14.5</ele></trkpt>
   <trkpt lat="36.712122" lon="3.153426"><ele>16</ele></trkpt>
   <trkpt lat="36.712363" lon="3.153231"><ele>14.75</ele></trkpt>
   <trkpt lat="36.712673" lon="3.153066"><ele>16</ele></trkpt>
   <trkpt lat="36.71311" lon="3.152997"><ele>18</ele></trkpt>
   <trkpt lat="36.713892" lon="3.152745"><ele>21</ele></trkpt>
   <trkpt lat="36.714038" lon="3.152567"><ele>21</ele></trkpt>
   <trkpt lat="36.714139" lon="3.152444"><ele>22</ele></trkpt>
   <trkpt lat="36.715532" lon="3.149806"><ele>30.25</ele></trkpt>
   <trkpt lat="36.715745" lon="3.149401"><ele>31</ele></trkpt>
   <trkpt lat="36.715877" lon="3.149159"><ele>31</ele></trkpt>
   <trkpt lat="36.716114" lon="3.148728"><ele>31</ele></trkpt>
   <trkpt lat="36.71671" lon="3.148033"><ele>29.5</ele></trkpt>
   <trkpt lat="36.717028" lon="3.147645"><ele>27</ele></trkpt>
   <trkpt lat="36.716736" lon="3.147132"><ele>26.75</ele></trkpt>
   <trkpt lat="36.71667" lon="3.146916"><ele>26.75</ele></trkpt>
   <trkpt lat="36.716634" lon="3.145384"><ele>23</ele></trkpt>
   <trkpt lat="36.716622" lon="3.14441"><ele>20</ele></trkpt>
   <trkpt lat="36.71667" lon="3.144135"><ele>19.5</ele></trkpt>
   <trkpt lat="36.716921" lon="3.143572"><ele>17.75</ele></trkpt>
   <trkpt lat="36.71673" lon="3.143426"><ele>17</ele></trkpt>
   <trkpt lat="36.716551" lon="3.143387"><ele>17</ele></trkpt>
   <trkpt lat="36.716296" lon="3.143407"><ele>17</ele></trkpt>
   <trkpt lat="36.716234" lon="3.143425"><ele>17</ele></trkpt>
   <trkpt lat="36.71604" lon="3.143427"><ele>16.25</ele></trkpt>
   <trkpt lat="36.715816" lon="3.143388"><ele>15</ele></trkpt>
   <trkpt lat="36.715258" lon="3.143226"><ele>12.5</ele></trkpt>
   <trkpt lat="36.714935" lon="3.143045"><ele>8</ele></trkpt>
   <trkpt lat="36.714797" lon="3.14289"><ele>8</ele></trkpt>
   <trkpt lat="36.714644" lon="3.142354"><ele>7.25</ele></trkpt>
   <trkpt lat="36.714577" lon="3.142118"><ele>7</ele></trkpt>
   <trkpt lat="36.714583" lon="3.141986"><ele>7</ele></trkpt>
   <trkpt lat="36.714614" lon="3.141395"><ele>6</ele></trkpt>
   <trkpt lat="36.714622" lon="3.141237"><ele>6</ele></trkpt>
   <trkpt lat="36.714624" lon="3.141195"><ele>6</ele></trkpt>
   <trkpt lat="36.714667" lon="3.140573"><ele>6.75</ele></trkpt>
   <trkpt lat="36.714691" lon="3.13993"><ele>7.25</ele></trkpt>
   <trkpt lat="36.714701" lon="3.139735"><ele>7.75</ele></trkpt>
   <trkpt lat="36.71474" lon="3.138983"><ele>7.25</ele></trkpt>
   <trkpt lat="36.714758" lon="3.138645"><ele>7</ele></trkpt>
   <trkpt lat="36.714772" lon="3.138381"><ele>7</ele></trkpt>
   <trkpt lat="36.714828" lon="3.137417"><ele>7</ele></trkpt>
   <trkpt lat="36.714867" lon="3.136883"><ele>7</ele></trkpt>
   <trkpt lat="36.714718" lon="3.136796"><ele>7</ele></trkpt>
   <trkpt lat="36.714561" lon="3.136736"><ele>7</ele></trkpt>
   <trkpt lat="36.714467" lon="3.136452"><ele>5.25</ele></trkpt>
   <trkpt lat="36.714384" lon="3.136143"><ele>6</ele></trkpt>
   <trkpt lat="36.714373" lon="3.135967"><ele>6.25</ele></trkpt>
   <trkpt lat="36.71438" lon="3.135829"><ele>6</ele></trkpt>
   <trkpt lat="36.714398" lon="3.135771"><ele>5.75</ele></trkpt>
   <trkpt lat="36.714426" lon="3.135719"><ele>5.5</ele></trkpt>
   <trkpt lat="36.714463" lon="3.135677"><ele>5.5</ele></trkpt>
   <trkpt lat="36.714507" lon="3.135648"><ele>5.5</ele></trkpt>
   <trkpt lat="36.715044" lon="3.135476"><ele>5.5</ele></trkpt>
   <trkpt lat="36.715313" lon="3.135377"><ele>4</ele></trkpt>
   <trkpt lat="36.715413" lon="3.135308"><ele>4</ele></trkpt>
   <trkpt lat="36.715458" lon="3.135262"><ele>4</ele></trkpt>
   <trkpt lat="36.715531" lon="3.135151"><ele>4</ele></trkpt>
   <trkpt lat="36.715558" lon="3.135088"><ele>4</ele></trkpt>
   <trkpt lat="36.715268" lon="3.134801"><ele>4.5</ele></trkpt>
   <trkpt lat="36.71507" lon="3.134638"><ele>4.25</ele></trkpt>
   <trkpt lat="36.714905" lon="3.134513"><ele>4</ele></trkpt>
   <trkpt lat="36.714378" lon="3.1342"><ele>5</ele></trkpt>
   <trkpt lat="36.714239" lon="3.134083"><ele>7.5</ele></trkpt>
   <trkpt lat="36.714073" lon="3.133894"><ele>8</ele></trkpt>
   <trkpt lat="36.713884" lon="3.133517"><ele>8</ele></trkpt>
   <trkpt lat="36.713836" lon="3.133381"><ele>8</ele></trkpt>
   <trkpt lat="36.713793" lon="3.133154"><ele>7.25</ele></trkpt>
   <trkpt lat="36.713749" lon="3.132865"><ele>7</ele></trkpt>
   <trkpt lat="36.713687" lon="3.132374"><ele>5.5</ele></trkpt>
   <trkpt lat="36.713665" lon="3.132058"><ele>4</ele></trkpt>
   <trkpt lat="36.71367" lon="3.131512"><ele>2.75</ele></trkpt>
   <trkpt lat="36.713667" lon="3.131274"><ele>2</ele></trkpt>
   <trkpt lat="36.713662" lon="3.131231"><ele>1.75</ele></trkpt>
   <trkpt lat="36.713651" lon="3.131188"><ele>2</ele></trkpt>
   <trkpt lat="36.7136" lon="3.131079"><ele>2</ele></trkpt>
   <trkpt lat="36.71356" lon="3.130967"><ele>3</ele></trkpt>
   <trkpt lat="36.713555" lon="3.130887"><ele>3</ele></trkpt>
   <trkpt lat="36.713602" lon="3.130764"><ele>2.75</ele></trkpt>
   <trkpt lat="36.713604" lon="3.130721"><ele>3.25</ele></trkpt>
   <trkpt lat="36.713593" lon="3.130667"><ele>3.75</ele></trkpt>
   <trkpt lat="36.71357" lon="3.130608"><ele>4</ele></trkpt>
   <trkpt lat="36.713535" lon="3.130533"><ele>4</ele></trkpt>
   <trkpt lat="36.713484" lon="3.130453"><ele>3.5</ele></trkpt>
   <trkpt lat="36.712164" lon="3.128838"><ele>6</ele></trkpt>
   <trkpt lat="36.712032" lon="3.12865"><ele>6</ele></trkpt>
   <trkpt lat="36.711938" lon="3.128471"><ele>5.75</ele></trkpt>
   <trkpt lat="36.711726" lon="3.127944"><ele>5.75</ele></trkpt>
   <trkpt lat="36.711701" lon="3.127886"><ele>5.25</ele></trkpt>
   <trkpt lat="36.711623" lon="3.127748"><ele>5</ele></trkpt>
   <trkpt lat="36.711597" lon="3.127681"><ele>5</ele></trkpt>
   <trkpt lat="36.711585" lon="3.127601"><ele>5</ele></trkpt>
   <trkpt lat="36.711588" lon="3.127527"><ele>5</ele></trkpt>
   <trkpt lat="36.711639" lon="3.127215"><ele>8</ele></trkpt>
   <trkpt lat="36.711675" lon="3.126935"><ele>8</ele></trkpt>
   <trkpt lat="36.711826" lon="3.126041"><ele>6.75</ele></trkpt>
   <trkpt lat="36.712015" lon="3.125113"><ele>7</ele></trkpt>
   <trkpt lat="36.712026" lon="3.125048"><ele>7</ele></trkpt>
   <trkpt lat="36.71203" lon="3.124973"><ele>7</ele></trkpt>
   <trkpt lat="36.712032" lon="3.12486"><ele>8</ele></trkpt>
   <trkpt lat="36.712022" lon="3.124608"><ele>9</ele></trkpt>
   <trkpt lat="36.711964" lon="3.124354"><ele>9</ele></trkpt>
   <trkpt lat="36.711931" lon="3.124252"><ele>8.75</ele></trkpt>
   <trkpt lat="36.711888" lon="3.124152"><ele>8.25</ele></trkpt>
   <trkpt lat="36.711725" lon="3.123876"><ele>3.25</ele></trkpt>
   <trkpt lat="36.71165" lon="3.123774"><ele>2</ele></trkpt>
   <trkpt lat="36.711476" lon="3.123586"><ele>2</ele></trkpt>
   <trkpt lat="36.711379" lon="3.123509"><ele>2</ele></trkpt>
   <trkpt lat="36.71108" lon="3.123326"><ele>2.5</ele></trkpt>
   <trkpt lat="36.710863" lon="3.123219"><ele>5</ele></trkpt>
   <trkpt lat="36.71062" lon="3.12316"><ele>4.75</ele></trkpt>
   <trkpt lat="36.709889" lon="3.123096"><ele>6.25</ele></trkpt>
   <trkpt lat="36.70977" lon="3.123079"><ele>6</ele></trkpt>
   <trkpt lat="36.709547" lon="3.123029"><ele>6</ele></trkpt>
   <trkpt lat="36.70934" lon="3.122892"><ele>6</ele></trkpt>
   <trkpt lat="36.70925" lon="3.122806"><ele>6</ele></trkpt>
   <trkpt lat="36.708577" lon="3.121999"><ele>5</ele></trkpt>
   <trkpt lat="36.708532" lon="3.121953"><ele>5.25</ele></trkpt>
   <trkpt lat="36.708128" lon="3.1216"><ele>6</ele></trkpt>
   <trkpt lat="36.707942" lon="3.121437"><ele>6</ele></trkpt>
   <trkpt lat="36.707769" lon="3.121285"><ele>6</ele></trkpt>
   <trkpt lat="36.707682" lon="3.121197"><ele>6</ele></trkpt>
   <trkpt lat="36.707506" lon="3.12103"><ele>6</ele></trkpt>
   <trkpt lat="36.707245" lon="3.120619"><ele>6.75</ele></trkpt>
   <trkpt lat="36.70712" lon="3.120452"><ele>7</ele></trkpt>
   <trkpt lat="36.707004" lon="3.120315"><ele>7</ele></trkpt>
   <trkpt lat="36.706836" lon="3.120138"><ele>7</ele></trkpt>
   <trkpt lat="36.705927" lon="3.119331"><ele>6.25</ele></trkpt>
   <trkpt lat="36.705712" lon="3.119154"><ele>6</ele></trkpt>
   <trkpt lat="36.705484" lon="3.118944"><ele>8.25</ele></trkpt>
   <trkpt lat="36.705353" lon="3.118821"><ele>9</ele></trkpt>
   <trkpt lat="36.705271" lon="3.118717"><ele>9</ele></trkpt>
   <trkpt lat="36.705142" lon="3.118526"><ele>9.75</ele></trkpt>
   <trkpt lat="36.704991" lon="3.118269"><ele>11.25</ele></trkpt>
   <trkpt lat="36.704847" lon="3.117915"><ele>13</ele></trkpt>
   <trkpt lat="36.704903" lon="3.117843"><ele>13</ele></trkpt>
   <trkpt lat="36.704757" lon="3.117647"><ele>13</ele></trkpt>
   <trkpt lat="36.704652" lon="3.117443"><ele>12.5</ele></trkpt>
   <trkpt lat="36.70452" lon="3.11726"><ele>11.25</ele></trkpt>
   <trkpt lat="36.704064" lon="3.116587"><ele>5</ele></trkpt>
   <trkpt lat="36.703597" lon="3.115902"><ele>3.25</ele></trkpt>
   <trkpt lat="36.703381" lon="3.115584"><ele>7.25</ele></trkpt>
   <trkpt lat="36.70308" lon="3.115029"><ele>8</ele></trkpt>
   <trkpt lat="36.703104" lon="3.114888"><ele>7.5</ele></trkpt>
   <trkpt lat="36.703111" lon="3.114663"><ele>7</ele></trkpt>
   <trkpt lat="36.703211" lon="3.114525"><ele>7</ele></trkpt>
   <trkpt lat="36.703236" lon="3.114481"><ele>7</ele></trkpt>
   <trkpt lat="36.703256" lon="3.114434"><ele>7</ele></trkpt>
   <trkpt lat="36.703268" lon="3.114383"><ele>7</ele></trkpt>
   <trkpt lat="36.703274" lon="3.114277"><ele>7</ele></trkpt>
   <trkpt lat="36.703265" lon="3.113917"><ele>7</ele></trkpt>
   <trkpt lat="36.703273" lon="3.11372"><ele>7</ele></trkpt>
   <trkpt lat="36.70329" lon="3.113548"><ele>7</ele></trkpt>
   <trkpt lat="36.703324" lon="3.113343"><ele>7</ele></trkpt>
   <trkpt lat="36.70339" lon="3.113039"><ele>7</ele></trkpt>
   <trkpt lat="36.70344" lon="3.112865"><ele>7</ele></trkpt>
   <trkpt lat="36.703498" lon="3.112701"><ele>7</ele></trkpt>
   <trkpt lat="36.703868" lon="3.111783"><ele>5</ele></trkpt>
   <trkpt lat="36.703982" lon="3.111542"><ele>5.75</ele></trkpt>
   <trkpt lat="36.704035" lon="3.111413"><ele>6.75</ele></trkpt>
   <trkpt lat="36.704063" lon="3.111317"><ele>7</ele></trkpt>
   <trkpt lat="36.704085" lon="3.111118"><ele>7</ele></trkpt>
   <trkpt lat="36.704083" lon="3.111019"><ele>7</ele></trkpt>
   <trkpt lat="36.704068" lon="3.110901"><ele>7</ele></trkpt>
   <trkpt lat="36.703859" lon="3.11008"><ele>7</ele></trkpt>
   <trkpt lat="36.70382" lon="3.10997"><ele>7</ele></trkpt>
   <trkpt lat="36.703771" lon="3.109858"><ele>7</ele></trkpt>
   <trkpt lat="36.703625" lon="3.1096"><ele>7</ele></trkpt>
   <trkpt lat="36.703509" lon="3.109447"><ele>6.5</ele></trkpt>
   <trkpt lat="36.703373" lon="3.109297"><ele>6</ele></trkpt>
   <trkpt lat="36.703306" lon="3.109232"><ele>6</ele></trkpt>
   <trkpt lat="36.703073" lon="3.108997"><ele>6</ele></trkpt>
   <trkpt lat="36.702961" lon="3.108905"><ele>6</ele></trkpt>
   <trkpt lat="36.702874" lon="3.108817"><ele>6</ele></trkpt>
   <trkpt lat="36.702821" lon="3.108782"><ele>6</ele></trkpt>
   <trkpt lat="36.702698" lon="3.108747"><ele>5.5</ele></trkpt>
   <trkpt lat="36.701723" lon="3.108573"><ele>4</ele></trkpt>
   <trkpt lat="36.70121" lon="3.108529"><ele>4</ele></trkpt>
   <trkpt lat="36.701209" lon="3.108442"><ele>4</ele></trkpt>
   <trkpt lat="36.701256" lon="3.107848"><ele>7</ele></trkpt>
   <trkpt lat="36.701274" lon="3.107759"><ele>7</ele></trkpt>
   <trkpt lat="36.70132" lon="3.107649"><ele>7</ele></trkpt>
   <trkpt lat="36.70134" lon="3.107562"><ele>7</ele></trkpt>
   <trkpt lat="36.701337" lon="3.107495"><ele>7</ele></trkpt>
   <trkpt lat="36.701328" lon="3.107444"><ele>7.25</ele></trkpt>
   <trkpt lat="36.701221" lon="3.10741"><ele>7.5</ele></trkpt>
   <trkpt lat="36.701147" lon="3.107376"><ele>7.75</ele></trkpt>
   <trkpt lat="36.701077" lon="3.107331"><ele>8</ele></trkpt>
   <trkpt lat="36.700892" lon="3.107198"><ele>9</ele></trkpt>
   <trkpt lat="36.700722" lon="3.10706"><ele>9</ele></trkpt>
   <trkpt lat="36.700221" lon="3.106686"><ele>9</ele></trkpt>
   <trkpt lat="36.699778" lon="3.106417"><ele>8</ele></trkpt>
   <trkpt lat="36.699258" lon="3.106223"><ele>8.5</ele></trkpt>
   <trkpt lat="36.698849" lon="3.106081"><ele>9</ele></trkpt>
   <trkpt lat="36.698452" lon="3.105908"><ele>8.25</ele></trkpt>
   <trkpt lat="36.697668" lon="3.105443"><ele>8.5</ele></trkpt>
   <trkpt lat="36.697083" lon="3.104973"><ele>8</ele></trkpt>
   <trkpt lat="36.696657" lon="3.104574"><ele>10</ele></trkpt>
   <trkpt lat="36.696328" lon="3.104214"><ele>10</ele></trkpt>
   <trkpt lat="36.696121" lon="3.103958"><ele>10</ele></trkpt>
   <trkpt lat="36.696038" lon="3.103855"><ele>9.5</ele></trkpt>
   <trkpt lat="36.695571" lon="3.103176"><ele>10.5</ele></trkpt>
   <trkpt lat="36.695381" lon="3.102824"><ele>12</ele></trkpt>
   <trkpt lat="36.695332" lon="3.102718"><ele>12</ele></trkpt>
   <trkpt lat="36.695068" lon="3.102152"><ele>12</ele></trkpt>
   <trkpt lat="36.694974" lon="3.101897"><ele>12</ele></trkpt>
   <trkpt lat="36.69488" lon="3.101617"><ele>12.5</ele></trkpt>
   <trkpt lat="36.694814" lon="3.101369"><ele>15</ele></trkpt>
   <trkpt lat="36.694546" lon="3.10023"><ele>15</ele></trkpt>
   <trkpt lat="36.694469" lon="3.099866"><ele>14</ele></trkpt>
   <trkpt lat="36.694382" lon="3.099452"><ele>12.75</ele></trkpt>
   <trkpt lat="36.694292" lon="3.099019"><ele>11.75</ele></trkpt>
   <trkpt lat="36.694203" lon="3.098597"><ele>11</ele></trkpt>
   <trkpt lat="36.694114" lon="3.098173"><ele>11.5</ele></trkpt>
   <trkpt lat="36.694047" lon="3.09785"><ele>12</ele></trkpt>
   <trkpt lat="36.693961" lon="3.097475"><ele>12</ele></trkpt>
   <trkpt lat="36.693647" lon="3.095966"><ele>15</ele></trkpt>
   <trkpt lat="36.693563" lon="3.095563"><ele>14.75</ele></trkpt>
   <trkpt lat="36.693539" lon="3.095471"><ele>14.5</ele></trkpt>
   <trkpt lat="36.693475" lon="3.095278"><ele>14.5</ele></trkpt>
   <trkpt lat="36.693399" lon="3.095096"><ele>14</ele></trkpt>
   <trkpt lat="36.693257" lon="3.094798"><ele>14</ele></trkpt>
   <trkpt lat="36.693171" lon="3.094645"><ele>14</ele></trkpt>
   <trkpt lat="36.693055" lon="3.094482"><ele>14</ele></trkpt>
   <trkpt lat="36.692915" lon="3.09431"><ele>14</ele></trkpt>
   <trkpt lat="36.692675" lon="3.094047"><ele>13</ele></trkpt>
   <trkpt lat="36.692462" lon="3.093873"><ele>13</ele></trkpt>
   <trkpt lat="36.692326" lon="3.093779"><ele>13</ele></trkpt>
   <trkpt lat="36.692145" lon="3.093672"><ele>13</ele></trkpt>
   <trkpt lat="36.691988" lon="3.093594"><ele>13</ele></trkpt>
   <trkpt lat="36.691808" lon="3.093529"><ele>12.5</ele></trkpt>
   <trkpt lat="36.691662" lon="3.093486"><ele>12</ele></trkpt>
   <trkpt lat="36.69133" lon="3.093425"><ele>12</ele></trkpt>
   <trkpt lat="36.690997" lon="3.093374"><ele>12</ele></trkpt>
   <trkpt lat="36.6905" lon="3.093331"><ele>12</ele></trkpt>
   <trkpt lat="36.689986" lon="3.093302"><ele>13</ele></trkpt>
   <trkpt lat="36.688706" lon="3.093232"><ele>10.25</ele></trkpt>
   <trkpt lat="36.688612" lon="3.093218"><ele>10.5</ele></trkpt>
   <trkpt lat="36.688364" lon="3.093154"><ele>11.25</ele></trkpt>
   <trkpt lat="36.688222" lon="3.093095"><ele>12.25</ele></trkpt>
   <trkpt lat="36.687945" lon="3.092896"><ele>13</ele></trkpt>
   <trkpt lat="36.687827" lon="3.092794"><ele>13</ele></trkpt>
   <trkpt lat="36.68765" lon="3.092599"><ele>12</ele></trkpt>
   <trkpt lat="36.687487" lon="3.092395"><ele>11.75</ele></trkpt>
   <trkpt lat="36.687336" lon="3.092105"><ele>13</ele></trkpt>
   <trkpt lat="36.687125" lon="3.09166"><ele>13</ele></trkpt>
   <trkpt lat="36.68704" lon="3.091459"><ele>13.5</ele></trkpt>
   <trkpt lat="36.68693" lon="3.091248"><ele>14</ele></trkpt>
   <trkpt lat="36.686654" lon="3.090665"><ele>14.5</ele></trkpt>
   <trkpt lat="36.685793" lon="3.088922"><ele>13.75</ele></trkpt>
   <trkpt lat="36.685119" lon="3.087653"><ele>12.5</ele></trkpt>
   <trkpt lat="36.684417" lon="3.086371"><ele>12</ele></trkpt>
   <trkpt lat="36.68423" lon="3.086102"><ele>12.75</ele></trkpt>
   <trkpt lat="36.684133" lon="3.085984"><ele>13</ele></trkpt>
   <trkpt lat="36.684043" lon="3.085907"><ele>13</ele></trkpt>
   <trkpt lat="36.683944" lon="3.085837"><ele>13</ele></trkpt>
   <trkpt lat="36.683826" lon="3.085767"><ele>13</ele></trkpt>
   <trkpt lat="36.683643" lon="3.085697"><ele>13.25</ele></trkpt>
   <trkpt lat="36.683477" lon="3.085668"><ele>12.5</ele></trkpt>
   <trkpt lat="36.683305" lon="3.085665"><ele>11.25</ele></trkpt>
   <trkpt lat="36.681903" lon="3.085795"><ele>10</ele></trkpt>
   <trkpt lat="36.679625" lon="3.086027"><ele>14</ele></trkpt>
   <trkpt lat="36.67955" lon="3.086019"><ele>14</ele></trkpt>
   <trkpt lat="36.679464" lon="3.085995"><ele>14</ele></trkpt>
   <trkpt lat="36.679388" lon="3.085958"><ele>13.75</ele></trkpt>
   <trkpt lat="36.679311" lon="3.085901"><ele>13.5</ele></trkpt>
   <trkpt lat="36.679236" lon="3.085837"><ele>13</ele></trkpt>
   <trkpt lat="36.679182" lon="3.085743"><ele>12</ele></trkpt>
   <trkpt lat="36.679119" lon="3.085603"><ele>10.5</ele></trkpt>
   <trkpt lat="36.679066" lon="3.085429"><ele>10</ele></trkpt>
   <trkpt lat="36.679016" lon="3.08518"><ele>10</ele></trkpt>
   <trkpt lat="36.679016" lon="3.085032"><ele>10</ele></trkpt>
   <trkpt lat="36.679038" lon="3.08492"><ele>10.25</ele></trkpt>
   <trkpt lat="36.679085" lon="3.084823"><ele>10.5</ele></trkpt>
   <trkpt lat="36.67919" lon="3.084657"><ele>11</ele></trkpt>
   <trkpt lat="36.679911" lon="3.083632"><ele>13</ele></trkpt>
   <trkpt lat="36.680087" lon="3.083332"><ele>13.25</ele></trkpt>
   <trkpt lat="36.680197" lon="3.083053"><ele>13.25</ele></trkpt>
   <trkpt lat="36.680277" lon="3.082782"><ele>13.75</ele></trkpt>
   <trkpt lat="36.680341" lon="3.082438"><ele>14</ele></trkpt>
   <trkpt lat="36.680358" lon="3.082122"><ele>14</ele></trkpt>
   <trkpt lat="36.680339" lon="3.081808"><ele>14</ele></trkpt>
   <trkpt lat="36.680283" lon="3.081467"><ele>16</ele></trkpt>
   <trkpt lat="36.680182" lon="3.081111"><ele>16.5</ele></trkpt>
   <trkpt lat="36.68012" lon="3.08095"><ele>16.25</ele></trkpt>
   <trkpt lat="36.679999" lon="3.080722"><ele>16</ele></trkpt>
   <trkpt lat="36.679887" lon="3.080531"><ele>16</ele></trkpt>
   <trkpt lat="36.679747" lon="3.080344"><ele>15.75</ele></trkpt>
   <trkpt lat="36.679601" lon="3.080191"><ele>16</ele></trkpt>
   <trkpt lat="36.679533" lon="3.080142"><ele>16</ele></trkpt>
   <trkpt lat="36.679657" lon="3.080387"><ele>16</ele></trkpt>
   <trkpt lat="36.679829" lon="3.080639"><ele>16</ele></trkpt>
   <trkpt lat="36.679891" lon="3.080745"><ele>16</ele></trkpt>
   <trkpt lat="36.680006" lon="3.08102"><ele>16</ele></trkpt>
   <trkpt lat="36.680055" lon="3.081171"><ele>16</ele></trkpt>
   <trkpt lat="36.680126" lon="3.08147"><ele>15.25</ele></trkpt>
   <trkpt lat="36.680138" lon="3.081619"><ele>13.5</ele></trkpt>
   <trkpt lat="36.680131" lon="3.081746"><ele>12.75</ele></trkpt>
   <trkpt lat="36.680108" lon="3.081944"><ele>12.75</ele></trkpt>
   <trkpt lat="36.680068" lon="3.082197"><ele>12.25</ele></trkpt>
   <trkpt lat="36.679985" lon="3.081962"><ele>12</ele></trkpt>
   <trkpt lat="36.679914" lon="3.081703"><ele>12</ele></trkpt>
   <trkpt lat="36.679806" lon="3.081081"><ele>16</ele></trkpt>
   <trkpt lat="36.67975" lon="3.080891"><ele>16</ele></trkpt>
   <trkpt lat="36.679646" lon="3.080694"><ele>16</ele></trkpt>
   <trkpt lat="36.679533" lon="3.080547"><ele>16</ele></trkpt>
   <trkpt lat="36.67946" lon="3.080482"><ele>16</ele></trkpt>
   <trkpt lat="36.679381" lon="3.080425"><ele>14.75</ele></trkpt>
   <trkpt lat="36.679222" lon="3.080328"><ele>11.75</ele></trkpt>
   <trkpt lat="36.67903" lon="3.080228"><ele>11</ele></trkpt>
   <trkpt lat="36.678919" lon="3.080158"><ele>11</ele></trkpt>
   <trkpt lat="36.678427" lon="3.07974"><ele>14.75</ele></trkpt>
   <trkpt lat="36.678359" lon="3.079689"><ele>14.25</ele></trkpt>
   <trkpt lat="36.678319" lon="3.079671"><ele>14</ele></trkpt>
   <trkpt lat="36.678279" lon="3.079666"><ele>14</ele></trkpt>
   <trkpt lat="36.67817" lon="3.07968"><ele>14</ele></trkpt>
   <trkpt lat="36.677794" lon="3.079723"><ele>13.75</ele></trkpt>
   <trkpt lat="36.677747" lon="3.079735"><ele>13.75</ele></trkpt>
   <trkpt lat="36.677709" lon="3.079755"><ele>13.75</ele></trkpt>
   <trkpt lat="36.677598" lon="3.07988"><ele>12.5</ele></trkpt>
   <trkpt lat="36.677565" lon="3.079889"><ele>12.25</ele></trkpt>
   <trkpt lat="36.677524" lon="3.079886"><ele>12.25</ele></trkpt>
   <trkpt lat="36.677473" lon="3.079866"><ele>12.25</ele></trkpt>
   <trkpt lat="36.677315" lon="3.07977"><ele>13.25</ele></trkpt>
   <trkpt lat="36.677137" lon="3.079708"><ele>14</ele></trkpt>
   <trkpt lat="36.676928" lon="3.079684"><ele>13.75</ele></trkpt>
   <trkpt lat="36.67672" lon="3.079696"><ele>14</ele></trkpt>
   <trkpt lat="36.676542" lon="3.079739"><ele>13.75</ele></trkpt>
   <trkpt lat="36.676393" lon="3.079816"><ele>13.25</ele></trkpt>
   <trkpt lat="36.676273" lon="3.079903"><ele>12.5</ele></trkpt>
   <trkpt lat="36.676048" lon="3.080097"><ele>12</ele></trkpt>
   <trkpt lat="36.675761" lon="3.080285"><ele>12</ele></trkpt>
   <trkpt lat="36.675627" lon="3.080326"><ele>12</ele></trkpt>
   <trkpt lat="36.675255" lon="3.080328"><ele>12</ele></trkpt>
   <trkpt lat="36.67502" lon="3.080299"><ele>13.75</ele></trkpt>
   <trkpt lat="36.674804" lon="3.080235"><ele>13.75</ele></trkpt>
   <trkpt lat="36.674483" lon="3.080091"><ele>14</ele></trkpt>
   <trkpt lat="36.674423" lon="3.080055"><ele>13.5</ele></trkpt>
   <trkpt lat="36.674271" lon="3.079942"><ele>11</ele></trkpt>
   <trkpt lat="36.674073" lon="3.07975"><ele>14.25</ele></trkpt>
   <trkpt lat="36.673841" lon="3.079486"><ele>15</ele></trkpt>
   <trkpt lat="36.673703" lon="3.079267"><ele>15</ele></trkpt>
   <trkpt lat="36.673365" lon="3.078669"><ele>15</ele></trkpt>
   <trkpt lat="36.67315" lon="3.078253"><ele>15.75</ele></trkpt>
   <trkpt lat="36.673063" lon="3.078044"><ele>18</ele></trkpt>
   <trkpt lat="36.672981" lon="3.077811"><ele>18</ele></trkpt>
   <trkpt lat="36.672932" lon="3.077643"><ele>18</ele></trkpt>
   <trkpt lat="36.672908" lon="3.077583"><ele>18</ele></trkpt>
   <trkpt lat="36.672871" lon="3.077514"><ele>18</ele></trkpt>
   <trkpt lat="36.672816" lon="3.077439"><ele>18</ele></trkpt>
   <trkpt lat="36.672695" lon="3.077295"><ele>17</ele></trkpt>
   <trkpt lat="36.672585" lon="3.077174"><ele>15.75</ele></trkpt>
   <trkpt lat="36.672338" lon="3.076935"><ele>15</ele></trkpt>
   <trkpt lat="36.67221" lon="3.076828"><ele>15</ele></trkpt>
   <trkpt lat="36.672114" lon="3.076763"><ele>15</ele></trkpt>
   <trkpt lat="36.672042" lon="3.076734"><ele>15</ele></trkpt>
   <trkpt lat="36.6719" lon="3.076712"><ele>14.5</ele></trkpt>
   <trkpt lat="36.671844" lon="3.076693"><ele>14.25</ele></trkpt>
   <trkpt lat="36.671801" lon="3.076651"><ele>14</ele></trkpt>
   <trkpt lat="36.671745" lon="3.076579"><ele>14.25</ele></trkpt>
   <trkpt lat="36.67168" lon="3.076517"><ele>14.5</ele></trkpt>
   <trkpt lat="36.671591" lon="3.076447"><ele>15.25</ele></trkpt>
   <trkpt lat="36.671502" lon="3.076388"><ele>16</ele></trkpt>
   <trkpt lat="36.671396" lon="3.076124"><ele>16</ele></trkpt>
   <trkpt lat="36.670777" lon="3.074749"><ele>18.75</ele></trkpt>
   <trkpt lat="36.670652" lon="3.074544"><ele>19</ele></trkpt>
   <trkpt lat="36.670455" lon="3.074298"><ele>19</ele></trkpt>
   <trkpt lat="36.669861" lon="3.073599"><ele>18</ele></trkpt>
   <trkpt lat="36.669776" lon="3.073448"><ele>18</ele></trkpt>
   <trkpt lat="36.669596" lon="3.073035"><ele>18</ele></trkpt>
   <trkpt lat="36.669438" lon="3.072702"><ele>17.75</ele></trkpt>
   <trkpt lat="36.669299" lon="3.072369"><ele>17</ele></trkpt>
   <trkpt lat="36.669165" lon="3.071944"><ele>17</ele></trkpt>
   <trkpt lat="36.669059" lon="3.071557"><ele>17.25</ele></trkpt>
   <trkpt lat="36.668962" lon="3.071261"><ele>18</ele></trkpt>
   <trkpt lat="36.668852" lon="3.071001"><ele>18</ele></trkpt>
   <trkpt lat="36.668754" lon="3.070826"><ele>18</ele></trkpt>
   <trkpt lat="36.668598" lon="3.070606"><ele>17.75</ele></trkpt>
   <trkpt lat="36.668493" lon="3.070427"><ele>16.5</ele></trkpt>
   <trkpt lat="36.668399" lon="3.070213"><ele>15.5</ele></trkpt>
   <trkpt lat="36.668125" lon="3.069328"><ele>18</ele></trkpt>
   <trkpt lat="36.667974" lon="3.068861"><ele>18</ele></trkpt>
   <trkpt lat="36.66787" lon="3.068599"><ele>18</ele></trkpt>
   <trkpt lat="36.667803" lon="3.068486"><ele>18</ele></trkpt>
   <trkpt lat="36.667739" lon="3.068403"><ele>17.5</ele></trkpt>
   <trkpt lat="36.667641" lon="3.06832"><ele>17</ele></trkpt>
   <trkpt lat="36.667558" lon="3.068261"><ele>17.25</ele></trkpt>
   <trkpt lat="36.667405" lon="3.06819"><ele>17.5</ele></trkpt>
   <trkpt lat="36.667221" lon="3.068127"><ele>18</ele></trkpt>
   <trkpt lat="36.666784" lon="3.067993"><ele>19</ele></trkpt>
   <trkpt lat="36.666409" lon="3.067904"><ele>18.75</ele></trkpt>
   <trkpt lat="36.665885" lon="3.067806"><ele>16.5</ele></trkpt>
   <trkpt lat="36.665439" lon="3.067741"><ele>16</ele></trkpt>
   <trkpt lat="36.665037" lon="3.067695"><ele>16.75</ele></trkpt>
   <trkpt lat="36.664774" lon="3.067678"><ele>17</ele></trkpt>
   <trkpt lat="36.664583" lon="3.067697"><ele>17</ele></trkpt>
   <trkpt lat="36.664383" lon="3.067741"><ele>17</ele></trkpt>
   <trkpt lat="36.664072" lon="3.067787"><ele>17</ele></trkpt>
   <trkpt lat="36.663801" lon="3.067816"><ele>17</ele></trkpt>
   <trkpt lat="36.663567" lon="3.067812"><ele>17.25</ele></trkpt>
   <trkpt lat="36.663319" lon="3.067787"><ele>19</ele></trkpt>
   <trkpt lat="36.662607" lon="3.067668"><ele>17.75</ele></trkpt>
   <trkpt lat="36.662211" lon="3.067634"><ele>17</ele></trkpt>
   <trkpt lat="36.661552" lon="3.067673"><ele>17</ele></trkpt>
   <trkpt lat="36.661216" lon="3.067708"><ele>17</ele></trkpt>
   <trkpt lat="36.661025" lon="3.067765"><ele>17.5</ele></trkpt>
   <trkpt lat="36.660878" lon="3.067828"><ele>18.5</ele></trkpt>
   <trkpt lat="36.66071" lon="3.06794"><ele>19</ele></trkpt>
   <trkpt lat="36.660623" lon="3.068027"><ele>19</ele></trkpt>
   <trkpt lat="36.660533" lon="3.068165"><ele>17.75</ele></trkpt>
   <trkpt lat="36.660132" lon="3.068736"><ele>17.5</ele></trkpt>
   <trkpt lat="36.660051" lon="3.068812"><ele>18.25</ele></trkpt>
   <trkpt lat="36.659988" lon="3.068861"><ele>19</ele></trkpt>
   <trkpt lat="36.659838" lon="3.068943"><ele>18</ele></trkpt>
   <trkpt lat="36.659763" lon="3.068975"><ele>17.25</ele></trkpt>
   <trkpt lat="36.659639" lon="3.069018"><ele>16.5</ele></trkpt>
   <trkpt lat="36.659443" lon="3.06905"><ele>16</ele></trkpt>
   <trkpt lat="36.659369" lon="3.069069"><ele>16.75</ele></trkpt>
   <trkpt lat="36.659269" lon="3.069122"><ele>17.5</ele></trkpt>
   <trkpt lat="36.6592" lon="3.069195"><ele>18.25</ele></trkpt>
   <trkpt lat="36.65901" lon="3.069449"><ele>19</ele></trkpt>
   <trkpt lat="36.658646" lon="3.069874"><ele>16.75</ele></trkpt>
   <trkpt lat="36.658136" lon="3.070393"><ele>17</ele></trkpt>
   <trkpt lat="36.657819" lon="3.070687"><ele>16</ele></trkpt>
   <trkpt lat="36.657614" lon="3.070864"><ele>15.5</ele></trkpt>
   <trkpt lat="36.657507" lon="3.070941"><ele>15.75</ele></trkpt>
   <trkpt lat="36.657231" lon="3.071085"><ele>16</ele></trkpt>
   <trkpt lat="36.657006" lon="3.070718"><ele>17.5</ele></trkpt>
   <trkpt lat="36.656974" lon="3.070647"><ele>18.5</ele></trkpt>
   <trkpt lat="36.656967" lon="3.070607"><ele>19.25</ele></trkpt>
   <trkpt lat="36.656974" lon="3.070309"><ele>20</ele></trkpt>
   <trkpt lat="36.656995" lon="3.070224"><ele>20</ele></trkpt>
   <trkpt lat="36.657014" lon="3.070186"><ele>20</ele></trkpt>
   <trkpt lat="36.657037" lon="3.070153"><ele>20</ele></trkpt>
   <trkpt lat="36.657104" lon="3.070087"><ele>20</ele></trkpt>
   <trkpt lat="36.657138" lon="3.070042"><ele>20</ele></trkpt>
   <trkpt lat="36.657165" lon="3.06999"><ele>20</ele></trkpt>
   <trkpt lat="36.657185" lon="3.069933"><ele>20.25</ele></trkpt>
   <trkpt lat="36.657196" lon="3.069873"><ele>20.75</ele></trkpt>
   <trkpt lat="36.657441" lon="3.06824"><ele>20.25</ele></trkpt>
   <trkpt lat="36.657968" lon="3.064513"><ele>23</ele></trkpt>
   <trkpt lat="36.658417" lon="3.061447"><ele>20.25</ele></trkpt>
   <trkpt lat="36.658617" lon="3.059689"><ele>21</ele></trkpt>
   <trkpt lat="36.65891" lon="3.057863"><ele>22</ele></trkpt>
   <trkpt lat="36.659141" lon="3.056324"><ele>23</ele></trkpt>
   <trkpt lat="36.659216" lon="3.056135"><ele>22.75</ele></trkpt>
   <trkpt lat="36.659272" lon="3.056049"><ele>22.5</ele></trkpt>
   <trkpt lat="36.659382" lon="3.055843"><ele>22</ele></trkpt>
   <trkpt lat="36.659652" lon="3.055401"><ele>22</ele></trkpt>
   <trkpt lat="36.658706" lon="3.054615"><ele>24</ele></trkpt>
   <trkpt lat="36.657987" lon="3.05408"><ele>24.25</ele></trkpt>
   <trkpt lat="36.657477" lon="3.053685"><ele>24</ele></trkpt>
   <trkpt lat="36.657394" lon="3.053626"><ele>24</ele></trkpt>
   <trkpt lat="36.656925" lon="3.05327"><ele>23.75</ele></trkpt>
   <trkpt lat="36.656487" lon="3.052958"><ele>24</ele></trkpt>
   <trkpt lat="36.656047" lon="3.052623"><ele>24</ele></trkpt>
   <trkpt lat="36.654316" lon="3.051311"><ele>24</ele></trkpt>
   <trkpt lat="36.653631" lon="3.050821"><ele>24.25</ele></trkpt>
   <trkpt lat="36.65343" lon="3.050686"><ele>27.5</ele></trkpt>
   <trkpt lat="36.6532" lon="3.050515"><ele>29</ele></trkpt>
   <trkpt lat="36.652976" lon="3.050365"><ele>29</ele></trkpt>
   <trkpt lat="36.652936" lon="3.050315"><ele>29</ele></trkpt>
   <trkpt lat="36.652868" lon="3.050242"><ele>29</ele></trkpt>
   <trkpt lat="36.652721" lon="3.050114"><ele>28</ele></trkpt>
   <trkpt lat="36.652548" lon="3.050002"><ele>25.5</ele></trkpt>
   <trkpt lat="36.651026" lon="3.048817"><ele>24.5</ele></trkpt>
   <trkpt lat="36.650023" lon="3.048055"><ele>22</ele></trkpt>
   <trkpt lat="36.649296" lon="3.047482"><ele>23.5</ele></trkpt>
   <trkpt lat="36.648672" lon="3.047017"><ele>24</ele></trkpt>
   <trkpt lat="36.648398" lon="3.046838"><ele>25.5</ele></trkpt>
   <trkpt lat="36.648122" lon="3.046669"><ele>26</ele></trkpt>
   <trkpt lat="36.647793" lon="3.046498"><ele>26.5</ele></trkpt>
   <trkpt lat="36.647359" lon="3.046312"><ele>28</ele></trkpt>
   <trkpt lat="36.647073" lon="3.046206"><ele>28</ele></trkpt>
   <trkpt lat="36.646541" lon="3.046038"><ele>27</ele></trkpt>
   <trkpt lat="36.646127" lon="3.045947"><ele>27</ele></trkpt>
   <trkpt lat="36.645612" lon="3.045859"><ele>28</ele></trkpt>
   <trkpt lat="36.644898" lon="3.045788"><ele>26.25</ele></trkpt>
   <trkpt lat="36.644803" lon="3.045589"><ele>27.75</ele></trkpt>
   <trkpt lat="36.644571" lon="3.04506"><ele>28</ele></trkpt>
   <trkpt lat="36.644541" lon="3.044925"><ele>28.25</ele></trkpt>
   <trkpt lat="36.644522" lon="3.044711"><ele>29</ele></trkpt>
   <trkpt lat="36.644522" lon="3.04466"><ele>29</ele></trkpt>
   <trkpt lat="36.644512" lon="3.042705"><ele>28</ele></trkpt>
   <trkpt lat="36.644489" lon="3.041687"><ele>28</ele></trkpt>
   <trkpt lat="36.644238" lon="3.041449"><ele>27.75</ele></trkpt>
   <trkpt lat="36.643899" lon="3.041129"><ele>28</ele></trkpt>
   <trkpt lat="36.643466" lon="3.040847"><ele>29</ele></trkpt>
   <trkpt lat="36.643433" lon="3.040818"><ele>29.25</ele></trkpt>
   <trkpt lat="36.643087" lon="3.040556"><ele>30</ele></trkpt>
   <trkpt lat="36.642697" lon="3.040203"><ele>30.25</ele></trkpt>
   <trkpt lat="36.642338" lon="3.039902"><ele>29.75</ele></trkpt>
   <trkpt lat="36.64201" lon="3.039633"><ele>28</ele></trkpt>
   <trkpt lat="36.641615" lon="3.039332"><ele>29</ele></trkpt>
   <trkpt lat="36.64141" lon="3.039138"><ele>28.75</ele></trkpt>
   <trkpt lat="36.641098" lon="3.038856"><ele>28</ele></trkpt>
   <trkpt lat="36.640997" lon="3.038787"><ele>28</ele></trkpt>
   <trkpt lat="36.640868" lon="3.038669"><ele>27.75</ele></trkpt>
   <trkpt lat="36.640671" lon="3.038521"><ele>28</ele></trkpt>
   <trkpt lat="36.640501" lon="3.038409"><ele>28</ele></trkpt>
   <trkpt lat="36.640268" lon="3.038201"><ele>27</ele></trkpt>
   <trkpt lat="36.63973" lon="3.03776"><ele>28.75</ele></trkpt>
   <trkpt lat="36.639049" lon="3.037183"><ele>29</ele></trkpt>
   <trkpt lat="36.638784" lon="3.036953"><ele>29</ele></trkpt>
   <trkpt lat="36.637529" lon="3.035871"><ele>29</ele></trkpt>
   <trkpt lat="36.632833" lon="3.032041"><ele>30</ele></trkpt>
   <trkpt lat="36.630926" lon="3.030527"><ele>33.25</ele></trkpt>
   <trkpt lat="36.630947" lon="3.030403"><ele>33</ele></trkpt>
   <trkpt lat="36.630955" lon="3.030285"><ele>33</ele></trkpt>
   <trkpt lat="36.630958" lon="3.030021"><ele>33</ele></trkpt>
   <trkpt lat="36.630945" lon="3.029881"><ele>32.5</ele></trkpt>
   <trkpt lat="36.630938" lon="3.029685"><ele>32</ele></trkpt>
   <trkpt lat="36.630413" lon="3.025666"><ele>32</ele></trkpt>
   <trkpt lat="36.629746" lon="3.02065"><ele>32.75</ele></trkpt>
   <trkpt lat="36.62954" lon="3.018999"><ele>32.25</ele></trkpt>
   <trkpt lat="36.629274" lon="3.016736"><ele>32.75</ele></trkpt>
   <trkpt lat="36.62913" lon="3.015694"><ele>33</ele></trkpt>
   <trkpt lat="36.629009" lon="3.014889"><ele>32.5</ele></trkpt>
   <trkpt lat="36.628358" lon="3.011049"><ele>30</ele></trkpt>
   <trkpt lat="36.628387" lon="3.011026"><ele>30</ele></trkpt>
   <trkpt lat="36.629341" lon="3.010276"><ele>32.25</ele></trkpt>
   <trkpt lat="36.629484" lon="3.010171"><ele>33</ele></trkpt>
   <trkpt lat="36.630011" lon="3.009755"><ele>32.75</ele></trkpt>
   <trkpt lat="36.631103" lon="3.008967"><ele>32.25</ele></trkpt>
   <trkpt lat="36.631894" lon="3.008334"><ele>31.75</ele></trkpt>
   <trkpt lat="36.632057" lon="3.008194"><ele>32</ele></trkpt>
   <trkpt lat="36.632496" lon="3.007837"><ele>32</ele></trkpt>
   <trkpt lat="36.634166" lon="3.006585"><ele>30.25</ele></trkpt>
   <trkpt lat="36.634347" lon="3.00645"><ele>29.5</ele></trkpt>
   <trkpt lat="36.635343" lon="3.005698"><ele>30</ele></trkpt>
   <trkpt lat="36.637531" lon="3.004055"><ele>31.5</ele></trkpt>
   <trkpt lat="36.638217" lon="3.003473"><ele>33</ele></trkpt>
   <trkpt lat="36.638653" lon="3.002996"><ele>34</ele></trkpt>
   <trkpt lat="36.638741" lon="3.002964"><ele>34</ele></trkpt>
   <trkpt lat="36.638973" lon="3.002858"><ele>34</ele></trkpt>
   <trkpt lat="36.639032" lon="3.00285"><ele>34</ele></trkpt>
   <trkpt lat="36.639087" lon="3.00282"><ele>34</ele></trkpt>
   <trkpt lat="36.639132" lon="3.002773"><ele>34</ele></trkpt>
   <trkpt lat="36.639166" lon="3.002709"><ele>34</ele></trkpt>
   <trkpt lat="36.639182" lon="3.002636"><ele>34</ele></trkpt>
   <trkpt lat="36.639181" lon="3.002561"><ele>34</ele></trkpt>
   <trkpt lat="36.639162" lon="3.002489"><ele>34</ele></trkpt>
   <trkpt lat="36.63913" lon="3.002432"><ele>34</ele></trkpt>
   <trkpt lat="36.639122" lon="3.00238"><ele>34.25</ele></trkpt>
   <trkpt lat="36.639116" lon="3.002245"><ele>34.75</ele></trkpt>
   <trkpt lat="36.639133" lon="3.002084"><ele>35</ele></trkpt>
   <trkpt lat="36.639176" lon="3.001832"><ele>35</ele></trkpt>
   <trkpt lat="36.639219" lon="3.001628"><ele>35.5</ele></trkpt>
   <trkpt lat="36.639254" lon="3.001425"><ele>35.5</ele></trkpt>
   <trkpt lat="36.639279" lon="3.001132"><ele>35.75</ele></trkpt>
   <trkpt lat="36.639278" lon="3.000849"><ele>35.75</ele></trkpt>
   <trkpt lat="36.639264" lon="3.000579"><ele>36.75</ele></trkpt>
   <trkpt lat="36.639238" lon="3.000354"><ele>37</ele></trkpt>
   <trkpt lat="36.639195" lon="3.000097"><ele>37</ele></trkpt>
   <trkpt lat="36.639046" lon="2.99943"><ele>39</ele></trkpt>
   <trkpt lat="36.639027" lon="2.999272"><ele>39</ele></trkpt>
   <trkpt lat="36.639012" lon="2.999091"><ele>39</ele></trkpt>
   <trkpt lat="36.63901" lon="2.998923"><ele>39</ele></trkpt>
   <trkpt lat="36.639012" lon="2.998693"><ele>39</ele></trkpt>
   <trkpt lat="36.639025" lon="2.998478"><ele>39</ele></trkpt>
   <trkpt lat="36.639061" lon="2.998247"><ele>39</ele></trkpt>
   <trkpt lat="36.639116" lon="2.998074"><ele>39</ele></trkpt>
   <trkpt lat="36.639138" lon="2.998014"><ele>39</ele></trkpt>
   <trkpt lat="36.639226" lon="2.997823"><ele>39.5</ele></trkpt>
   <trkpt lat="36.639343" lon="2.997601"><ele>40.75</ele></trkpt>
   <trkpt lat="36.639378" lon="2.997562"><ele>41.25</ele></trkpt>
   <trkpt lat="36.639404" lon="2.997512"><ele>41.5</ele></trkpt>
   <trkpt lat="36.639519" lon="2.997354"><ele>42</ele></trkpt>
   <trkpt lat="36.639617" lon="2.997232"><ele>42</ele></trkpt>
   <trkpt lat="36.639776" lon="2.99704"><ele>42</ele></trkpt>
   <trkpt lat="36.640083" lon="2.996877"><ele>41.5</ele></trkpt>
   <trkpt lat="36.640551" lon="2.9965"><ele>41.5</ele></trkpt>
   <trkpt lat="36.641181" lon="2.996019"><ele>44</ele></trkpt>
   <trkpt lat="36.641423" lon="2.995845"><ele>44</ele></trkpt>
   <trkpt lat="36.641693" lon="2.995628"><ele>44.75</ele></trkpt>
   <trkpt lat="36.641849" lon="2.995497"><ele>46.25</ele></trkpt>
   <trkpt lat="36.642105" lon="2.995294"><ele>47</ele></trkpt>
   <trkpt lat="36.643144" lon="2.994527"><ele>49</ele></trkpt>
   <trkpt lat="36.643429" lon="2.994341"><ele>49.5</ele></trkpt>
   <trkpt lat="36.644229" lon="2.996377"><ele>51.5</ele></trkpt>
   <trkpt lat="36.64426" lon="2.996465"><ele>52.25</ele></trkpt>
   <trkpt lat="36.64442" lon="2.996874"><ele>54.5</ele></trkpt>
   <trkpt lat="36.644544" lon="2.997204"><ele>55</ele></trkpt>
   <trkpt lat="36.64468" lon="2.997537"><ele>52</ele></trkpt>
   <trkpt lat="36.644913" lon="2.998158"><ele>52</ele></trkpt>
   <trkpt lat="36.645031" lon="2.998445"><ele>52</ele></trkpt>
   <trkpt lat="36.645143" lon="2.998727"><ele>52.5</ele></trkpt>
   <trkpt lat="36.645527" lon="2.999742"><ele>54</ele></trkpt>
   <trkpt lat="36.64576" lon="3.000368"><ele>54</ele></trkpt>
   <trkpt lat="36.645945" lon="3.000864"><ele>51.75</ele></trkpt>
   <trkpt lat="36.645983" lon="3.000951"><ele>52</ele></trkpt>
   <trkpt lat="36.64604" lon="3.00111"><ele>52.25</ele></trkpt>
   <trkpt lat="36.646495" lon="3.002273"><ele>52.75</ele></trkpt>
   <trkpt lat="36.646671" lon="3.00275"><ele>52</ele></trkpt>
   <trkpt lat="36.647022" lon="3.003697"><ele>51</ele></trkpt>
   <trkpt lat="36.647103" lon="3.003918"><ele>51</ele></trkpt>
   <trkpt lat="36.64731" lon="3.004494"><ele>51</ele></trkpt>
   <trkpt lat="36.647526" lon="3.005078"><ele>51</ele></trkpt>
   <trkpt lat="36.647634" lon="3.005369"><ele>51.25</ele></trkpt>
   <trkpt lat="36.647779" lon="3.005751"><ele>50.5</ele></trkpt>
   <trkpt lat="36.647921" lon="3.006154"><ele>50</ele></trkpt>
   <trkpt lat="36.648083" lon="3.006575"><ele>48.5</ele></trkpt>
   <trkpt lat="36.64819" lon="3.006878"><ele>48</ele></trkpt>
   <trkpt lat="36.648205" lon="3.006908"><ele>48</ele></trkpt>
   <trkpt lat="36.648334" lon="3.007215"><ele>48</ele></trkpt>
   <trkpt lat="36.648324" lon="3.007218"><ele>48</ele></trkpt>
  </trkseg>
 </trk>
</gpx>