<?xml version="1.0" encoding="UTF-8"?>
<!-- track-length = 28312 filtered ascend = 300 plain-ascend = 162 cost=45571 energy=0.2kwh time=1h 49m 53s -->
<gpx 
 xmlns="http://www.topografix.com/GPX/1/1" 
 xmlns:xsi="http://www.w3.org/2001/XMLSchema-instance" 
 xsi:schemaLocation="http://www.topografix.com/GPX/1/1 http://www.topografix.com/GPX/1/1/gpx.xsd" 
 version="1.1" 
 creator="BRouter-Web 0.18.1">
 <trk>
  <name>Baba Hassen</name>
  <trkseg>
   <trkpt lat="36.706533" lon="3.166932"><ele>11</ele></trkpt>
   <trkpt lat="36.706539" lon="3.166988"><ele>11</ele></trkpt>
   <trkpt lat="36.706578" lon="3.167091"><ele>11</ele></trkpt>
   <trkpt lat="36.706642" lon="3.167174"><ele>11</ele></trkpt>
   <trkpt lat="36.706724" lon="3.167227"><ele>11.5</ele></trkpt>
   <trkpt lat="36.706814" lon="3.167245"><ele>12.75</ele></trkpt>
   <trkpt lat="36.706829" lon="3.167244"><ele>12.75</ele></trkpt>
   <trkpt lat="36.706844" lon="3.167243"><ele>13</ele></trkpt>
   <trkpt lat="36.706896" lon="3.16723"><ele>13.5</ele></trkpt>
   <trkpt lat="36.706946" lon="3.167205"><ele>14</ele></trkpt>
   <trkpt lat="36.706991" lon="3.167169"><ele>14</ele></trkpt>
   <trkpt lat="36.707004" lon="3.167155"><ele>14</ele></trkpt>
   <trkpt lat="36.707055" lon="3.167082"><ele>14</ele></trkpt>
   <trkpt lat="36.707088" lon="3.166995"><ele>14</ele></trkpt>
   <trkpt lat="36.707101" lon="3.1669"><ele>14</ele></trkpt>
   <trkpt lat="36.707093" lon="3.166804"><ele>14</ele></trkpt>
   <trkpt lat="36.707064" lon="3.166712"><ele>14</ele></trkpt>
   <trkpt lat="36.707016" lon="3.166633"><ele>14.25</ele></trkpt>
   <trkpt lat="36.706953" lon="3.166574"><ele>15.25</ele></trkpt>
   <trkpt lat="36.706867" lon="3.166463"><ele>16</ele></trkpt>
   <trkpt lat="36.706807" lon="3.166368"><ele>16.5</ele></trkpt>
   <trkpt lat="36.706774" lon="3.166293"><ele>16</ele></trkpt>
   <trkpt lat="36.706722" lon="3.166153"><ele>15.5</ele></trkpt>
   <trkpt lat="36.706735" lon="3.166101"><ele>15.5</ele></trkpt>
   <trkpt lat="36.707192" lon="3.165067"><ele>18</ele></trkpt>
   <trkpt lat="36.707732" lon="3.163872"><ele>21.5</ele></trkpt>
   <trkpt lat="36.707854" lon="3.163574"><ele>22</ele></trkpt>
   <trkpt lat="36.708162" lon="3.162882"><ele>21</ele></trkpt>
   <trkpt lat="36.708257" lon="3.162656"><ele>21</ele></trkpt>
   <trkpt lat="36.708657" lon="3.161778"><ele>25</ele></trkpt>
   <trkpt lat="36.709114" lon="3.160742"><ele>23.5</ele></trkpt>
   <trkpt lat="36.709545" lon="3.159746"><ele>25.75</ele></trkpt>
   <trkpt lat="36.70957" lon="3.159681"><ele>26</ele></trkpt>
   <trkpt lat="36.709871" lon="3.159006"><ele>25.25</ele></trkpt>
   <trkpt lat="36.709974" lon="3.158715"><ele>25</ele></trkpt>
   <trkpt lat="36.710088" lon="3.158419"><ele>25.25</ele></trkpt>
   <trkpt lat="36.710307" lon="3.157725"><ele>26</ele></trkpt>
   <trkpt lat="36.710627" lon="3.156801"><ele>26</ele></trkpt>
   <trkpt lat="36.710704" lon="3.156568"><ele>25.5</ele></trkpt>
   <trkpt lat="36.710755" lon="3.156417"><ele>25</ele></trkpt>
   <trkpt lat="36.711044" lon="3.155535"><ele>23</ele></trkpt>
   <trkpt lat="36.711319" lon="3.154656"><ele>19</ele></trkpt>
   <trkpt lat="36.7115" lon="3.154269"><ele>19</ele></trkpt>
   <trkpt lat="36.711763" lon="3.153823"><ele>14.5</ele></trkpt>
   <trkpt lat="36.712122" lon="3.153426"><ele>16</ele></trkpt>
   <trkpt lat="36.712363" lon="3.153231"><ele>14.75</ele></trkpt>
   <trkpt lat="36.712673" lon="3.153066"><ele>16</ele></trkpt>
   <trkpt lat="36.71311" lon="3.152997"><ele>18</ele></trkpt>
   <trkpt lat="36.713892" lon="3.152745"><ele>21</ele></trkpt>
   <trkpt lat="36.714038" lon="3.152567"><ele>21</ele></trkpt>
   <trkpt lat="36.714139" lon="3.152444"><ele>22</ele></trkpt>
   <trkpt lat="36.715532" lon="3.149806"><ele>30.25</ele></trkpt>
   <trkpt lat="36.715745" lon="3.149401"><ele>31</ele></trkpt>
   <trkpt lat="36.715877" lon="3.149159"><ele>31</ele></trkpt>
   <trkpt lat="36.716114" lon="3.148728"><ele>31</ele></trkpt>
   <trkpt lat="36.71671" lon="3.148033"><ele>29.5</ele></trkpt>
   <trkpt lat="36.717028" lon="3.147645"><ele>27</ele></trkpt>
   <trkpt lat="36.716736" lon="3.147132"><ele>26.75</ele></trkpt>
   <trkpt lat="36.71667" lon="3.146916"><ele>26.75</ele></trkpt>
   <trkpt lat="36.716634" lon="3.145384"><ele>23</ele></trkpt>
   <trkpt lat="36.716622" lon="3.14441"><ele>20</ele></trkpt>
   <trkpt lat="36.71667" lon="3.144135"><ele>19.5</ele></trkpt>
   <trkpt lat="36.716921" lon="3.143572"><ele>17.75</ele></trkpt>
   <trkpt lat="36.71673" lon="3.143426"><ele>17</ele></trkpt>
   <trkpt lat="36.716551" lon="3.143387"><ele>17</ele></trkpt>
   <trkpt lat="36.716296" lon="3.143407"><ele>17</ele></trkpt>
   <trkpt lat="36.716234" lon="3.143425"><ele>17</ele></trkpt>
   <trkpt lat="36.71604" lon="3.143427"><ele>16.25</ele></trkpt>
   <trkpt lat="36.715816" lon="3.143388"><ele>15</ele></trkpt>
   <trkpt lat="36.715258" lon="3.143226"><ele>12.5</ele></trkpt>
   <trkpt lat="36.714935" lon="3.143045"><ele>8</ele></trkpt>
   <trkpt lat="36.714797" lon="3.14289"><ele>8</ele></trkpt>
   <trkpt lat="36.714644" lon="3.142354"><ele>7.25</ele></trkpt>
   <trkpt lat="36.714577" lon="3.142118"><ele>7</ele></trkpt>
   <trkpt lat="36.714583" lon="3.141986"><ele>7</ele></trkpt>
   <trkpt lat="36.714614" lon="3.141395"><ele>6</ele></trkpt>
   <trkpt lat="36.714622" lon="3.141237"><ele>6</ele></trkpt>
   <trkpt lat="36.714624" lon="3.141195"><ele>6</ele></trkpt>
   <trkpt lat="36.714667" lon="3.140573"><ele>6.75</ele></trkpt>
   <trkpt lat="36.714691" lon="3.13993"><ele>7.25</ele></trkpt>
   <trkpt lat="36.714701" lon="3.139735"><ele>7.75</ele></trkpt>
   <trkpt lat="36.71474" lon="3.138983"><ele>7.25</ele></trkpt>
   <trkpt lat="36.714758" lon="3.138645"><ele>7</ele></trkpt>
   <trkpt lat="36.714772" lon="3.138381"><ele>7</ele></trkpt>
   <trkpt lat="36.714828" lon="3.137417"><ele>7</ele></trkpt>
   <trkpt lat="36.714867" lon="3.136883"><ele>7</ele></trkpt>
   <trkpt lat="36.714718" lon="3.136796"><ele>7</ele></trkpt>
   <trkpt lat="36.714561" lon="3.136736"><ele>7</ele></trkpt>
   <trkpt lat="36.714467" lon="3.136452"><ele>5.25</ele></trkpt>
   <trkpt lat="36.714384" lon="3.136143"><ele>6</ele></trkpt>
   <trkpt lat="36.714373" lon="3.135967"><ele>6.25</ele></trkpt>
   <trkpt lat="36.71438" lon="3.135829"><ele>6</ele></trkpt>
   <trkpt lat="36.714398" lon="3.135771"><ele>5.75</ele></trkpt>
   <trkpt lat="36.714426" lon="3.135719"><ele>5.5</ele></trkpt>
   <trkpt lat="36.714463" lon="3.135677"><ele>5.5</ele></trkpt>
   <trkpt lat="36.714507" lon="3.135648"><ele>5.5</ele></trkpt>
   <trkpt lat="36.715044" lon="3.135476"><ele>5.5</ele></trkpt>
   <trkpt lat="36.715313" lon="3.135377"><ele>4</ele></trkpt>
   <trkpt lat="36.715413" lon="3.135308"><ele>4</ele></trkpt>
   <trkpt lat="36.715458" lon="3.135262"><ele>4</ele></trkpt>
   <trkpt lat="36.715531" lon="3.135151"><ele>4</ele></trkpt>
   <trkpt lat="36.715558" lon="3.135088"><ele>4</ele></trkpt>
   <trkpt lat="36.715268" lon="3.134801"><ele>4.5</ele></trkpt>
   <trkpt lat="36.71507" lon="3.134638"><ele>4.25</ele></trkpt>
   <trkpt lat="36.714905" lon="3.134513"><ele>4</ele></trkpt>
   <trkpt lat="36.714378" lon="3.1342"><ele>5</ele></trkpt>
   <trkpt lat="36.714239" lon="3.134083"><ele>7.5</ele></trkpt>
   <trkpt lat="36.714073" lon="3.133894"><ele>8</ele></trkpt>
   <trkpt lat="36.713884" lon="3.133517"><ele>8</ele></trkpt>
   <trkpt lat="36.713836" lon="3.133381"><ele>8</ele></trkpt>
   <trkpt lat="36.713793" lon="3.133154"><ele>7.25</ele></trkpt>
   <trkpt lat="36.713749" lon="3.132865"><ele>7</ele></trkpt>
   <trkpt lat="36.713687" lon="3.132374"><ele>5.5</ele></trkpt>
   <trkpt lat="36.713665" lon="3.132058"><ele>4</ele></trkpt>
   <trkpt lat="36.71367" lon="3.131512"><ele>2.75</ele></trkpt>
   <trkpt lat="36.713667" lon="3.131274"><ele>2</ele></trkpt>
   <trkpt lat="36.713662" lon="3.131231"><ele>1.75</ele></trkpt>
   <trkpt lat="36.713651" lon="3.131188"><ele>2</ele></trkpt>
   <trkpt lat="36.7136" lon="3.131079"><ele>2</ele></trkpt>
   <trkpt lat="36.71356" lon="3.130967"><ele>3</ele></trkpt>
   <trkpt lat="36.713555" lon="3.130887"><ele>3</ele></trkpt>
   <trkpt lat="36.713602" lon="3.130764"><ele>2.75</ele></trkpt>
   <trkpt lat="36.713604" lon="3.130721"><ele>3.25</ele></trkpt>
   <trkpt lat="36.713593" lon="3.130667"><ele>3.75</ele></trkpt>
   <trkpt lat="36.71357" lon="3.130608"><ele>4</ele></trkpt>
   <trkpt lat="36.713535" lon="3.130533"><ele>4</ele></trkpt>
   <trkpt lat="36.713484" lon="3.130453"><ele>3.5</ele></trkpt>
   <trkpt lat="36.712164" lon="3.128838"><ele>6</ele></trkpt>
   <trkpt lat="36.712032" lon="3.12865"><ele>6</ele></trkpt>
   <trkpt lat="36.711938" lon="3.128471"><ele>5.75</ele></trkpt>
   <trkpt lat="36.711726" lon="3.127944"><ele>5.75</ele></trkpt>
   <trkpt lat="36.711701" lon="3.127886"><ele>5.25</ele></trkpt>
   <trkpt lat="36.711623" lon="3.127748"><ele>5</ele></trkpt>
   <trkpt lat="36.711597" lon="3.127681"><ele>5</ele></trkpt>
   <trkpt lat="36.711585" lon="3.127601"><ele>5</ele></trkpt>
   <trkpt lat="36.711588" lon="3.127527"><ele>5</ele></trkpt>
   <trkpt lat="36.711639" lon="3.127215"><ele>8</ele></trkpt>
   <trkpt lat="36.711675" lon="3.126935"><ele>8</ele></trkpt>
   <trkpt lat="36.711826" lon="3.126041"><ele>6.75</ele></trkpt>
   <trkpt lat="36.712015" lon="3.125113"><ele>7</ele></trkpt>
   <trkpt lat="36.712026" lon="3.125048"><ele>7</ele></trkpt>
   <trkpt lat="36.71203" lon="3.124973"><ele>7</ele></trkpt>
   <trkpt lat="36.712032" lon="3.12486"><ele>8</ele></trkpt>
   <trkpt lat="36.712022" lon="3.124608"><ele>9</ele></trkpt>
   <trkpt lat="36.711964" lon="3.124354"><ele>9</ele></trkpt>
   <trkpt lat="36.711931" lon="3.124252"><ele>8.75</ele></trkpt>
   <trkpt lat="36.711888" lon="3.124152"><ele>8.25</ele></trkpt>
   <trkpt lat="36.711725" lon="3.123876"><ele>3.25</ele></trkpt>
   <trkpt lat="36.71165" lon="3.123774"><ele>2</ele></trkpt>
   <trkpt lat="36.711476" lon="3.123586"><ele>2</ele></trkpt>
   <trkpt lat="36.711379" lon="3.123509"><ele>2</ele></trkpt>
   <trkpt lat="36.71108" lon="3.123326"><ele>2.5</ele></trkpt>
   <trkpt lat="36.710863" lon="3.123219"><ele>5</ele></trkpt>
   <trkpt lat="36.71062" lon="3.12316"><ele>4.75</ele></trkpt>
   <trkpt lat="36.709889" lon="3.123096"><ele>6.25</ele></trkpt>
   <trkpt lat="36.70977" lon="3.123079"><ele>6</ele></trkpt>
   <trkpt lat="36.709547" lon="3.123029"><ele>6</ele></trkpt>
   <trkpt lat="36.70934" lon="3.122892"><ele>6</ele></trkpt>
   <trkpt lat="36.70925" lon="3.122806"><ele>6</ele></trkpt>
   <trkpt lat="36.708577" lon="3.121999"><ele>5</ele></trkpt>
   <trkpt lat="36.708532" lon="3.121953"><ele>5.25</ele></trkpt>
   <trkpt lat="36.708128" lon="3.1216"><ele>6</ele></trkpt>
   <trkpt lat="36.707942" lon="3.121437"><ele>6</ele></trkpt>
   <trkpt lat="36.707769" lon="3.121285"><ele>6</ele></trkpt>
   <trkpt lat="36.707682" lon="3.121197"><ele>6</ele></trkpt>
   <trkpt lat="36.707506" lon="3.12103"><ele>6</ele></trkpt>
   <trkpt lat="36.707245" lon="3.120619"><ele>6.75</ele></trkpt>
   <trkpt lat="36.70712" lon="3.120452"><ele>7</ele></trkpt>
   <trkpt lat="36.707004" lon="3.120315"><ele>7</ele></trkpt>
   <trkpt lat="36.706836" lon="3.120138"><ele>7</ele></trkpt>
   <trkpt lat="36.705927" lon="3.119331"><ele>6.25</ele></trkpt>
   <trkpt lat="36.705712" lon="3.119154"><ele>6</ele></trkpt>
   <trkpt lat="36.705484" lon="3.118944"><ele>8.25</ele></trkpt>
   <trkpt lat="36.705353" lon="3.118821"><ele>9</ele></trkpt>
   <trkpt lat="36.705271" lon="3.118717"><ele>9</ele></trkpt>
   <trkpt lat="36.705142" lon="3.118526"><ele>9.75</ele></trkpt>
   <trkpt lat="36.704991" lon="3.118269"><ele>11.25</ele></trkpt>
   <trkpt lat="36.704847" lon="3.117915"><ele>13</ele></trkpt>
   <trkpt lat="36.704903" lon="3.117843"><ele>13</ele></trkpt>
   <trkpt lat="36.704757" lon="3.117647"><ele>13</ele></trkpt>
   <trkpt lat="36.704652" lon="3.117443"><ele>12.5</ele></trkpt>
   <trkpt lat="36.70452" lon="3.11726"><ele>11.25</ele></trkpt>
   <trkpt lat="36.704064" lon="3.116587"><ele>5</ele></trkpt>
   <trkpt lat="36.703597" lon="3.115902"><ele>3.25</ele></trkpt>
   <trkpt lat="36.703381" lon="3.115584"><ele>7.25</ele></trkpt>
   <trkpt lat="36.70308" lon="3.115029"><ele>8</ele></trkpt>
   <trkpt lat="36.703104" lon="3.114888"><ele>7.5</ele></trkpt>
   <trkpt lat="36.703111" lon="3.114663"><ele>7</ele></trkpt>
   <trkpt lat="36.703211" lon="3.114525"><ele>7</ele></trkpt>
   <trkpt lat="36.703236" lon="3.114481"><ele>7</ele></trkpt>
   <trkpt lat="36.703256" lon="3.114434"><ele>7</ele></trkpt>
   <trkpt lat="36.703268" lon="3.114383"><ele>7</ele></trkpt>
   <trkpt lat="36.703274" lon="3.114277"><ele>7</ele></trkpt>
   <trkpt lat="36.703265" lon="3.113917"><ele>7</ele></trkpt>
   <trkpt lat="36.703273" lon="3.11372"><ele>7</ele></trkpt>
   <trkpt lat="36.70329" lon="3.113548"><ele>7</ele></trkpt>
   <trkpt lat="36.703324" lon="3.113343"><ele>7</ele></trkpt>
   <trkpt lat="36.70339" lon="3.113039"><ele>7</ele></trkpt>
   <trkpt lat="36.70344" lon="3.112865"><ele>7</ele></trkpt>
   <trkpt lat="36.703498" lon="3.112701"><ele>7</ele></trkpt>
   <trkpt lat="36.703868" lon="3.111783"><ele>5</ele></trkpt>
   <trkpt lat="36.703982" lon="3.111542"><ele>5.75</ele></trkpt>
   <trkpt lat="36.704035" lon="3.111413"><ele>6.75</ele></trkpt>
   <trkpt lat="36.704063" lon="3.111317"><ele>7</ele></trkpt>
   <trkpt lat="36.704085" lon="3.111118"><ele>7</ele></trkpt>
   <trkpt lat="36.704083" lon="3.111019"><ele>7</ele></trkpt>
   <trkpt lat="36.704068" lon="3.110901"><ele>7</ele></trkpt>
   <trkpt lat="36.703859" lon="3.11008"><ele>7</ele></trkpt>
   <trkpt lat="36.70382" lon="3.10997"><ele>7</ele></trkpt>
   <trkpt lat="36.703771" lon="3.109858"><ele>7</ele></trkpt>
   <trkpt lat="36.703625" lon="3.1096"><ele>7</ele></trkpt>
   <trkpt lat="36.703509" lon="3.109447"><ele>6.5</ele></trkpt>
   <trkpt lat="36.703373" lon="3.109297"><ele>6</ele></trkpt>
   <trkpt lat="36.703306" lon="3.109232"><ele>6</ele></trkpt>
   <trkpt lat="36.703073" lon="3.108997"><ele>6</ele></trkpt>
   <trkpt lat="36.702961" lon="3.108905"><ele>6</ele></trkpt>
   <trkpt lat="36.702874" lon="3.108817"><ele>6</ele></trkpt>
   <trkpt lat="36.702821" lon="3.108782"><ele>6</ele></trkpt>
   <trkpt lat="36.702698" lon="3.108747"><ele>5.5</ele></trkpt>
   <trkpt lat="36.701723" lon="3.108573"><ele>4</ele></trkpt>
   <trkpt lat="36.70121" lon="3.108529"><ele>4</ele></trkpt>
   <trkpt lat="36.701209" lon="3.108442"><ele>4</ele></trkpt>
   <trkpt lat="36.701256" lon="3.107848"><ele>7</ele></trkpt>
   <trkpt lat="36.701274" lon="3.107759"><ele>7</ele></trkpt>
   <trkpt lat="36.70132" lon="3.107649"><ele>7</ele></trkpt>
   <trkpt lat="36.70134" lon="3.107562"><ele>7</ele></trkpt>
   <trkpt lat="36.701337" lon="3.107495"><ele>7</ele></trkpt>
   <trkpt lat="36.701328" lon="3.107444"><ele>7.25</ele></trkpt>
   <trkpt lat="36.701221" lon="3.10741"><ele>7.5</ele></trkpt>
   <trkpt lat="36.701147" lon="3.107376"><ele>7.75</ele></trkpt>
   <trkpt lat="36.701077" lon="3.107331"><ele>8</ele></trkpt>
   <trkpt lat="36.700892" lon="3.107198"><ele>9</ele></trkpt>
   <trkpt lat="36.700722" lon="3.10706"><ele>9</ele></trkpt>
   <trkpt lat="36.700221" lon="3.106686"><ele>9</ele></trkpt>
   <trkpt lat="36.699778" lon="3.106417"><ele>8</ele></trkpt>
   <trkpt lat="36.699258" lon="3.106223"><ele>8.5</ele></trkpt>
   <trkpt lat="36.698849" lon="3.106081"><ele>9</ele></trkpt>
   <trkpt lat="36.698452" lon="3.105908"><ele>8.25</ele></trkpt>
   <trkpt lat="36.697668" lon="3.105443"><ele>8.5</ele></trkpt>
   <trkpt lat="36.697083" lon="3.104973"><ele>8</ele></trkpt>
   <trkpt lat="36.696657" lon="3.104574"><ele>10</ele></trkpt>
   <trkpt lat="36.696328" lon="3.104214"><ele>10</ele></trkpt>
   <trkpt lat="36.696121" lon="3.103958"><ele>10</ele></trkpt>
   <trkpt lat="36.696038" lon="3.103855"><ele>9.5</ele></trkpt>
   <trkpt lat="36.695571" lon="3.103176"><ele>10.5</ele></trkpt>
   <trkpt lat="36.695381" lon="3.102824"><ele>12</ele></trkpt>
   <trkpt lat="36.695332" lon="3.102718"><ele>12</ele></trkpt>
   <trkpt lat="36.695068" lon="3.102152"><ele>12</ele></trkpt>
   <trkpt lat="36.694974" lon="3.101897"><ele>12</ele></trkpt>
   <trkpt lat="36.69488" lon="3.101617"><ele>12.5</ele></trkpt>
   <trkpt lat="36.694814" lon="3.101369"><ele>15</ele></trkpt>
   <trkpt lat="36.694546" lon="3.10023"><ele>15</ele></trkpt>
   <trkpt lat="36.694469" lon="3.099866"><ele>14</ele></trkpt>
   <trkpt lat="36.694382" lon="3.099452"><ele>12.75</ele></trkpt>
   <trkpt lat="36.694292" lon="3.099019"><ele>11.75</ele></trkpt>
   <trkpt lat="36.694203" lon="3.098597"><ele>11</ele></trkpt>
   <trkpt lat="36.694114" lon="3.098173"><ele>11.5</ele></trkpt>
   <trkpt lat="36.694047" lon="3.09785"><ele>12</ele></trkpt>
   <trkpt lat="36.693961" lon="3.097475"><ele>12</ele></trkpt>
   <trkpt lat="36.693647" lon="3.095966"><ele>15</ele></trkpt>
   <trkpt lat="36.693563" lon="3.095563"><ele>14.75</ele></trkpt>
   <trkpt lat="36.693539" lon="3.095471"><ele>14.5</ele></trkpt>
   <trkpt lat="36.693475" lon="3.095278"><ele>14.5</ele></trkpt>
   <trkpt lat="36.693399" lon="3.095096"><ele>14</ele></trkpt>
   <trkpt lat="36.693257" lon="3.094798"><ele>14</ele></trkpt>
   <trkpt lat="36.693171" lon="3.094645"><ele>14</ele></trkpt>
   <trkpt lat="36.693055" lon="3.094482"><ele>14</ele></trkpt>
   <trkpt lat="36.692915" lon="3.09431"><ele>14</ele></trkpt>
   <trkpt lat="36.692675" lon="3.094047"><ele>13</ele></trkpt>
   <trkpt lat="36.692462" lon="3.093873"><ele>13</ele></trkpt>
   <trkpt lat="36.692326" lon="3.093779"><ele>13</ele></trkpt>
   <trkpt lat="36.692145" lon="3.093672"><ele>13</ele></trkpt>
   <trkpt lat="36.691988" lon="3.093594"><ele>13</ele></trkpt>
   <trkpt lat="36.691808" lon="3.093529"><ele>12.5</ele></trkpt>
   <trkpt lat="36.691662" lon="3.093486"><ele>12</ele></trkpt>
   <trkpt lat="36.69133" lon="3.093425"><ele>12</ele></trkpt>
   <trkpt lat="36.690997" lon="3.093374"><ele>12</ele></trkpt>
   <trkpt lat="36.6905" lon="3.093331"><ele>12</ele></trkpt>
   <trkpt lat="36.689986" lon="3.093302"><ele>13</ele></trkpt>
   <trkpt lat="36.688706" lon="3.093232"><ele>10.25</ele></trkpt>
   <trkpt lat="36.688612" lon="3.093218"><ele>10.5</ele></trkpt>
   <trkpt lat="36.688364" lon="3.093154"><ele>11.25</ele></trkpt>
   <trkpt lat="36.688222" lon="3.093095"><ele>12.25</ele></trkpt>
   <trkpt lat="36.687945" lon="3.092896"><ele>13</ele></trkpt>
   <trkpt lat="36.687827" lon="3.092794"><ele>13</ele></trkpt>
   <trkpt lat="36.68765" lon="3.092599"><ele>12</ele></trkpt>
   <trkpt lat="36.687487" lon="3.092395"><ele>11.75</ele></trkpt>
   <trkpt lat="36.687336" lon="3.092105"><ele>13</ele></trkpt>
   <trkpt lat="36.687125" lon="3.09166"><ele>13</ele></trkpt>
   <trkpt lat="36.68704" lon="3.091459"><ele>13.5</ele></trkpt>
   <trkpt lat="36.68693" lon="3.091248"><ele>14</ele></trkpt>
   <trkpt lat="36.686654" lon="3.090665"><ele>14.5</ele></trkpt>
   <trkpt lat="36.685793" lon="3.088922"><ele>13.75</ele></trkpt>
   <trkpt lat="36.685119" lon="3.087653"><ele>12.5</ele></trkpt>
   <trkpt lat="36.684417" lon="3.086371"><ele>12</ele></trkpt>
   <trkpt lat="36.68423" lon="3.086102"><ele>12.75</ele></trkpt>
   <trkpt lat="36.684133" lon="3.085984"><ele>13</ele></trkpt>
   <trkpt lat="36.684043" lon="3.085907"><ele>13</ele></trkpt>
   <trkpt lat="36.683944" lon="3.085837"><ele>13</ele></trkpt>
   <trkpt lat="36.683826" lon="3.085767"><ele>13</ele></trkpt>
   <trkpt lat="36.683643" lon="3.085697"><ele>13.25</ele></trkpt>
   <trkpt lat="36.683477" lon="3.085668"><ele>12.5</ele></trkpt>
   <trkpt lat="36.683305" lon="3.085665"><ele>11.25</ele></trkpt>
   <trkpt lat="36.681903" lon="3.085795"><ele>10</ele></trkpt>
   <trkpt lat="36.679625" lon="3.086027"><ele>14</ele></trkpt>
   <trkpt lat="36.67955" lon="3.086019"><ele>14</ele></trkpt>
   <trkpt lat="36.679464" lon="3.085995"><ele>14</ele></trkpt>
   <trkpt lat="36.679388" lon="3.085958"><ele>13.75</ele></trkpt>
   <trkpt lat="36.679311" lon="3.085901"><ele>13.5</ele></trkpt>
   <trkpt lat="36.679236" lon="3.085837"><ele>13</ele></trkpt>
   <trkpt lat="36.679182" lon="3.085743"><ele>12</ele></trkpt>
   <trkpt lat="36.679119" lon="3.085603"><ele>10.5</ele></trkpt>
   <trkpt lat="36.679066" lon="3.085429"><ele>10</ele></trkpt>
   <trkpt lat="36.679016" lon="3.08518"><ele>10</ele></trkpt>
   <trkpt lat="36.679016" lon="3.085032"><ele>10</ele></trkpt>
   <trkpt lat="36.679038" lon="3.08492"><ele>10.25</ele></trkpt>
   <trkpt lat="36.679085" lon="3.084823"><ele>10.5</ele></trkpt>
   <trkpt lat="36.67919" lon="3.084657"><ele>11</ele></trkpt>
   <trkpt lat="36.679911" lon="3.083632"><ele>13</ele></trkpt>
   <trkpt lat="36.680087" lon="3.083332"><ele>13.25</ele></trkpt>
   <trkpt lat="36.680197" lon="3.083053"><ele>13.25</ele></trkpt>
   <trkpt lat="36.680277" lon="3.082782"><ele>13.75</ele></trkpt>
   <trkpt lat="36.680341" lon="3.082438"><ele>14</ele></trkpt>
   <trkpt lat="36.680358" lon="3.082122"><ele>14</ele></trkpt>
   <trkpt lat="36.680339" lon="3.081808"><ele>14</ele></trkpt>
   <trkpt lat="36.680283" lon="3.081467"><ele>16</ele></trkpt>
   <trkpt lat="36.680182" lon="3.081111"><ele>16.5</ele></trkpt>
   <trkpt lat="36.68012" lon="3.08095"><ele>16.25</ele></trkpt>
   <trkpt lat="36.679999" lon="3.080722"><ele>16</ele></trkpt>
   <trkpt lat="36.679887" lon="3.080531"><ele>16</ele></trkpt>
   <trkpt lat="36.679747" lon="3.080344"><ele>15.75</ele></trkpt>
   <trkpt lat="36.679601" lon="3.080191"><ele>16</ele></trkpt>
   <trkpt lat="36.679533" lon="3.080142"><ele>16</ele></trkpt>
   <trkpt lat="36.679657" lon="3.080387"><ele>16</ele></trkpt>
   <trkpt lat="36.679829" lon="3.080639"><ele>16</ele></trkpt>
   <trkpt lat="36.679891" lon="3.080745"><ele>16</ele></trkpt>
   <trkpt lat="36.680006" lon="3.08102"><ele>16</ele></trkpt>
   <trkpt lat="36.680055" lon="3.081171"><ele>16</ele></trkpt>
   <trkpt lat="36.680126" lon="3.08147"><ele>15.25</ele></trkpt>
   <trkpt lat="36.680138" lon="3.081619"><ele>13.5</ele></trkpt>
   <trkpt lat="36.680131" lon="3.081746"><ele>12.75</ele></trkpt>
   <trkpt lat="36.680108" lon="3.081944"><ele>12.75</ele></trkpt>
   <trkpt lat="36.680068" lon="3.082197"><ele>12.25</ele></trkpt>
   <trkpt lat="36.679985" lon="3.081962"><ele>12</ele></trkpt>
   <trkpt lat="36.679914" lon="3.081703"><ele>12</ele></trkpt>
   <trkpt lat="36.679806" lon="3.081081"><ele>16</ele></trkpt>
   <trkpt lat="36.67975" lon="3.080891"><ele>16</ele></trkpt>
   <trkpt lat="36.679646" lon="3.080694"><ele>16</ele></trkpt>
   <trkpt lat="36.679533" lon="3.080547"><ele>16</ele></trkpt>
   <trkpt lat="36.67946" lon="3.080482"><ele>16</ele></trkpt>
   <trkpt lat="36.679381" lon="3.080425"><ele>14.75</ele></trkpt>
   <trkpt lat="36.679222" lon="3.080328"><ele>11.75</ele></trkpt>
   <trkpt lat="36.67903" lon="3.080228"><ele>11</ele></trkpt>
   <trkpt lat="36.678919" lon="3.080158"><ele>11</ele></trkpt>
   <trkpt lat="36.678427" lon="3.07974"><ele>14.75</ele></trkpt>
   <trkpt lat="36.678359" lon="3.079689"><ele>14.25</ele></trkpt>
   <trkpt lat="36.678319" lon="3.079671"><ele>14</ele></trkpt>
   <trkpt lat="36.678279" lon="3.079666"><ele>14</ele></trkpt>
   <trkpt lat="36.67817" lon="3.07968"><ele>14</ele></trkpt>
   <trkpt lat="36.677794" lon="3.079723"><ele>13.75</ele></trkpt>
   <trkpt lat="36.677747" lon="3.079735"><ele>13.75</ele></trkpt>
   <trkpt lat="36.677709" lon="3.079755"><ele>13.75</ele></trkpt>
   <trkpt lat="36.677598" lon="3.07988"><ele>12.5</ele></trkpt>
   <trkpt lat="36.677565" lon="3.079889"><ele>12.25</ele></trkpt>
   <trkpt lat="36.677524" lon="3.079886"><ele>12.25</ele></trkpt>
   <trkpt lat="36.677473" lon="3.079866"><ele>12.25</ele></trkpt>
   <trkpt lat="36.677315" lon="3.07977"><ele>13.25</ele></trkpt>
   <trkpt lat="36.677137" lon="3.079708"><ele>14</ele></trkpt>
   <trkpt lat="36.676928" lon="3.079684"><ele>13.75</ele></trkpt>
   <trkpt lat="36.67672" lon="3.079696"><ele>14</ele></trkpt>
   <trkpt lat="36.676542" lon="3.079739"><ele>13.75</ele></trkpt>
   <trkpt lat="36.676393" lon="3.079816"><ele>13.25</ele></trkpt>
   <trkpt lat="36.676273" lon="3.079903"><ele>12.5</ele></trkpt>
   <trkpt lat="36.676048" lon="3.080097"><ele>12</ele></trkpt>
   <trkpt lat="36.675761" lon="3.080285"><ele>12</ele></trkpt>
   <trkpt lat="36.675627" lon="3.080326"><ele>12</ele></trkpt>
   <trkpt lat="36.675255" lon="3.080328"><ele>12</ele></trkpt>
   <trkpt lat="36.67502" lon="3.080299"><ele>13.75</ele></trkpt>
   <trkpt lat="36.674804" lon="3.080235"><ele>13.75</ele></trkpt>
   <trkpt lat="36.674483" lon="3.080091"><ele>14</ele></trkpt>
   <trkpt lat="36.674423" lon="3.080055"><ele>13.5</ele></trkpt>
   <trkpt lat="36.674271" lon="3.079942"><ele>11</ele></trkpt>
   <trkpt lat="36.674073" lon="3.07975"><ele>14.25</ele></trkpt>
   <trkpt lat="36.673841" lon="3.079486"><ele>15</ele></trkpt>
   <trkpt lat="36.673703" lon="3.079267"><ele>15</ele></trkpt>
   <trkpt lat="36.673365" lon="3.078669"><ele>15</ele></trkpt>
   <trkpt lat="36.67315" lon="3.078253"><ele>15.75</ele></trkpt>
   <trkpt lat="36.673063" lon="3.078044"><ele>18</ele></trkpt>
   <trkpt lat="36.672981" lon="3.077811"><ele>18</ele></trkpt>
   <trkpt lat="36.672932" lon="3.077643"><ele>18</ele></trkpt>
   <trkpt lat="36.672908" lon="3.077583"><ele>18</ele></trkpt>
   <trkpt lat="36.672871" lon="3.077514"><ele>18</ele></trkpt>
   <trkpt lat="36.672816" lon="3.077439"><ele>18</ele></trkpt>
   <trkpt lat="36.672695" lon="3.077295"><ele>17</ele></trkpt>
   <trkpt lat="36.672585" lon="3.077174"><ele>15.75</ele></trkpt>
   <trkpt lat="36.672338" lon="3.076935"><ele>15</ele></trkpt>
   <trkpt lat="36.67221" lon="3.076828"><ele>15</ele></trkpt>
   <trkpt lat="36.672114" lon="3.076763"><ele>15</ele></trkpt>
   <trkpt lat="36.672042" lon="3.076734"><ele>15</ele></trkpt>
   <trkpt lat="36.6719" lon="3.076712"><ele>14.5</ele></trkpt>
   <trkpt lat="36.671844" lon="3.076693"><ele>14.25</ele></trkpt>
   <trkpt lat="36.671801" lon="3.076651"><ele>14</ele></trkpt>
   <trkpt lat="36.671745" lon="3.076579"><ele>14.25</ele></trkpt>
   <trkpt lat="36.67168" lon="3.076517"><ele>14.5</ele></trkpt>
   <trkpt lat="36.671591" lon="3.076447"><ele>15.25</ele></trkpt>
   <trkpt lat="36.671502" lon="3.076388"><ele>16</ele></trkpt>
   <trkpt lat="36.671396" lon="3.076124"><ele>16</ele></trkpt>
   <trkpt lat="36.670777" lon="3.074749"><ele>18.75</ele></trkpt>
   <trkpt lat="36.670652" lon="3.074544"><ele>19</ele></trkpt>
   <trkpt lat="36.670455" lon="3.074298"><ele>19</ele></trkpt>
   <trkpt lat="36.669861" lon="3.073599"><ele>18</ele></trkpt>
   <trkpt lat="36.669776" lon="3.073448"><ele>18</ele></trkpt>
   <trkpt lat="36.669596" lon="3.073035"><ele>18</ele></trkpt>
   <trkpt lat="36.669438" lon="3.072702"><ele>17.75</ele></trkpt>
   <trkpt lat="36.669299" lon="3.072369"><ele>17</ele></trkpt>
   <trkpt lat="36.669165" lon="3.071944"><ele>17</ele></trkpt>
   <trkpt lat="36.669059" lon="3.071557"><ele>17.25</ele></trkpt>
   <trkpt lat="36.668962" lon="3.071261"><ele>18</ele></trkpt>
   <trkpt lat="36.668852" lon="3.071001"><ele>18</ele></trkpt>
   <trkpt lat="36.668754" lon="3.070826"><ele>18</ele></trkpt>
   <trkpt lat="36.668598" lon="3.070606"><ele>17.75</ele></trkpt>
   <trkpt lat="36.668493" lon="3.070427"><ele>16.5</ele></trkpt>
   <trkpt lat="36.668399" lon="3.070213"><ele>15.5</ele></trkpt>
   <trkpt lat="36.668125" lon="3.069328"><ele>18</ele></trkpt>
   <trkpt lat="36.667974" lon="3.068861"><ele>18</ele></trkpt>
   <trkpt lat="36.66787" lon="3.068599"><ele>18</ele></trkpt>
   <trkpt lat="36.667803" lon="3.068486"><ele>18</ele></trkpt>
   <trkpt lat="36.667739" lon="3.068403"><ele>17.5</ele></trkpt>
   <trkpt lat="36.667641" lon="3.06832"><ele>17</ele></trkpt>
   <trkpt lat="36.667558" lon="3.068261"><ele>17.25</ele></trkpt>
   <trkpt lat="36.667405" lon="3.06819"><ele>17.5</ele></trkpt>
   <trkpt lat="36.667221" lon="3.068127"><ele>18</ele></trkpt>
   <trkpt lat="36.666784" lon="3.067993"><ele>19</ele></trkpt>
   <trkpt lat="36.666409" lon="3.067904"><ele>18.75</ele></trkpt>
   <trkpt lat="36.665885" lon="3.067806"><ele>16.5</ele></trkpt>
   <trkpt lat="36.665439" lon="3.067741"><ele>16</ele></trkpt>
   <trkpt lat="36.665037" lon="3.067695"><ele>16.75</ele></trkpt>
   <trkpt lat="36.664774" lon="3.067678"><ele>17</ele></trkpt>
   <trkpt lat="36.664583" lon="3.067697"><ele>17</ele></trkpt>
   <trkpt lat="36.664383" lon="3.067741"><ele>17</ele></trkpt>
   <trkpt lat="36.664072" lon="3.067787"><ele>17</ele></trkpt>
   <trkpt lat="36.663801" lon="3.067816"><ele>17</ele></trkpt>
   <trkpt lat="36.663567" lon="3.067812"><ele>17.25</ele></trkpt>
   <trkpt lat="36.663319" lon="3.067787"><ele>19</ele></trkpt>
   <trkpt lat="36.662607" lon="3.067668"><ele>17.75</ele></trkpt>
   <trkpt lat="36.662211" lon="3.067634"><ele>17</ele></trkpt>
   <trkpt lat="36.661552" lon="3.067673"><ele>17</ele></trkpt>
   <trkpt lat="36.661216" lon="3.067708"><ele>17</ele></trkpt>
   <trkpt lat="36.661025" lon="3.067765"><ele>17.5</ele></trkpt>
   <trkpt lat="36.660878" lon="3.067828"><ele>18.5</ele></trkpt>
   <trkpt lat="36.66071" lon="3.06794"><ele>19</ele></trkpt>
   <trkpt lat="36.660623" lon="3.068027"><ele>19</ele></trkpt>
   <trkpt lat="36.660533" lon="3.068165"><ele>17.75</ele></trkpt>
   <trkpt lat="36.660132" lon="3.068736"><ele>17.5</ele></trkpt>
   <trkpt lat="36.660051" lon="3.068812"><ele>18.25</ele></trkpt>
   <trkpt lat="36.659988" lon="3.068861"><ele>19</ele></trkpt>
   <trkpt lat="36.659838" lon="3.068943"><ele>18</ele></trkpt>
   <trkpt lat="36.659763" lon="3.068975"><ele>17.25</ele></trkpt>
   <trkpt lat="36.659639" lon="3.069018"><ele>16.5</ele></trkpt>
   <trkpt lat="36.659443" lon="3.06905"><ele>16</ele></trkpt>
   <trkpt lat="36.659369" lon="3.069069"><ele>16.75</ele></trkpt>
   <trkpt lat="36.659269" lon="3.069122"><ele>17.5</ele></trkpt>
   <trkpt lat="36.6592" lon="3.069195"><ele>18.25</ele></trkpt>
   <trkpt lat="36.65901" lon="3.069449"><ele>19</ele></trkpt>
   <trkpt lat="36.658646" lon="3.069874"><ele>16.75</ele></trkpt>
   <trkpt lat="36.658136" lon="3.070393"><ele>17</ele></trkpt>
   <trkpt lat="36.657819" lon="3.070687"><ele>16</ele></trkpt>
   <trkpt lat="36.657614" lon="3.070864"><ele>15.5</ele></trkpt>
   <trkpt lat="36.657507" lon="3.070941"><ele>15.75</ele></trkpt>
   <trkpt lat="36.657231" lon="3.071085"><ele>16</ele></trkpt>
   <trkpt lat="36.657006" lon="3.070718"><ele>17.5</ele></trkpt>
   <trkpt lat="36.656974" lon="3.070647"><ele>18.5</ele></trkpt>
   <trkpt lat="36.656967" lon="3.070607"><ele>19.25</ele></trkpt>
   <trkpt lat="36.656974" lon="3.070309"><ele>20</ele></trkpt>
   <trkpt lat="36.656995" lon="3.070224"><ele>20</ele></trkpt>
   <trkpt lat="36.657014" lon="3.070186"><ele>20</ele></trkpt>
   <trkpt lat="36.657037" lon="3.070153"><ele>20</ele></trkpt>
   <trkpt lat="36.657104" lon="3.070087"><ele>20</ele></trkpt>
   <trkpt lat="36.657138" lon="3.070042"><ele>20</ele></trkpt>
   <trkpt lat="36.657165" lon="3.06999"><ele>20</ele></trkpt>
   <trkpt lat="36.657185" lon="3.069933"><ele>20.25</ele></trkpt>
   <trkpt lat="36.657196" lon="3.069873"><ele>20.75</ele></trkpt>
   <trkpt lat="36.657441" lon="3.06824"><ele>20.25</ele></trkpt>
   <trkpt lat="36.657968" lon="3.064513"><ele>23</ele></trkpt>
   <trkpt lat="36.658417" lon="3.061447"><ele>20.25</ele></trkpt>
   <trkpt lat="36.658617" lon="3.059689"><ele>21</ele></trkpt>
   <trkpt lat="36.65891" lon="3.057863"><ele>22</ele></trkpt>
   <trkpt lat="36.659141" lon="3.056324"><ele>23</ele></trkpt>
   <trkpt lat="36.659216" lon="3.056135"><ele>22.75</ele></trkpt>
   <trkpt lat="36.659272" lon="3.056049"><ele>22.5</ele></trkpt>
   <trkpt lat="36.659382" lon="3.055843"><ele>22</ele></trkpt>
   <trkpt lat="36.659652" lon="3.055401"><ele>22</ele></trkpt>
   <trkpt lat="36.660529" lon="3.055991"><ele>20</ele></trkpt>
   <trkpt lat="36.66088" lon="3.056257"><ele>19.75</ele></trkpt>
   <trkpt lat="36.660981" lon="3.056303"><ele>19.25</ele></trkpt>
   <trkpt lat="36.661076" lon="3.056328"><ele>19</ele></trkpt>
   <trkpt lat="36.661168" lon="3.056328"><ele>19</ele></trkpt>
   <trkpt lat="36.661381" lon="3.056311"><ele>19</ele></trkpt>
   <trkpt lat="36.661496" lon="3.056283"><ele>19</ele></trkpt>
   <trkpt lat="36.661591" lon="3.056245"><ele>19</ele></trkpt>
   <trkpt lat="36.661752" lon="3.056166"><ele>19.75</ele></trkpt>
   <trkpt lat="36.661783" lon="3.056141"><ele>20.25</ele></trkpt>
   <trkpt lat="36.661874" lon="3.056087"><ele>21</ele></trkpt>
   <trkpt lat="36.663448" lon="3.055247"><ele>23</ele></trkpt>
   <trkpt lat="36.664127" lon="3.054896"><ele>22</ele></trkpt>
   <trkpt lat="36.665194" lon="3.054337"><ele>24.5</ele></trkpt>
   <trkpt lat="36.665907" lon="3.053969"><ele>24.75</ele></trkpt>
   <trkpt lat="36.666052" lon="3.053894"><ele>25.5</ele></trkpt>
   <trkpt lat="36.666264" lon="3.053784"><ele>26</ele></trkpt>
   <trkpt lat="36.667558" lon="3.053109"><ele>26.75</ele></trkpt>
   <trkpt lat="36.667971" lon="3.052895"><ele>29</ele></trkpt>
   <trkpt lat="36.668144" lon="3.052799"><ele>29</ele></trkpt>
   <trkpt lat="36.668511" lon="3.052594"><ele>29</ele></trkpt>
   <trkpt lat="36.66856" lon="3.052567"><ele>29</ele></trkpt>
   <trkpt lat="36.669002" lon="3.052321"><ele>29.5</ele></trkpt>
   <trkpt lat="36.66957" lon="3.05202"><ele>32</ele></trkpt>
   <trkpt lat="36.669772" lon="3.051903"><ele>32</ele></trkpt>
   <trkpt lat="36.670055" lon="3.051785"><ele>32.75</ele></trkpt>
   <trkpt lat="36.670165" lon="3.051729"><ele>34.25</ele></trkpt>
   <trkpt lat="36.670332" lon="3.051742"><ele>36</ele></trkpt>
   <trkpt lat="36.670403" lon="3.05176"><ele>36</ele></trkpt>
   <trkpt lat="36.670462" lon="3.051789"><ele>36</ele></trkpt>
   <trkpt lat="36.670509" lon="3.051821"><ele>36</ele></trkpt>
   <trkpt lat="36.670579" lon="3.051906"><ele>36</ele></trkpt>
   <trkpt lat="36.670613" lon="3.05195"><ele>36</ele></trkpt>
   <trkpt lat="36.670658" lon="3.051976"><ele>36</ele></trkpt>
   <trkpt lat="36.670707" lon="3.051979"><ele>36</ele></trkpt>
   <trkpt lat="36.670753" lon="3.051959"><ele>36</ele></trkpt>
   <trkpt lat="36.671241" lon="3.051662"><ele>35</ele></trkpt>
   <trkpt lat="36.671652" lon="3.051527"><ele>36</ele></trkpt>
   <trkpt lat="36.671988" lon="3.051385"><ele>39</ele></trkpt>
   <trkpt lat="36.672203" lon="3.051248"><ele>40.25</ele></trkpt>
   <trkpt lat="36.672656" lon="3.050884"><ele>43</ele></trkpt>
   <trkpt lat="36.672793" lon="3.050753"><ele>44</ele></trkpt>
   <trkpt lat="36.673015" lon="3.050468"><ele>44</ele></trkpt>
   <trkpt lat="36.673159" lon="3.050227"><ele>44</ele></trkpt>
   <trkpt lat="36.673228" lon="3.049962"><ele>44</ele></trkpt>
   <trkpt lat="36.67329" lon="3.049814"><ele>44.5</ele></trkpt>
   <trkpt lat="36.673327" lon="3.049511"><ele>45</ele></trkpt>
   <trkpt lat="36.673312" lon="3.049265"><ele>45</ele></trkpt>
   <trkpt lat="36.67324" lon="3.048894"><ele>50.75</ele></trkpt>
   <trkpt lat="36.673136" lon="3.048587"><ele>51</ele></trkpt>
   <trkpt lat="36.672888" lon="3.048148"><ele>53</ele></trkpt>
   <trkpt lat="36.67273" lon="3.047947"><ele>52.75</ele></trkpt>
   <trkpt lat="36.672691" lon="3.047903"><ele>51.75</ele></trkpt>
   <trkpt lat="36.672636" lon="3.047869"><ele>50.25</ele></trkpt>
   <trkpt lat="36.672562" lon="3.047825"><ele>48.5</ele></trkpt>
   <trkpt lat="36.672334" lon="3.047714"><ele>47</ele></trkpt>
   <trkpt lat="36.672164" lon="3.04757"><ele>47</ele></trkpt>
   <trkpt lat="36.671995" lon="3.0474"><ele>49</ele></trkpt>
   <trkpt lat="36.670448" lon="3.045783"><ele>36.75</ele></trkpt>
   <trkpt lat="36.670274" lon="3.045611"><ele>39.75</ele></trkpt>
   <trkpt lat="36.670229" lon="3.045572"><ele>40.5</ele></trkpt>
   <trkpt lat="36.670117" lon="3.0455"><ele>40.25</ele></trkpt>
   <trkpt lat="36.670053" lon="3.045405"><ele>40</ele></trkpt>
   <trkpt lat="36.669827" lon="3.044962"><ele>40.75</ele></trkpt>
   <trkpt lat="36.669077" lon="3.043836"><ele>40</ele></trkpt>
   <trkpt lat="36.66899" lon="3.043723"><ele>40</ele></trkpt>
   <trkpt lat="36.668424" lon="3.042968"><ele>41.5</ele></trkpt>
   <trkpt lat="36.667694" lon="3.041775"><ele>40</ele></trkpt>
   <trkpt lat="36.66755" lon="3.041583"><ele>40.25</ele></trkpt>
   <trkpt lat="36.667516" lon="3.041533"><ele>40.25</ele></trkpt>
   <trkpt lat="36.666078" lon="3.039307"><ele>45.5</ele></trkpt>
   <trkpt lat="36.665153" lon="3.037793"><ele>44.25</ele></trkpt>
   <trkpt lat="36.664286" lon="3.036323"><ele>42.25</ele></trkpt>
   <trkpt lat="36.663873" lon="3.03561"><ele>43.25</ele></trkpt>
   <trkpt lat="36.66328" lon="3.034616"><ele>46</ele></trkpt>
   <trkpt lat="36.66186" lon="3.032258"><ele>45.25</ele></trkpt>
   <trkpt lat="36.661017" lon="3.030796"><ele>40.75</ele></trkpt>
   <trkpt lat="36.660546" lon="3.029979"><ele>40.25</ele></trkpt>
   <trkpt lat="36.660281" lon="3.029365"><ele>44</ele></trkpt>
   <trkpt lat="36.660027" lon="3.028831"><ele>48.75</ele></trkpt>
   <trkpt lat="36.659778" lon="3.028354"><ele>49</ele></trkpt>
   <trkpt lat="36.660846" lon="3.027188"><ele>57</ele></trkpt>
   <trkpt lat="36.661364" lon="3.026621"><ele>59.75</ele></trkpt>
   <trkpt lat="36.661909" lon="3.026006"><ele>61.5</ele></trkpt>
   <trkpt lat="36.662317" lon="3.025601"><ele>66.75</ele></trkpt>
   <trkpt lat="36.662384" lon="3.0255"><ele>68</ele></trkpt>
   <trkpt lat="36.662931" lon="3.024075"><ele>64.75</ele></trkpt>
   <trkpt lat="36.662982" lon="3.023847"><ele>69</ele></trkpt>
   <trkpt lat="36.663034" lon="3.023676"><ele>69</ele></trkpt>
   <trkpt lat="36.663189" lon="3.023408"><ele>69</ele></trkpt>
   <trkpt lat="36.663212" lon="3.023346"><ele>69</ele></trkpt>
   <trkpt lat="36.663219" lon="3.023273"><ele>69</ele></trkpt>
   <trkpt lat="36.663193" lon="3.023196"><ele>69.25</ele></trkpt>
   <trkpt lat="36.662993" lon="3.022994"><ele>70</ele></trkpt>
   <trkpt lat="36.662961" lon="3.02282"><ele>70</ele></trkpt>
   <trkpt lat="36.662954" lon="3.022732"><ele>70</ele></trkpt>
   <trkpt lat="36.662976" lon="3.022506"><ele>70</ele></trkpt>
   <trkpt lat="36.663041" lon="3.022223"><ele>76.75</ele></trkpt>
   <trkpt lat="36.663064" lon="3.022105"><ele>76.75</ele></trkpt>
   <trkpt lat="36.663008" lon="3.021796"><ele>77</ele></trkpt>
   <trkpt lat="36.663021" lon="3.021715"><ele>76.75</ele></trkpt>
   <trkpt lat="36.66306" lon="3.021648"><ele>77.25</ele></trkpt>
   <trkpt lat="36.663134" lon="3.021543"><ele>80</ele></trkpt>
   <trkpt lat="36.663462" lon="3.021043"><ele>82.5</ele></trkpt>
   <trkpt lat="36.663664" lon="3.020701"><ele>85.25</ele></trkpt>
   <trkpt lat="36.663815" lon="3.020492"><ele>90</ele></trkpt>
   <trkpt lat="36.663882" lon="3.020344"><ele>90</ele></trkpt>
   <trkpt lat="36.663933" lon="3.020176"><ele>90</ele></trkpt>
   <trkpt lat="36.663981" lon="3.019952"><ele>90.75</ele></trkpt>
   <trkpt lat="36.664015" lon="3.019832"><ele>93</ele></trkpt>
   <trkpt lat="36.664071" lon="3.019693"><ele>95</ele></trkpt>
   <trkpt lat="36.664371" lon="3.019333"><ele>98.5</ele></trkpt>
   <trkpt lat="36.664693" lon="3.019081"><ele>101</ele></trkpt>
   <trkpt lat="36.665008" lon="3.018753"><ele>104</ele></trkpt>
   <trkpt lat="36.665312" lon="3.018481"><ele>107</ele></trkpt>
   <trkpt lat="36.665565" lon="3.018246"><ele>109.75</ele></trkpt>
   <trkpt lat="36.66567" lon="3.018134"><ele>113.25</ele></trkpt>
   <trkpt lat="36.665994" lon="3.017681"><ele>118.25</ele></trkpt>
   <trkpt lat="36.666092" lon="3.017469"><ele>120.25</ele></trkpt>
   <trkpt lat="36.665197" lon="3.015449"><ele>123</ele></trkpt>
   <trkpt lat="36.665506" lon="3.015486"><ele>127</ele></trkpt>
   <trkpt lat="36.665682" lon="3.015569"><ele>127</ele></trkpt>
   <trkpt lat="36.665839" lon="3.015576"><ele>127</ele></trkpt>
   <trkpt lat="36.665948" lon="3.015568"><ele>131.25</ele></trkpt>
   <trkpt lat="36.666034" lon="3.015549"><ele>134.75</ele></trkpt>
   <trkpt lat="36.666749" lon="3.015257"><ele>140.5</ele></trkpt>
   <trkpt lat="36.667071" lon="3.015119"><ele>147</ele></trkpt>
   <trkpt lat="36.66727" lon="3.015041"><ele>147</ele></trkpt>
   <trkpt lat="36.667731" lon="3.014636"><ele>157.25</ele></trkpt>
   <trkpt lat="36.667769" lon="3.01459"><ele>158.5</ele></trkpt>
   <trkpt lat="36.668073" lon="3.014228"><ele>159</ele></trkpt>
   <trkpt lat="36.668248" lon="3.01402"><ele>160</ele></trkpt>
   <trkpt lat="36.66836" lon="3.013874"><ele>162</ele></trkpt>
   <trkpt lat="36.668591" lon="3.013575"><ele>172</ele></trkpt>
   <trkpt lat="36.668665" lon="3.013481"><ele>172.75</ele></trkpt>
   <trkpt lat="36.669138" lon="3.012829"><ele>170</ele></trkpt>
   <trkpt lat="36.669215" lon="3.012728"><ele>172.25</ele></trkpt>
   <trkpt lat="36.669519" lon="3.012302"><ele>180.25</ele></trkpt>
   <trkpt lat="36.669784" lon="3.011957"><ele>178.75</ele></trkpt>
   <trkpt lat="36.670022" lon="3.01169"><ele>179.5</ele></trkpt>
   <trkpt lat="36.67017" lon="3.011551"><ele>182.5</ele></trkpt>
   <trkpt lat="36.670445" lon="3.011422"><ele>183.25</ele></trkpt>
   <trkpt lat="36.670638" lon="3.011319"><ele>183</ele></trkpt>
   <trkpt lat="36.670783" lon="3.011156"><ele>183</ele></trkpt>
   <trkpt lat="36.670871" lon="3.010921"><ele>183.5</ele></trkpt>
   <trkpt lat="36.670866" lon="3.010815"><ele>183.75</ele></trkpt>
   <trkpt lat="36.670842" lon="3.010667"><ele>185</ele></trkpt>
   <trkpt lat="36.67072" lon="3.010248"><ele>186</ele></trkpt>
   <trkpt lat="36.670689" lon="3.010006"><ele>186</ele></trkpt>
   <trkpt lat="36.670664" lon="3.00971"><ele>190</ele></trkpt>
   <trkpt lat="36.670698" lon="3.009498"><ele>190</ele></trkpt>
   <trkpt lat="36.670733" lon="3.009388"><ele>190</ele></trkpt>
   <trkpt lat="36.670955" lon="3.009075"><ele>193.5</ele></trkpt>
   <trkpt lat="36.671052" lon="3.008883"><ele>197.25</ele></trkpt>
   <trkpt lat="36.671114" lon="3.008713"><ele>199</ele></trkpt>
   <trkpt lat="36.671151" lon="3.008545"><ele>199</ele></trkpt>
   <trkpt lat="36.671165" lon="3.008349"><ele>199</ele></trkpt>
   <trkpt lat="36.671235" lon="3.007717"><ele>198</ele></trkpt>
   <trkpt lat="36.671318" lon="3.00727"><ele>196.25</ele></trkpt>
   <trkpt lat="36.671373" lon="3.007071"><ele>196</ele></trkpt>
   <trkpt lat="36.671547" lon="3.006727"><ele>196</ele></trkpt>
   <trkpt lat="36.671583" lon="3.006549"><ele>196.75</ele></trkpt>
   <trkpt lat="36.671566" lon="3.006402"><ele>197.75</ele></trkpt>
   <trkpt lat="36.671533" lon="3.00623"><ele>198</ele></trkpt>
   <trkpt lat="36.671284" lon="3.006119"><ele>198</ele></trkpt>
   <trkpt lat="36.671261" lon="3.006066"><ele>198</ele></trkpt>
   <trkpt lat="36.67129" lon="3.006007"><ele>198</ele></trkpt>
   <trkpt lat="36.671519" lon="3.005809"><ele>197.25</ele></trkpt>
   <trkpt lat="36.671818" lon="3.005585"><ele>194.25</ele></trkpt>
   <trkpt lat="36.67195" lon="3.005467"><ele>196</ele></trkpt>
   <trkpt lat="36.672065" lon="3.005345"><ele>196</ele></trkpt>
   <trkpt lat="36.672706" lon="3.004885"><ele>197</ele></trkpt>
   <trkpt lat="36.672834" lon="3.004751"><ele>197</ele></trkpt>
   <trkpt lat="36.672951" lon="3.004599"><ele>197</ele></trkpt>
   <trkpt lat="36.673114" lon="3.004308"><ele>197</ele></trkpt>
   <trkpt lat="36.673225" lon="3.004134"><ele>197</ele></trkpt>
   <trkpt lat="36.673335" lon="3.003915"><ele>198.75</ele></trkpt>
   <trkpt lat="36.673455" lon="3.003755"><ele>196.25</ele></trkpt>
   <trkpt lat="36.673641" lon="3.003617"><ele>193</ele></trkpt>
   <trkpt lat="36.673706" lon="3.002807"><ele>195</ele></trkpt>
   <trkpt lat="36.673819" lon="3.001626"><ele>193</ele></trkpt>
   <trkpt lat="36.673889" lon="3.000518"><ele>194</ele></trkpt>
   <trkpt lat="36.673986" lon="2.999402"><ele>191</ele></trkpt>
   <trkpt lat="36.67412" lon="2.998471"><ele>189</ele></trkpt>
   <trkpt lat="36.674194" lon="2.997174"><ele>192.5</ele></trkpt>
   <trkpt lat="36.674401" lon="2.994481"><ele>197.75</ele></trkpt>
   <trkpt lat="36.674599" lon="2.991724"><ele>204</ele></trkpt>
   <trkpt lat="36.674726" lon="2.989884"><ele>201.75</ele></trkpt>
   <trkpt lat="36.674653" lon="2.989646"><ele>203</ele></trkpt>
   <trkpt lat="36.67459" lon="2.989508"><ele>203</ele></trkpt>
   <trkpt lat="36.674446" lon="2.989316"><ele>203</ele></trkpt>
   <trkpt lat="36.674392" lon="2.989192"><ele>202.5</ele></trkpt>
   <trkpt lat="36.674297" lon="2.988795"><ele>201.25</ele></trkpt>
   <trkpt lat="36.674245" lon="2.988494"><ele>200.75</ele></trkpt>
   <trkpt lat="36.674231" lon="2.988171"><ele>199</ele></trkpt>
   <trkpt lat="36.674242" lon="2.987857"><ele>198</ele></trkpt>
   <trkpt lat="36.674291" lon="2.987665"><ele>198</ele></trkpt>
   <trkpt lat="36.674486" lon="2.987262"><ele>190.25</ele></trkpt>
   <trkpt lat="36.674799" lon="2.986701"><ele>189</ele></trkpt>
   <trkpt lat="36.675163" lon="2.986176"><ele>183.75</ele></trkpt>
   <trkpt lat="36.675297" lon="2.986155"><ele>185</ele></trkpt>
   <trkpt lat="36.675715" lon="2.986092"><ele>185</ele></trkpt>
   <trkpt lat="36.675839" lon="2.986098"><ele>185</ele></trkpt>
   <trkpt lat="36.676053" lon="2.986109"><ele>185</ele></trkpt>
   <trkpt lat="36.676287" lon="2.986074"><ele>185</ele></trkpt>
   <trkpt lat="36.67672" lon="2.986092"><ele>182.75</ele></trkpt>
   <trkpt lat="36.676663" lon="2.985895"><ele>185</ele></trkpt>
   <trkpt lat="36.677153" lon="2.985877"><ele>174</ele></trkpt>
   <trkpt lat="36.677471" lon="2.985862"><ele>174</ele></trkpt>
   <trkpt lat="36.677834" lon="2.985842"><ele>171</ele></trkpt>
   <trkpt lat="36.677834" lon="2.985492"><ele>166</ele></trkpt>
   <trkpt lat="36.677832" lon="2.985186"><ele>166</ele></trkpt>
   <trkpt lat="36.67784" lon="2.985102"><ele>166</ele></trkpt>
   <trkpt lat="36.677856" lon="2.985045"><ele>166</ele></trkpt>
   <trkpt lat="36.677965" lon="2.984973"><ele>165.25</ele></trkpt>
   <trkpt lat="36.67824" lon="2.984828"><ele>162.25</ele></trkpt>
   <trkpt lat="36.678372" lon="2.984756"><ele>160.5</ele></trkpt>
   <trkpt lat="36.678466" lon="2.984745"><ele>160.25</ele></trkpt>
   <trkpt lat="36.678776" lon="2.984821"><ele>161.25</ele></trkpt>
   <trkpt lat="36.678854" lon="2.984821"><ele>161.25</ele></trkpt>
   <trkpt lat="36.678938" lon="2.984791"><ele>160.75</ele></trkpt>
   <trkpt lat="36.679215" lon="2.984448"><ele>159.25</ele></trkpt>
   <trkpt lat="36.679396" lon="2.98433"><ele>157.5</ele></trkpt>
   <trkpt lat="36.679183" lon="2.983532"><ele>155.75</ele></trkpt>
   <trkpt lat="36.679388" lon="2.983332"><ele>154.25</ele></trkpt>
   <trkpt lat="36.679786" lon="2.98301"><ele>149</ele></trkpt>
   <trkpt lat="36.679942" lon="2.983045"><ele>149</ele></trkpt>
   <trkpt lat="36.680032" lon="2.983134"><ele>149.5</ele></trkpt>
   <trkpt lat="36.680067" lon="2.983175"><ele>149.5</ele></trkpt>
   <trkpt lat="36.680108" lon="2.983205"><ele>149.25</ele></trkpt>
   <trkpt lat="36.680174" lon="2.983229"><ele>148.25</ele></trkpt>
   <trkpt lat="36.680242" lon="2.983227"><ele>146.75</ele></trkpt>
   <trkpt lat="36.680307" lon="2.983201"><ele>145.5</ele></trkpt>
   <trkpt lat="36.680363" lon="2.983152"><ele>144.5</ele></trkpt>
   <trkpt lat="36.680404" lon="2.983087"><ele>143.5</ele></trkpt>
   <trkpt lat="36.680429" lon="2.983011"><ele>143</ele></trkpt>
   <trkpt lat="36.680434" lon="2.982928"><ele>143</ele></trkpt>
   <trkpt lat="36.680475" lon="2.982867"><ele>143</ele></trkpt>
   <trkpt lat="36.680676" lon="2.982785"><ele>143</ele></trkpt>
   <trkpt lat="36.681426" lon="2.983297"><ele>136.25</ele></trkpt>
   <trkpt lat="36.681504" lon="2.983361"><ele>136</ele></trkpt>
   <trkpt lat="36.68159" lon="2.983479"><ele>136</ele></trkpt>
   <trkpt lat="36.681693" lon="2.98364"><ele>135.25</ele></trkpt>
   <trkpt lat="36.68177" lon="2.983737"><ele>133.75</ele></trkpt>
   <trkpt lat="36.681882" lon="2.983823"><ele>131.25</ele></trkpt>
   <trkpt lat="36.682011" lon="2.983887"><ele>130</ele></trkpt>
   <trkpt lat="36.68245" lon="2.984037"><ele>132</ele></trkpt>
   <trkpt lat="36.682622" lon="2.984145"><ele>129.5</ele></trkpt>
   <trkpt lat="36.682889" lon="2.984359"><ele>124</ele></trkpt>
   <trkpt lat="36.683036" lon="2.984552"><ele>124</ele></trkpt>
   <trkpt lat="36.683179" lon="2.984753"><ele>124</ele></trkpt>
   <trkpt lat="36.683625" lon="2.98602"><ele>121</ele></trkpt>
   <trkpt lat="36.683744" lon="2.986252"><ele>121</ele></trkpt>
   <trkpt lat="36.683857" lon="2.986316"><ele>121</ele></trkpt>
   <trkpt lat="36.683983" lon="2.986338"><ele>121</ele></trkpt>
   <trkpt lat="36.684123" lon="2.986342"><ele>121</ele></trkpt>
   <trkpt lat="36.684307" lon="2.98633"><ele>124</ele></trkpt>
   <trkpt lat="36.684347" lon="2.985954"><ele>124.75</ele></trkpt>
   <trkpt lat="36.684371" lon="2.985715"><ele>126.5</ele></trkpt>
   <trkpt lat="36.684416" lon="2.985507"><ele>129.75</ele></trkpt>
   <trkpt lat="36.685875" lon="2.984871"><ele>147.75</ele></trkpt>
   <trkpt lat="36.686272" lon="2.98469"><ele>157</ele></trkpt>
   <trkpt lat="36.687753" lon="2.984115"><ele>160</ele></trkpt>
   <trkpt lat="36.687955" lon="2.983977"><ele>162.25</ele></trkpt>
   <trkpt lat="36.688107" lon="2.983828"><ele>163.75</ele></trkpt>
   <trkpt lat="36.688465" lon="2.983358"><ele>162.5</ele></trkpt>
   <trkpt lat="36.688602" lon="2.98321"><ele>164.5</ele></trkpt>
   <trkpt lat="36.688908" lon="2.982946"><ele>169</ele></trkpt>
   <trkpt lat="36.689056" lon="2.982841"><ele>169</ele></trkpt>
   <trkpt lat="36.689212" lon="2.982764"><ele>168.75</ele></trkpt>
   <trkpt lat="36.689336" lon="2.982788"><ele>168.25</ele></trkpt>
   <trkpt lat="36.6899" lon="2.982855"><ele>168</ele></trkpt>
   <trkpt lat="36.690775" lon="2.982987"><ele>172</ele></trkpt>
   <trkpt lat="36.69137" lon="2.983089"><ele>173.5</ele></trkpt>
   <trkpt lat="36.691535" lon="2.983085"><ele>173.5</ele></trkpt>
   <trkpt lat="36.691644" lon="2.983045"><ele>174</ele></trkpt>
   <trkpt lat="36.691701" lon="2.983022"><ele>173.75</ele></trkpt>
   <trkpt lat="36.691733" lon="2.983009"><ele>173.5</ele></trkpt>
   <trkpt lat="36.69205" lon="2.982796"><ele>172</ele></trkpt>
   <trkpt lat="36.692628" lon="2.982461"><ele>170</ele></trkpt>
   <trkpt lat="36.692943" lon="2.982274"><ele>169.5</ele></trkpt>
   <trkpt lat="36.693356" lon="2.982065"><ele>170</ele></trkpt>
   <trkpt lat="36.693918" lon="2.981754"><ele>171</ele></trkpt>
   <trkpt lat="36.694281" lon="2.981468"><ele>171.5</ele></trkpt>
   <trkpt lat="36.694915" lon="2.981008"><ele>173</ele></trkpt>
   <trkpt lat="36.695242" lon="2.980751"><ele>172.5</ele></trkpt>
   <trkpt lat="36.695379" lon="2.980643"><ele>175.25</ele></trkpt>
   <trkpt lat="36.695528" lon="2.980509"><ele>178</ele></trkpt>
   <trkpt lat="36.695811" lon="2.980303"><ele>178</ele></trkpt>
   <trkpt lat="36.696093" lon="2.980092"><ele>176</ele></trkpt>
   <trkpt lat="36.696345" lon="2.979906"><ele>176.5</ele></trkpt>
   <trkpt lat="36.696632" lon="2.979745"><ele>177.75</ele></trkpt>
   <trkpt lat="36.696848" lon="2.979635"><ele>178</ele></trkpt>
   <trkpt lat="36.696842" lon="2.979659"><ele>178</ele></trkpt>
   <trkpt lat="36.696847" lon="2.979708"><ele>178</ele></trkpt>
   <trkpt lat="36.696859" lon="2.979735"><ele>178</ele></trkpt>
   <trkpt lat="36.696877" lon="2.979756"><ele>178</ele></trkpt>
   <trkpt lat="36.6969" lon="2.979768"><ele>178</ele></trkpt>
   <trkpt lat="36.696924" lon="2.979771"><ele>178</ele></trkpt>
   <trkpt lat="36.696949" lon="2.979765"><ele>178</ele></trkpt>
   <trkpt lat="36.696969" lon="2.979751"><ele>178</ele></trkpt>
   <trkpt lat="36.696985" lon="2.97973"><ele>178</ele></trkpt>
   <trkpt lat="36.696995" lon="2.979704"><ele>178</ele></trkpt>
   <trkpt lat="36.697" lon="2.979676"><ele>178</ele></trkpt>
   <trkpt lat="36.696996" lon="2.979644"><ele>178</ele></trkpt>
   <trkpt lat="36.697136" lon="2.979365"><ele>178</ele></trkpt>
   <trkpt lat="36.697176" lon="2.979329"><ele>178</ele></trkpt>
   <trkpt lat="36.697547" lon="2.978996"><ele>173</ele></trkpt>
   <trkpt lat="36.697948" lon="2.978671"><ele>173</ele></trkpt>
  </trkseg>
 </trk>
</gpx>