<?xml version="1.0" encoding="UTF-8"?>
<!-- track-length = 20405 filtered ascend = 354 plain-ascend = 206 cost=37878 energy=0.1kwh time=1h 30m 48s -->
<gpx 
 xmlns="http://www.topografix.com/GPX/1/1" 
 xmlns:xsi="http://www.w3.org/2001/XMLSchema-instance" 
 xsi:schemaLocation="http://www.topografix.com/GPX/1/1 http://www.topografix.com/GPX/1/1/gpx.xsd" 
 version="1.1" 
 creator="BRouter-Web 0.18.1">
 <trk>
  <name>Oued Semmar -&gt; Draria (20,4km)</name>
  <trkseg>
   <trkpt lat="36.706559" lon="3.16704"><ele>11</ele></trkpt>
   <trkpt lat="36.706578" lon="3.167091"><ele>11</ele></trkpt>
   <trkpt lat="36.706642" lon="3.167174"><ele>11</ele></trkpt>
   <trkpt lat="36.706724" lon="3.167227"><ele>11.5</ele></trkpt>
   <trkpt lat="36.706814" lon="3.167245"><ele>12.75</ele></trkpt>
   <trkpt lat="36.706829" lon="3.167244"><ele>12.75</ele></trkpt>
   <trkpt lat="36.706844" lon="3.167243"><ele>13</ele></trkpt>
   <trkpt lat="36.706896" lon="3.16723"><ele>13.5</ele></trkpt>
   <trkpt lat="36.706946" lon="3.167205"><ele>14</ele></trkpt>
   <trkpt lat="36.706991" lon="3.167169"><ele>14</ele></trkpt>
   <trkpt lat="36.707004" lon="3.167155"><ele>14</ele></trkpt>
   <trkpt lat="36.707055" lon="3.167082"><ele>14</ele></trkpt>
   <trkpt lat="36.707088" lon="3.166995"><ele>14</ele></trkpt>
   <trkpt lat="36.707101" lon="3.1669"><ele>14</ele></trkpt>
   <trkpt lat="36.707093" lon="3.166804"><ele>14</ele></trkpt>
   <trkpt lat="36.707064" lon="3.166712"><ele>14</ele></trkpt>
   <trkpt lat="36.707016" lon="3.166633"><ele>14.25</ele></trkpt>
   <trkpt lat="36.706953" lon="3.166574"><ele>15.25</ele></trkpt>
   <trkpt lat="36.706867" lon="3.166463"><ele>16</ele></trkpt>
   <trkpt lat="36.706807" lon="3.166368"><ele>16.5</ele></trkpt>
   <trkpt lat="36.706774" lon="3.166293"><ele>16</ele></trkpt>
   <trkpt lat="36.706722" lon="3.166153"><ele>15.5</ele></trkpt>
   <trkpt lat="36.706735" lon="3.166101"><ele>15.5</ele></trkpt>
   <trkpt lat="36.707192" lon="3.165067"><ele>18</ele></trkpt>
   <trkpt lat="36.707732" lon="3.163872"><ele>21.5</ele></trkpt>
   <trkpt lat="36.707854" lon="3.163574"><ele>22</ele></trkpt>
   <trkpt lat="36.708162" lon="3.162882"><ele>21</ele></trkpt>
   <trkpt lat="36.708257" lon="3.162656"><ele>21</ele></trkpt>
   <trkpt lat="36.708657" lon="3.161778"><ele>25</ele></trkpt>
   <trkpt lat="36.709114" lon="3.160742"><ele>23.5</ele></trkpt>
   <trkpt lat="36.709545" lon="3.159746"><ele>25.75</ele></trkpt>
   <trkpt lat="36.70957" lon="3.159681"><ele>26</ele></trkpt>
   <trkpt lat="36.709871" lon="3.159006"><ele>25.25</ele></trkpt>
   <trkpt lat="36.709974" lon="3.158715"><ele>25</ele></trkpt>
   <trkpt lat="36.710088" lon="3.158419"><ele>25.25</ele></trkpt>
   <trkpt lat="36.710307" lon="3.157725"><ele>26</ele></trkpt>
   <trkpt lat="36.710627" lon="3.156801"><ele>26</ele></trkpt>
   <trkpt lat="36.710704" lon="3.156568"><ele>25.5</ele></trkpt>
   <trkpt lat="36.710755" lon="3.156417"><ele>25</ele></trkpt>
   <trkpt lat="36.711044" lon="3.155535"><ele>23</ele></trkpt>
   <trkpt lat="36.711319" lon="3.154656"><ele>19</ele></trkpt>
   <trkpt lat="36.7115" lon="3.154269"><ele>19</ele></trkpt>
   <trkpt lat="36.711763" lon="3.153823"><ele>14.5</ele></trkpt>
   <trkpt lat="36.712122" lon="3.153426"><ele>16</ele></trkpt>
   <trkpt lat="36.712363" lon="3.153231"><ele>14.75</ele></trkpt>
   <trkpt lat="36.712673" lon="3.153066"><ele>16</ele></trkpt>
   <trkpt lat="36.71311" lon="3.152997"><ele>18</ele></trkpt>
   <trkpt lat="36.713892" lon="3.152745"><ele>21</ele></trkpt>
   <trkpt lat="36.714038" lon="3.152567"><ele>21</ele></trkpt>
   <trkpt lat="36.714139" lon="3.152444"><ele>22</ele></trkpt>
   <trkpt lat="36.715532" lon="3.149806"><ele>30.25</ele></trkpt>
   <trkpt lat="36.715745" lon="3.149401"><ele>31</ele></trkpt>
   <trkpt lat="36.715877" lon="3.149159"><ele>31</ele></trkpt>
   <trkpt lat="36.716114" lon="3.148728"><ele>31</ele></trkpt>
   <trkpt lat="36.71671" lon="3.148033"><ele>29.5</ele></trkpt>
   <trkpt lat="36.717028" lon="3.147645"><ele>27</ele></trkpt>
   <trkpt lat="36.716736" lon="3.147132"><ele>26.75</ele></trkpt>
   <trkpt lat="36.71667" lon="3.146916"><ele>26.75</ele></trkpt>
   <trkpt lat="36.716634" lon="3.145384"><ele>23</ele></trkpt>
   <trkpt lat="36.716622" lon="3.14441"><ele>20</ele></trkpt>
   <trkpt lat="36.71667" lon="3.144135"><ele>19.5</ele></trkpt>
   <trkpt lat="36.716921" lon="3.143572"><ele>17.75</ele></trkpt>
   <trkpt lat="36.71673" lon="3.143426"><ele>17</ele></trkpt>
   <trkpt lat="36.716551" lon="3.143387"><ele>17</ele></trkpt>
   <trkpt lat="36.716296" lon="3.143407"><ele>17</ele></trkpt>
   <trkpt lat="36.716234" lon="3.143425"><ele>17</ele></trkpt>
   <trkpt lat="36.71604" lon="3.143427"><ele>16.25</ele></trkpt>
   <trkpt lat="36.715816" lon="3.143388"><ele>15</ele></trkpt>
   <trkpt lat="36.715258" lon="3.143226"><ele>12.5</ele></trkpt>
   <trkpt lat="36.714935" lon="3.143045"><ele>8</ele></trkpt>
   <trkpt lat="36.714797" lon="3.14289"><ele>8</ele></trkpt>
   <trkpt lat="36.714644" lon="3.142354"><ele>7.25</ele></trkpt>
   <trkpt lat="36.714577" lon="3.142118"><ele>7</ele></trkpt>
   <trkpt lat="36.714583" lon="3.141986"><ele>7</ele></trkpt>
   <trkpt lat="36.714614" lon="3.141395"><ele>6</ele></trkpt>
   <trkpt lat="36.714622" lon="3.141237"><ele>6</ele></trkpt>
   <trkpt lat="36.714624" lon="3.141195"><ele>6</ele></trkpt>
   <trkpt lat="36.714667" lon="3.140573"><ele>6.75</ele></trkpt>
   <trkpt lat="36.714691" lon="3.13993"><ele>7.25</ele></trkpt>
   <trkpt lat="36.714701" lon="3.139735"><ele>7.75</ele></trkpt>
   <trkpt lat="36.71474" lon="3.138983"><ele>7.25</ele></trkpt>
   <trkpt lat="36.714758" lon="3.138645"><ele>7</ele></trkpt>
   <trkpt lat="36.714772" lon="3.138381"><ele>7</ele></trkpt>
   <trkpt lat="36.714828" lon="3.137417"><ele>7</ele></trkpt>
   <trkpt lat="36.714867" lon="3.136883"><ele>7</ele></trkpt>
   <trkpt lat="36.714718" lon="3.136796"><ele>7</ele></trkpt>
   <trkpt lat="36.714561" lon="3.136736"><ele>7</ele></trkpt>
   <trkpt lat="36.714467" lon="3.136452"><ele>5.25</ele></trkpt>
   <trkpt lat="36.714384" lon="3.136143"><ele>6</ele></trkpt>
   <trkpt lat="36.714373" lon="3.135967"><ele>6.25</ele></trkpt>
   <trkpt lat="36.71438" lon="3.135829"><ele>6</ele></trkpt>
   <trkpt lat="36.714398" lon="3.135771"><ele>5.75</ele></trkpt>
   <trkpt lat="36.714426" lon="3.135719"><ele>5.5</ele></trkpt>
   <trkpt lat="36.714463" lon="3.135677"><ele>5.5</ele></trkpt>
   <trkpt lat="36.714507" lon="3.135648"><ele>5.5</ele></trkpt>
   <trkpt lat="36.715044" lon="3.135476"><ele>5.5</ele></trkpt>
   <trkpt lat="36.715313" lon="3.135377"><ele>4</ele></trkpt>
   <trkpt lat="36.715413" lon="3.135308"><ele>4</ele></trkpt>
   <trkpt lat="36.715458" lon="3.135262"><ele>4</ele></trkpt>
   <trkpt lat="36.715531" lon="3.135151"><ele>4</ele></trkpt>
   <trkpt lat="36.715558" lon="3.135088"><ele>4</ele></trkpt>
   <trkpt lat="36.715268" lon="3.134801"><ele>4.5</ele></trkpt>
   <trkpt lat="36.71507" lon="3.134638"><ele>4.25</ele></trkpt>
   <trkpt lat="36.714905" lon="3.134513"><ele>4</ele></trkpt>
   <trkpt lat="36.714378" lon="3.1342"><ele>5</ele></trkpt>
   <trkpt lat="36.714239" lon="3.134083"><ele>7.5</ele></trkpt>
   <trkpt lat="36.714073" lon="3.133894"><ele>8</ele></trkpt>
   <trkpt lat="36.713884" lon="3.133517"><ele>8</ele></trkpt>
   <trkpt lat="36.713836" lon="3.133381"><ele>8</ele></trkpt>
   <trkpt lat="36.713793" lon="3.133154"><ele>7.25</ele></trkpt>
   <trkpt lat="36.713749" lon="3.132865"><ele>7</ele></trkpt>
   <trkpt lat="36.713687" lon="3.132374"><ele>5.5</ele></trkpt>
   <trkpt lat="36.713665" lon="3.132058"><ele>4</ele></trkpt>
   <trkpt lat="36.71367" lon="3.131512"><ele>2.75</ele></trkpt>
   <trkpt lat="36.713667" lon="3.131274"><ele>2</ele></trkpt>
   <trkpt lat="36.713662" lon="3.131231"><ele>1.75</ele></trkpt>
   <trkpt lat="36.713651" lon="3.131188"><ele>2</ele></trkpt>
   <trkpt lat="36.7136" lon="3.131079"><ele>2</ele></trkpt>
   <trkpt lat="36.71356" lon="3.130967"><ele>3</ele></trkpt>
   <trkpt lat="36.713555" lon="3.130887"><ele>3</ele></trkpt>
   <trkpt lat="36.714912" lon="3.131391"><ele>9.75</ele></trkpt>
   <trkpt lat="36.714948" lon="3.131403"><ele>9.75</ele></trkpt>
   <trkpt lat="36.715069" lon="3.131393"><ele>10</ele></trkpt>
   <trkpt lat="36.71505" lon="3.131338"><ele>10</ele></trkpt>
   <trkpt lat="36.715045" lon="3.131219"><ele>10</ele></trkpt>
   <trkpt lat="36.71513" lon="3.129767"><ele>16</ele></trkpt>
   <trkpt lat="36.715131" lon="3.129601"><ele>16.5</ele></trkpt>
   <trkpt lat="36.715118" lon="3.129443"><ele>16</ele></trkpt>
   <trkpt lat="36.715084" lon="3.129271"><ele>14.5</ele></trkpt>
   <trkpt lat="36.715009" lon="3.129058"><ele>11.25</ele></trkpt>
   <trkpt lat="36.714725" lon="3.128354"><ele>11</ele></trkpt>
   <trkpt lat="36.715241" lon="3.127985"><ele>14.25</ele></trkpt>
   <trkpt lat="36.715222" lon="3.127832"><ele>13.75</ele></trkpt>
   <trkpt lat="36.715323" lon="3.126976"><ele>12</ele></trkpt>
   <trkpt lat="36.715216" lon="3.12665"><ele>11.75</ele></trkpt>
   <trkpt lat="36.715065" lon="3.126347"><ele>11.25</ele></trkpt>
   <trkpt lat="36.714921" lon="3.126123"><ele>11</ele></trkpt>
   <trkpt lat="36.714678" lon="3.125504"><ele>17</ele></trkpt>
   <trkpt lat="36.714527" lon="3.124905"><ele>17.5</ele></trkpt>
   <trkpt lat="36.714452" lon="3.124613"><ele>19</ele></trkpt>
   <trkpt lat="36.714402" lon="3.123774"><ele>23.75</ele></trkpt>
   <trkpt lat="36.714301" lon="3.12265"><ele>26</ele></trkpt>
   <trkpt lat="36.714203" lon="3.121609"><ele>29.5</ele></trkpt>
   <trkpt lat="36.714141" lon="3.120844"><ele>33</ele></trkpt>
   <trkpt lat="36.714105" lon="3.120584"><ele>33</ele></trkpt>
   <trkpt lat="36.714098" lon="3.120222"><ele>33</ele></trkpt>
   <trkpt lat="36.714057" lon="3.119731"><ele>35.75</ele></trkpt>
   <trkpt lat="36.714053" lon="3.119677"><ele>36</ele></trkpt>
   <trkpt lat="36.714009" lon="3.119132"><ele>36.5</ele></trkpt>
   <trkpt lat="36.713983" lon="3.118765"><ele>42</ele></trkpt>
   <trkpt lat="36.713912" lon="3.117951"><ele>44</ele></trkpt>
   <trkpt lat="36.713904" lon="3.117861"><ele>44</ele></trkpt>
   <trkpt lat="36.713819" lon="3.11685"><ele>48</ele></trkpt>
   <trkpt lat="36.713772" lon="3.116481"><ele>47.25</ele></trkpt>
   <trkpt lat="36.71371" lon="3.116153"><ele>47</ele></trkpt>
   <trkpt lat="36.713563" lon="3.115568"><ele>44.75</ele></trkpt>
   <trkpt lat="36.713156" lon="3.114244"><ele>45</ele></trkpt>
   <trkpt lat="36.713121" lon="3.114027"><ele>46</ele></trkpt>
   <trkpt lat="36.713128" lon="3.113864"><ele>47</ele></trkpt>
   <trkpt lat="36.713195" lon="3.113682"><ele>47</ele></trkpt>
   <trkpt lat="36.713477" lon="3.113036"><ele>47.75</ele></trkpt>
   <trkpt lat="36.713589" lon="3.112818"><ele>46.25</ele></trkpt>
   <trkpt lat="36.713632" lon="3.112735"><ele>46</ele></trkpt>
   <trkpt lat="36.71371" lon="3.112688"><ele>46</ele></trkpt>
   <trkpt lat="36.713796" lon="3.112672"><ele>46</ele></trkpt>
   <trkpt lat="36.713827" lon="3.112663"><ele>46</ele></trkpt>
   <trkpt lat="36.713845" lon="3.11265"><ele>46</ele></trkpt>
   <trkpt lat="36.71387" lon="3.11261"><ele>46</ele></trkpt>
   <trkpt lat="36.713876" lon="3.112585"><ele>46</ele></trkpt>
   <trkpt lat="36.713872" lon="3.112535"><ele>46</ele></trkpt>
   <trkpt lat="36.71386" lon="3.112507"><ele>46</ele></trkpt>
   <trkpt lat="36.713842" lon="3.112485"><ele>46</ele></trkpt>
   <trkpt lat="36.71383" lon="3.112406"><ele>46.5</ele></trkpt>
   <trkpt lat="36.713833" lon="3.112327"><ele>47</ele></trkpt>
   <trkpt lat="36.714091" lon="3.111851"><ele>48</ele></trkpt>
   <trkpt lat="36.713588" lon="3.111349"><ele>50</ele></trkpt>
   <trkpt lat="36.713917" lon="3.110198"><ele>52</ele></trkpt>
   <trkpt lat="36.713967" lon="3.110063"><ele>52</ele></trkpt>
   <trkpt lat="36.714022" lon="3.109961"><ele>52.25</ele></trkpt>
   <trkpt lat="36.714149" lon="3.109752"><ele>53.75</ele></trkpt>
   <trkpt lat="36.714344" lon="3.109489"><ele>54.5</ele></trkpt>
   <trkpt lat="36.714512" lon="3.109299"><ele>55</ele></trkpt>
   <trkpt lat="36.714629" lon="3.10915"><ele>54.75</ele></trkpt>
   <trkpt lat="36.714881" lon="3.108867"><ele>53</ele></trkpt>
   <trkpt lat="36.715374" lon="3.108239"><ele>52.25</ele></trkpt>
   <trkpt lat="36.715327" lon="3.10782"><ele>53</ele></trkpt>
   <trkpt lat="36.715308" lon="3.107663"><ele>52.75</ele></trkpt>
   <trkpt lat="36.715239" lon="3.107056"><ele>55</ele></trkpt>
   <trkpt lat="36.715048" lon="3.105628"><ele>57.5</ele></trkpt>
   <trkpt lat="36.714994" lon="3.105359"><ele>58</ele></trkpt>
   <trkpt lat="36.714915" lon="3.105136"><ele>58</ele></trkpt>
   <trkpt lat="36.714772" lon="3.104763"><ele>56.25</ele></trkpt>
   <trkpt lat="36.71463" lon="3.104426"><ele>56</ele></trkpt>
   <trkpt lat="36.714338" lon="3.103686"><ele>57.75</ele></trkpt>
   <trkpt lat="36.714153" lon="3.103236"><ele>56.5</ele></trkpt>
   <trkpt lat="36.714101" lon="3.103073"><ele>57.75</ele></trkpt>
   <trkpt lat="36.714048" lon="3.102911"><ele>58</ele></trkpt>
   <trkpt lat="36.713999" lon="3.102724"><ele>58</ele></trkpt>
   <trkpt lat="36.713969" lon="3.102512"><ele>58</ele></trkpt>
   <trkpt lat="36.713965" lon="3.10234"><ele>56.75</ele></trkpt>
   <trkpt lat="36.713953" lon="3.102176"><ele>56</ele></trkpt>
   <trkpt lat="36.713987" lon="3.102006"><ele>56</ele></trkpt>
   <trkpt lat="36.714" lon="3.101884"><ele>56</ele></trkpt>
   <trkpt lat="36.714059" lon="3.101204"><ele>56</ele></trkpt>
   <trkpt lat="36.714079" lon="3.100759"><ele>56</ele></trkpt>
   <trkpt lat="36.714076" lon="3.100401"><ele>56</ele></trkpt>
   <trkpt lat="36.714075" lon="3.100288"><ele>56</ele></trkpt>
   <trkpt lat="36.714062" lon="3.099938"><ele>56.75</ele></trkpt>
   <trkpt lat="36.714048" lon="3.09977"><ele>59.25</ele></trkpt>
   <trkpt lat="36.714014" lon="3.099578"><ele>60</ele></trkpt>
   <trkpt lat="36.713984" lon="3.099504"><ele>60</ele></trkpt>
   <trkpt lat="36.713968" lon="3.099376"><ele>60</ele></trkpt>
   <trkpt lat="36.713949" lon="3.099004"><ele>61.75</ele></trkpt>
   <trkpt lat="36.713943" lon="3.098426"><ele>62.75</ele></trkpt>
   <trkpt lat="36.71394" lon="3.098113"><ele>63</ele></trkpt>
   <trkpt lat="36.713962" lon="3.097199"><ele>65</ele></trkpt>
   <trkpt lat="36.713969" lon="3.096238"><ele>66</ele></trkpt>
   <trkpt lat="36.713967" lon="3.095497"><ele>66</ele></trkpt>
   <trkpt lat="36.713943" lon="3.094871"><ele>65.5</ele></trkpt>
   <trkpt lat="36.7139" lon="3.09419"><ele>65</ele></trkpt>
   <trkpt lat="36.713857" lon="3.093537"><ele>63</ele></trkpt>
   <trkpt lat="36.713838" lon="3.093231"><ele>63</ele></trkpt>
   <trkpt lat="36.712762" lon="3.093509"><ele>59.75</ele></trkpt>
   <trkpt lat="36.712083" lon="3.093711"><ele>59</ele></trkpt>
   <trkpt lat="36.711664" lon="3.093819"><ele>63</ele></trkpt>
   <trkpt lat="36.711635" lon="3.093722"><ele>63</ele></trkpt>
   <trkpt lat="36.711604" lon="3.093607"><ele>63</ele></trkpt>
   <trkpt lat="36.711541" lon="3.093143"><ele>63.5</ele></trkpt>
   <trkpt lat="36.711531" lon="3.093006"><ele>64</ele></trkpt>
   <trkpt lat="36.711536" lon="3.092859"><ele>64</ele></trkpt>
   <trkpt lat="36.711539" lon="3.09274"><ele>64</ele></trkpt>
   <trkpt lat="36.711583" lon="3.092496"><ele>63.75</ele></trkpt>
   <trkpt lat="36.711692" lon="3.092122"><ele>60</ele></trkpt>
   <trkpt lat="36.711736" lon="3.091951"><ele>60</ele></trkpt>
   <trkpt lat="36.711759" lon="3.091817"><ele>60.25</ele></trkpt>
   <trkpt lat="36.711774" lon="3.091729"><ele>60.25</ele></trkpt>
   <trkpt lat="36.711776" lon="3.091604"><ele>59.5</ele></trkpt>
   <trkpt lat="36.711765" lon="3.091433"><ele>57.25</ele></trkpt>
   <trkpt lat="36.711763" lon="3.091389"><ele>56.5</ele></trkpt>
   <trkpt lat="36.711757" lon="3.091296"><ele>56.5</ele></trkpt>
   <trkpt lat="36.711739" lon="3.091198"><ele>56.25</ele></trkpt>
   <trkpt lat="36.711671" lon="3.091017"><ele>55</ele></trkpt>
   <trkpt lat="36.71151" lon="3.09065"><ele>57.5</ele></trkpt>
   <trkpt lat="36.711183" lon="3.089967"><ele>59.75</ele></trkpt>
   <trkpt lat="36.711164" lon="3.089938"><ele>60.75</ele></trkpt>
   <trkpt lat="36.711096" lon="3.089886"><ele>62.25</ele></trkpt>
   <trkpt lat="36.711074" lon="3.089845"><ele>63.5</ele></trkpt>
   <trkpt lat="36.710856" lon="3.089417"><ele>67</ele></trkpt>
   <trkpt lat="36.710805" lon="3.089312"><ele>67</ele></trkpt>
   <trkpt lat="36.710598" lon="3.088875"><ele>67</ele></trkpt>
   <trkpt lat="36.710534" lon="3.088625"><ele>67</ele></trkpt>
   <trkpt lat="36.710012" lon="3.087568"><ele>61</ele></trkpt>
   <trkpt lat="36.7097" lon="3.08691"><ele>60</ele></trkpt>
   <trkpt lat="36.709261" lon="3.085973"><ele>56.25</ele></trkpt>
   <trkpt lat="36.709113" lon="3.085664"><ele>57.5</ele></trkpt>
   <trkpt lat="36.708498" lon="3.084352"><ele>63.25</ele></trkpt>
   <trkpt lat="36.707971" lon="3.083228"><ele>66.5</ele></trkpt>
   <trkpt lat="36.707717" lon="3.082668"><ele>68.5</ele></trkpt>
   <trkpt lat="36.707655" lon="3.082538"><ele>68</ele></trkpt>
   <trkpt lat="36.707485" lon="3.082171"><ele>71</ele></trkpt>
   <trkpt lat="36.707355" lon="3.081867"><ele>71</ele></trkpt>
   <trkpt lat="36.70688" lon="3.080865"><ele>74</ele></trkpt>
   <trkpt lat="36.706104" lon="3.079282"><ele>77</ele></trkpt>
   <trkpt lat="36.705167" lon="3.077311"><ele>77</ele></trkpt>
   <trkpt lat="36.704688" lon="3.076294"><ele>77</ele></trkpt>
   <trkpt lat="36.704652" lon="3.0762"><ele>77</ele></trkpt>
   <trkpt lat="36.704639" lon="3.076119"><ele>77</ele></trkpt>
   <trkpt lat="36.704649" lon="3.076057"><ele>77</ele></trkpt>
   <trkpt lat="36.704641" lon="3.076021"><ele>77</ele></trkpt>
   <trkpt lat="36.704623" lon="3.075989"><ele>77</ele></trkpt>
   <trkpt lat="36.704598" lon="3.075968"><ele>77</ele></trkpt>
   <trkpt lat="36.704551" lon="3.075959"><ele>77</ele></trkpt>
   <trkpt lat="36.704475" lon="3.075866"><ele>77</ele></trkpt>
   <trkpt lat="36.704412" lon="3.075818"><ele>76.5</ele></trkpt>
   <trkpt lat="36.704133" lon="3.075241"><ele>75</ele></trkpt>
   <trkpt lat="36.703979" lon="3.074907"><ele>75.5</ele></trkpt>
   <trkpt lat="36.703801" lon="3.074536"><ele>77</ele></trkpt>
   <trkpt lat="36.703342" lon="3.073599"><ele>78.75</ele></trkpt>
   <trkpt lat="36.703283" lon="3.073502"><ele>79</ele></trkpt>
   <trkpt lat="36.703217" lon="3.073423"><ele>79</ele></trkpt>
   <trkpt lat="36.703141" lon="3.073354"><ele>79</ele></trkpt>
   <trkpt lat="36.70315" lon="3.073245"><ele>79.5</ele></trkpt>
   <trkpt lat="36.702848" lon="3.072661"><ele>81</ele></trkpt>
   <trkpt lat="36.702526" lon="3.072025"><ele>83.75</ele></trkpt>
   <trkpt lat="36.703222" lon="3.071514"><ele>84</ele></trkpt>
   <trkpt lat="36.703261" lon="3.071518"><ele>84</ele></trkpt>
   <trkpt lat="36.703292" lon="3.071507"><ele>84</ele></trkpt>
   <trkpt lat="36.703318" lon="3.071484"><ele>84.25</ele></trkpt>
   <trkpt lat="36.703336" lon="3.071451"><ele>84.5</ele></trkpt>
   <trkpt lat="36.703344" lon="3.071413"><ele>84.75</ele></trkpt>
   <trkpt lat="36.703336" lon="3.071353"><ele>84.75</ele></trkpt>
   <trkpt lat="36.703322" lon="3.071327"><ele>85</ele></trkpt>
   <trkpt lat="36.703442" lon="3.071241"><ele>84</ele></trkpt>
   <trkpt lat="36.703211" lon="3.070618"><ele>84</ele></trkpt>
   <trkpt lat="36.702951" lon="3.070011"><ele>84</ele></trkpt>
   <trkpt lat="36.70284" lon="3.069685"><ele>84</ele></trkpt>
   <trkpt lat="36.702756" lon="3.069055"><ele>84</ele></trkpt>
   <trkpt lat="36.702736" lon="3.068836"><ele>84</ele></trkpt>
   <trkpt lat="36.70273" lon="3.0688"><ele>84</ele></trkpt>
   <trkpt lat="36.702709" lon="3.068744"><ele>84</ele></trkpt>
   <trkpt lat="36.702727" lon="3.068718"><ele>84</ele></trkpt>
   <trkpt lat="36.702748" lon="3.068655"><ele>84</ele></trkpt>
   <trkpt lat="36.702745" lon="3.068587"><ele>84</ele></trkpt>
   <trkpt lat="36.702854" lon="3.068532"><ele>84</ele></trkpt>
   <trkpt lat="36.702974" lon="3.068419"><ele>84</ele></trkpt>
   <trkpt lat="36.703353" lon="3.067996"><ele>82.75</ele></trkpt>
   <trkpt lat="36.70369" lon="3.067602"><ele>68</ele></trkpt>
   <trkpt lat="36.703779" lon="3.067456"><ele>68.5</ele></trkpt>
   <trkpt lat="36.703834" lon="3.067258"><ele>71.25</ele></trkpt>
   <trkpt lat="36.703834" lon="3.067112"><ele>72</ele></trkpt>
   <trkpt lat="36.703786" lon="3.066984"><ele>72</ele></trkpt>
   <trkpt lat="36.703639" lon="3.066858"><ele>71.75</ele></trkpt>
   <trkpt lat="36.704121" lon="3.065918"><ele>71</ele></trkpt>
   <trkpt lat="36.704443" lon="3.065307"><ele>67</ele></trkpt>
   <trkpt lat="36.704529" lon="3.065148"><ele>67</ele></trkpt>
   <trkpt lat="36.70468" lon="3.064943"><ele>67.25</ele></trkpt>
   <trkpt lat="36.704806" lon="3.064794"><ele>68.25</ele></trkpt>
   <trkpt lat="36.70486" lon="3.064742"><ele>68.75</ele></trkpt>
   <trkpt lat="36.7051" lon="3.064562"><ele>69.25</ele></trkpt>
   <trkpt lat="36.705249" lon="3.064521"><ele>69.75</ele></trkpt>
   <trkpt lat="36.705216" lon="3.064264"><ele>69.75</ele></trkpt>
   <trkpt lat="36.705199" lon="3.064203"><ele>69.5</ele></trkpt>
   <trkpt lat="36.705174" lon="3.064152"><ele>69.5</ele></trkpt>
   <trkpt lat="36.705171" lon="3.064044"><ele>69.25</ele></trkpt>
   <trkpt lat="36.70518" lon="3.063936"><ele>69.25</ele></trkpt>
   <trkpt lat="36.705201" lon="3.063831"><ele>69.25</ele></trkpt>
   <trkpt lat="36.705234" lon="3.06373"><ele>69.5</ele></trkpt>
   <trkpt lat="36.705278" lon="3.063636"><ele>70</ele></trkpt>
   <trkpt lat="36.705332" lon="3.063551"><ele>70</ele></trkpt>
   <trkpt lat="36.705374" lon="3.063501"><ele>70</ele></trkpt>
   <trkpt lat="36.70585" lon="3.06301"><ele>70</ele></trkpt>
   <trkpt lat="36.705893" lon="3.062965"><ele>70</ele></trkpt>
   <trkpt lat="36.706015" lon="3.06259"><ele>70</ele></trkpt>
   <trkpt lat="36.706257" lon="3.062458"><ele>70.25</ele></trkpt>
   <trkpt lat="36.706313" lon="3.0624"><ele>70.5</ele></trkpt>
   <trkpt lat="36.706517" lon="3.062058"><ele>72</ele></trkpt>
   <trkpt lat="36.706749" lon="3.061836"><ele>71.5</ele></trkpt>
   <trkpt lat="36.707425" lon="3.06134"><ele>75</ele></trkpt>
   <trkpt lat="36.707567" lon="3.061175"><ele>75</ele></trkpt>
   <trkpt lat="36.707787" lon="3.060762"><ele>75</ele></trkpt>
   <trkpt lat="36.708047" lon="3.060112"><ele>75</ele></trkpt>
   <trkpt lat="36.708193" lon="3.059766"><ele>77.5</ele></trkpt>
   <trkpt lat="36.708349" lon="3.059542"><ele>78</ele></trkpt>
   <trkpt lat="36.708701" lon="3.059208"><ele>78</ele></trkpt>
   <trkpt lat="36.709006" lon="3.058913"><ele>80.5</ele></trkpt>
   <trkpt lat="36.709522" lon="3.058525"><ele>81</ele></trkpt>
   <trkpt lat="36.709826" lon="3.058232"><ele>81.5</ele></trkpt>
   <trkpt lat="36.709905" lon="3.058114"><ele>82.5</ele></trkpt>
   <trkpt lat="36.7102" lon="3.057652"><ele>82.25</ele></trkpt>
   <trkpt lat="36.710314" lon="3.057445"><ele>81.75</ele></trkpt>
   <trkpt lat="36.710419" lon="3.057182"><ele>81</ele></trkpt>
   <trkpt lat="36.710733" lon="3.056354"><ele>86</ele></trkpt>
   <trkpt lat="36.711247" lon="3.055377"><ele>86</ele></trkpt>
   <trkpt lat="36.711464" lon="3.054943"><ele>86.5</ele></trkpt>
   <trkpt lat="36.711619" lon="3.054489"><ele>89</ele></trkpt>
   <trkpt lat="36.711723" lon="3.054154"><ele>90</ele></trkpt>
   <trkpt lat="36.711797" lon="3.053979"><ele>90.25</ele></trkpt>
   <trkpt lat="36.711919" lon="3.053777"><ele>89</ele></trkpt>
   <trkpt lat="36.71212" lon="3.053532"><ele>89</ele></trkpt>
   <trkpt lat="36.712437" lon="3.05328"><ele>89.5</ele></trkpt>
   <trkpt lat="36.712555" lon="3.053201"><ele>90</ele></trkpt>
   <trkpt lat="36.712596" lon="3.052832"><ele>90.75</ele></trkpt>
   <trkpt lat="36.71316" lon="3.05239"><ele>90.75</ele></trkpt>
   <trkpt lat="36.713299" lon="3.052218"><ele>94</ele></trkpt>
   <trkpt lat="36.713554" lon="3.051839"><ele>90.75</ele></trkpt>
   <trkpt lat="36.713771" lon="3.051545"><ele>91.75</ele></trkpt>
   <trkpt lat="36.713207" lon="3.051098"><ele>100</ele></trkpt>
   <trkpt lat="36.713538" lon="3.050486"><ele>98.25</ele></trkpt>
   <trkpt lat="36.713565" lon="3.050398"><ele>97.25</ele></trkpt>
   <trkpt lat="36.713617" lon="3.050281"><ele>96</ele></trkpt>
   <trkpt lat="36.71374" lon="3.050039"><ele>96</ele></trkpt>
   <trkpt lat="36.713858" lon="3.049844"><ele>97</ele></trkpt>
   <trkpt lat="36.714103" lon="3.049354"><ele>98</ele></trkpt>
   <trkpt lat="36.71456" lon="3.049657"><ele>95</ele></trkpt>
   <trkpt lat="36.714855" lon="3.049855"><ele>94.5</ele></trkpt>
   <trkpt lat="36.715135" lon="3.049199"><ele>95.75</ele></trkpt>
   <trkpt lat="36.715188" lon="3.049238"><ele>96.25</ele></trkpt>
   <trkpt lat="36.715522" lon="3.048497"><ele>99</ele></trkpt>
   <trkpt lat="36.71564" lon="3.048169"><ele>99.5</ele></trkpt>
   <trkpt lat="36.715818" lon="3.047644"><ele>100</ele></trkpt>
   <trkpt lat="36.715969" lon="3.047102"><ele>105.25</ele></trkpt>
   <trkpt lat="36.716156" lon="3.046534"><ele>108.5</ele></trkpt>
   <trkpt lat="36.716269" lon="3.046307"><ele>105</ele></trkpt>
   <trkpt lat="36.716409" lon="3.046137"><ele>104.75</ele></trkpt>
   <trkpt lat="36.716717" lon="3.045839"><ele>106.75</ele></trkpt>
   <trkpt lat="36.717613" lon="3.045496"><ele>106.25</ele></trkpt>
   <trkpt lat="36.71831" lon="3.045207"><ele>110</ele></trkpt>
   <trkpt lat="36.718715" lon="3.045044"><ele>116</ele></trkpt>
   <trkpt lat="36.719058" lon="3.044959"><ele>115.5</ele></trkpt>
   <trkpt lat="36.719135" lon="3.044941"><ele>115.25</ele></trkpt>
   <trkpt lat="36.719568" lon="3.044726"><ele>113</ele></trkpt>
   <trkpt lat="36.71967" lon="3.044659"><ele>113</ele></trkpt>
   <trkpt lat="36.719192" lon="3.044261"><ele>113</ele></trkpt>
   <trkpt lat="36.719114" lon="3.044194"><ele>113</ele></trkpt>
   <trkpt lat="36.71888" lon="3.044022"><ele>113.5</ele></trkpt>
   <trkpt lat="36.718794" lon="3.043989"><ele>113.5</ele></trkpt>
   <trkpt lat="36.718932" lon="3.043577"><ele>114</ele></trkpt>
   <trkpt lat="36.719199" lon="3.042429"><ele>125.75</ele></trkpt>
   <trkpt lat="36.719189" lon="3.042393"><ele>127.75</ele></trkpt>
   <trkpt lat="36.719214" lon="3.042337"><ele>130.25</ele></trkpt>
   <trkpt lat="36.719287" lon="3.042271"><ele>133.25</ele></trkpt>
   <trkpt lat="36.720502" lon="3.041608"><ele>137</ele></trkpt>
   <trkpt lat="36.721262" lon="3.041272"><ele>140</ele></trkpt>
   <trkpt lat="36.721135" lon="3.040913"><ele>140</ele></trkpt>
   <trkpt lat="36.720983" lon="3.040498"><ele>142</ele></trkpt>
   <trkpt lat="36.721678" lon="3.039979"><ele>144.75</ele></trkpt>
   <trkpt lat="36.721945" lon="3.039856"><ele>142.5</ele></trkpt>
   <trkpt lat="36.722018" lon="3.039802"><ele>143</ele></trkpt>
   <trkpt lat="36.722072" lon="3.039719"><ele>144</ele></trkpt>
   <trkpt lat="36.722106" lon="3.039644"><ele>144</ele></trkpt>
   <trkpt lat="36.722202" lon="3.039436"><ele>144</ele></trkpt>
   <trkpt lat="36.722223" lon="3.039369"><ele>143.75</ele></trkpt>
   <trkpt lat="36.722332" lon="3.03903"><ele>146.75</ele></trkpt>
   <trkpt lat="36.722478" lon="3.038546"><ele>150</ele></trkpt>
   <trkpt lat="36.722118" lon="3.038377"><ele>150</ele></trkpt>
   <trkpt lat="36.722036" lon="3.038118"><ele>153.75</ele></trkpt>
   <trkpt lat="36.721943" lon="3.037899"><ele>154.75</ele></trkpt>
   <trkpt lat="36.722004" lon="3.037869"><ele>155</ele></trkpt>
   <trkpt lat="36.722088" lon="3.037763"><ele>155</ele></trkpt>
   <trkpt lat="36.722206" lon="3.037565"><ele>155</ele></trkpt>
   <trkpt lat="36.722284" lon="3.0374"><ele>156</ele></trkpt>
   <trkpt lat="36.722532" lon="3.036916"><ele>158</ele></trkpt>
   <trkpt lat="36.722594" lon="3.036831"><ele>158.25</ele></trkpt>
   <trkpt lat="36.722563" lon="3.036739"><ele>158</ele></trkpt>
   <trkpt lat="36.722489" lon="3.036321"><ele>157</ele></trkpt>
   <trkpt lat="36.722477" lon="3.036202"><ele>157</ele></trkpt>
   <trkpt lat="36.722488" lon="3.036103"><ele>157</ele></trkpt>
   <trkpt lat="36.722614" lon="3.035719"><ele>156</ele></trkpt>
   <trkpt lat="36.722622" lon="3.035624"><ele>154.5</ele></trkpt>
   <trkpt lat="36.7226" lon="3.035543"><ele>153</ele></trkpt>
   <trkpt lat="36.722554" lon="3.035467"><ele>152</ele></trkpt>
   <trkpt lat="36.722388" lon="3.035324"><ele>151</ele></trkpt>
   <trkpt lat="36.722281" lon="3.035251"><ele>151</ele></trkpt>
   <trkpt lat="36.721947" lon="3.034772"><ele>150</ele></trkpt>
   <trkpt lat="36.72131" lon="3.033821"><ele>146</ele></trkpt>
   <trkpt lat="36.72087" lon="3.033131"><ele>143.5</ele></trkpt>
   <trkpt lat="36.72071" lon="3.032967"><ele>147</ele></trkpt>
   <trkpt lat="36.720582" lon="3.032775"><ele>147</ele></trkpt>
   <trkpt lat="36.720489" lon="3.032606"><ele>147</ele></trkpt>
   <trkpt lat="36.72043" lon="3.032433"><ele>148.5</ele></trkpt>
   <trkpt lat="36.720415" lon="3.032201"><ele>154</ele></trkpt>
   <trkpt lat="36.720417" lon="3.032042"><ele>154</ele></trkpt>
   <trkpt lat="36.720445" lon="3.031792"><ele>154</ele></trkpt>
   <trkpt lat="36.720424" lon="3.031637"><ele>153.75</ele></trkpt>
   <trkpt lat="36.720297" lon="3.031388"><ele>153</ele></trkpt>
   <trkpt lat="36.720245" lon="3.031248"><ele>152.25</ele></trkpt>
   <trkpt lat="36.720172" lon="3.031162"><ele>151</ele></trkpt>
   <trkpt lat="36.720102" lon="3.031062"><ele>149.75</ele></trkpt>
   <trkpt lat="36.719859" lon="3.030635"><ele>146.5</ele></trkpt>
   <trkpt lat="36.719706" lon="3.030372"><ele>146</ele></trkpt>
   <trkpt lat="36.71963" lon="3.03035"><ele>146</ele></trkpt>
   <trkpt lat="36.71955" lon="3.030292"><ele>146</ele></trkpt>
   <trkpt lat="36.71964" lon="3.029941"><ele>145.25</ele></trkpt>
   <trkpt lat="36.719686" lon="3.02967"><ele>143</ele></trkpt>
   <trkpt lat="36.719718" lon="3.029438"><ele>143</ele></trkpt>
   <trkpt lat="36.719722" lon="3.02924"><ele>143</ele></trkpt>
   <trkpt lat="36.719703" lon="3.02899"><ele>141</ele></trkpt>
   <trkpt lat="36.719608" lon="3.028447"><ele>140</ele></trkpt>
   <trkpt lat="36.719596" lon="3.028207"><ele>134</ele></trkpt>
   <trkpt lat="36.719625" lon="3.027972"><ele>127</ele></trkpt>
   <trkpt lat="36.719745" lon="3.027781"><ele>127</ele></trkpt>
   <trkpt lat="36.719845" lon="3.027663"><ele>127</ele></trkpt>
   <trkpt lat="36.720093" lon="3.027479"><ele>126.5</ele></trkpt>
   <trkpt lat="36.720359" lon="3.027395"><ele>124</ele></trkpt>
   <trkpt lat="36.720593" lon="3.027267"><ele>118</ele></trkpt>
   <trkpt lat="36.720702" lon="3.027246"><ele>117</ele></trkpt>
   <trkpt lat="36.720821" lon="3.027195"><ele>116</ele></trkpt>
   <trkpt lat="36.721217" lon="3.027052"><ele>123</ele></trkpt>
   <trkpt lat="36.721275" lon="3.027032"><ele>123</ele></trkpt>
   <trkpt lat="36.721388" lon="3.026942"><ele>123</ele></trkpt>
   <trkpt lat="36.721479" lon="3.026813"><ele>123</ele></trkpt>
   <trkpt lat="36.721504" lon="3.026645"><ele>122.5</ele></trkpt>
   <trkpt lat="36.7214" lon="3.026308"><ele>119</ele></trkpt>
   <trkpt lat="36.721352" lon="3.02606"><ele>119</ele></trkpt>
   <trkpt lat="36.721367" lon="3.025804"><ele>119.5</ele></trkpt>
   <trkpt lat="36.721398" lon="3.025624"><ele>122.75</ele></trkpt>
   <trkpt lat="36.721495" lon="3.025427"><ele>124</ele></trkpt>
   <trkpt lat="36.721619" lon="3.025281"><ele>124</ele></trkpt>
   <trkpt lat="36.721825" lon="3.025092"><ele>121</ele></trkpt>
   <trkpt lat="36.722174" lon="3.024839"><ele>123</ele></trkpt>
   <trkpt lat="36.722338" lon="3.024666"><ele>126</ele></trkpt>
   <trkpt lat="36.722501" lon="3.024431"><ele>125.75</ele></trkpt>
   <trkpt lat="36.722668" lon="3.024135"><ele>122.75</ele></trkpt>
   <trkpt lat="36.722778" lon="3.023855"><ele>127</ele></trkpt>
   <trkpt lat="36.722825" lon="3.023631"><ele>126.75</ele></trkpt>
   <trkpt lat="36.722859" lon="3.023296"><ele>128.75</ele></trkpt>
   <trkpt lat="36.722876" lon="3.022806"><ele>141</ele></trkpt>
   <trkpt lat="36.72283" lon="3.022719"><ele>141</ele></trkpt>
   <trkpt lat="36.722899" lon="3.022699"><ele>141</ele></trkpt>
   <trkpt lat="36.722976" lon="3.022157"><ele>150</ele></trkpt>
   <trkpt lat="36.72297" lon="3.02208"><ele>150</ele></trkpt>
   <trkpt lat="36.722909" lon="3.021788"><ele>150</ele></trkpt>
   <trkpt lat="36.722878" lon="3.021535"><ele>153.25</ele></trkpt>
   <trkpt lat="36.722737" lon="3.021505"><ele>153.5</ele></trkpt>
   <trkpt lat="36.721966" lon="3.021228"><ele>154</ele></trkpt>
   <trkpt lat="36.721959" lon="3.021199"><ele>154</ele></trkpt>
   <trkpt lat="36.72197" lon="3.021056"><ele>154</ele></trkpt>
   <trkpt lat="36.721942" lon="3.021042"><ele>154</ele></trkpt>
   <trkpt lat="36.721635" lon="3.020953"><ele>163</ele></trkpt>
   <trkpt lat="36.721386" lon="3.020911"><ele>163</ele></trkpt>
   <trkpt lat="36.721365" lon="3.020874"><ele>163</ele></trkpt>
   <trkpt lat="36.721413" lon="3.020492"><ele>170</ele></trkpt>
   <trkpt lat="36.721424" lon="3.020409"><ele>170</ele></trkpt>
   <trkpt lat="36.721492" lon="3.020232"><ele>170</ele></trkpt>
   <trkpt lat="36.721617" lon="3.020011"><ele>169.75</ele></trkpt>
   <trkpt lat="36.721731" lon="3.019779"><ele>172</ele></trkpt>
   <trkpt lat="36.721774" lon="3.019666"><ele>171.75</ele></trkpt>
   <trkpt lat="36.721783" lon="3.019507"><ele>171.5</ele></trkpt>
   <trkpt lat="36.721783" lon="3.01919"><ele>171.5</ele></trkpt>
   <trkpt lat="36.721762" lon="3.019069"><ele>173</ele></trkpt>
   <trkpt lat="36.721722" lon="3.018701"><ele>176</ele></trkpt>
   <trkpt lat="36.721734" lon="3.018649"><ele>175.5</ele></trkpt>
   <trkpt lat="36.721735" lon="3.018481"><ele>175.5</ele></trkpt>
   <trkpt lat="36.721746" lon="3.018255"><ele>175.75</ele></trkpt>
   <trkpt lat="36.721729" lon="3.018033"><ele>178</ele></trkpt>
   <trkpt lat="36.72162" lon="3.017894"><ele>180</ele></trkpt>
   <trkpt lat="36.721565" lon="3.017755"><ele>180</ele></trkpt>
   <trkpt lat="36.721512" lon="3.017592"><ele>180</ele></trkpt>
   <trkpt lat="36.721464" lon="3.017408"><ele>181.5</ele></trkpt>
   <trkpt lat="36.721296" lon="3.016623"><ele>185.75</ele></trkpt>
   <trkpt lat="36.721352" lon="3.016611"><ele>186</ele></trkpt>
   <trkpt lat="36.721481" lon="3.016551"><ele>187</ele></trkpt>
   <trkpt lat="36.721578" lon="3.016437"><ele>189</ele></trkpt>
   <trkpt lat="36.721645" lon="3.01629"><ele>190</ele></trkpt>
   <trkpt lat="36.721685" lon="3.016109"><ele>189.75</ele></trkpt>
   <trkpt lat="36.721708" lon="3.015934"><ele>189.75</ele></trkpt>
   <trkpt lat="36.721776" lon="3.015641"><ele>194.5</ele></trkpt>
   <trkpt lat="36.721855" lon="3.015401"><ele>197</ele></trkpt>
   <trkpt lat="36.721983" lon="3.015196"><ele>197</ele></trkpt>
   <trkpt lat="36.722112" lon="3.01491"><ele>197.25</ele></trkpt>
   <trkpt lat="36.72267" lon="3.013735"><ele>200</ele></trkpt>
   <trkpt lat="36.722802" lon="3.013479"><ele>201</ele></trkpt>
   <trkpt lat="36.722919" lon="3.013376"><ele>201</ele></trkpt>
   <trkpt lat="36.723326" lon="3.013202"><ele>200.5</ele></trkpt>
   <trkpt lat="36.723529" lon="3.013141"><ele>200.25</ele></trkpt>
   <trkpt lat="36.723404" lon="3.012789"><ele>199.5</ele></trkpt>
   <trkpt lat="36.723352" lon="3.012486"><ele>199.75</ele></trkpt>
   <trkpt lat="36.723303" lon="3.012253"><ele>200</ele></trkpt>
   <trkpt lat="36.723201" lon="3.011955"><ele>200</ele></trkpt>
   <trkpt lat="36.723118" lon="3.011821"><ele>200</ele></trkpt>
   <trkpt lat="36.722799" lon="3.011487"><ele>191.5</ele></trkpt>
   <trkpt lat="36.722586" lon="3.011276"><ele>189</ele></trkpt>
   <trkpt lat="36.722516" lon="3.011177"><ele>189.75</ele></trkpt>
   <trkpt lat="36.722391" lon="3.011021"><ele>190</ele></trkpt>
   <trkpt lat="36.722327" lon="3.010887"><ele>190</ele></trkpt>
   <trkpt lat="36.722273" lon="3.01073"><ele>184.25</ele></trkpt>
   <trkpt lat="36.722247" lon="3.010677"><ele>181.5</ele></trkpt>
   <trkpt lat="36.721672" lon="3.01094"><ele>189</ele></trkpt>
   <trkpt lat="36.721496" lon="3.010748"><ele>184.5</ele></trkpt>
   <trkpt lat="36.721472" lon="3.01074"><ele>184.25</ele></trkpt>
   <trkpt lat="36.721338" lon="3.010603"><ele>177.25</ele></trkpt>
   <trkpt lat="36.721294" lon="3.010577"><ele>176</ele></trkpt>
   <trkpt lat="36.721164" lon="3.01042"><ele>175</ele></trkpt>
   <trkpt lat="36.721267" lon="3.010305"><ele>175</ele></trkpt>
   <trkpt lat="36.721568" lon="3.009407"><ele>165</ele></trkpt>
   <trkpt lat="36.721611" lon="3.00928"><ele>165</ele></trkpt>
   <trkpt lat="36.721573" lon="3.00923"><ele>165</ele></trkpt>
   <trkpt lat="36.721517" lon="3.009076"><ele>164.5</ele></trkpt>
   <trkpt lat="36.721432" lon="3.008726"><ele>164</ele></trkpt>
   <trkpt lat="36.721358" lon="3.008574"><ele>164</ele></trkpt>
   <trkpt lat="36.721256" lon="3.008454"><ele>164</ele></trkpt>
   <trkpt lat="36.721136" lon="3.008342"><ele>164</ele></trkpt>
   <trkpt lat="36.720771" lon="3.008143"><ele>162</ele></trkpt>
   <trkpt lat="36.720607" lon="3.008051"><ele>160</ele></trkpt>
   <trkpt lat="36.720451" lon="3.007931"><ele>160</ele></trkpt>
   <trkpt lat="36.720293" lon="3.007752"><ele>160</ele></trkpt>
   <trkpt lat="36.720013" lon="3.007388"><ele>157</ele></trkpt>
   <trkpt lat="36.719834" lon="3.007207"><ele>154</ele></trkpt>
   <trkpt lat="36.71972" lon="3.007153"><ele>154</ele></trkpt>
   <trkpt lat="36.719603" lon="3.007153"><ele>154</ele></trkpt>
   <trkpt lat="36.719477" lon="3.007179"><ele>154</ele></trkpt>
   <trkpt lat="36.719256" lon="3.007245"><ele>153</ele></trkpt>
   <trkpt lat="36.719117" lon="3.007278"><ele>153</ele></trkpt>
   <trkpt lat="36.718978" lon="3.007254"><ele>152.5</ele></trkpt>
   <trkpt lat="36.718767" lon="3.007123"><ele>152</ele></trkpt>
   <trkpt lat="36.718675" lon="3.007084"><ele>152</ele></trkpt>
   <trkpt lat="36.718273" lon="3.006985"><ele>156</ele></trkpt>
   <trkpt lat="36.717978" lon="3.006854"><ele>156</ele></trkpt>
   <trkpt lat="36.717813" lon="3.006805"><ele>156</ele></trkpt>
   <trkpt lat="36.717506" lon="3.006745"><ele>156</ele></trkpt>
   <trkpt lat="36.717412" lon="3.006675"><ele>156</ele></trkpt>
   <trkpt lat="36.717361" lon="3.006594"><ele>158.5</ele></trkpt>
   <trkpt lat="36.717296" lon="3.00648"><ele>162.5</ele></trkpt>
   <trkpt lat="36.717262" lon="3.006389"><ele>165.75</ele></trkpt>
   <trkpt lat="36.71723" lon="3.006255"><ele>166</ele></trkpt>
   <trkpt lat="36.717201" lon="3.006167"><ele>166</ele></trkpt>
   <trkpt lat="36.71714" lon="3.006098"><ele>166</ele></trkpt>
   <trkpt lat="36.716999" lon="3.005967"><ele>166</ele></trkpt>
   <trkpt lat="36.717045" lon="3.00589"><ele>166</ele></trkpt>
   <trkpt lat="36.717071" lon="3.005777"><ele>167.25</ele></trkpt>
   <trkpt lat="36.717085" lon="3.005617"><ele>171.25</ele></trkpt>
   <trkpt lat="36.716962" lon="3.005293"><ele>173</ele></trkpt>
   <trkpt lat="36.716895" lon="3.005156"><ele>173.25</ele></trkpt>
   <trkpt lat="36.71674" lon="3.004777"><ele>179.75</ele></trkpt>
   <trkpt lat="36.716395" lon="3.004509"><ele>182</ele></trkpt>
   <trkpt lat="36.716333" lon="3.004441"><ele>182</ele></trkpt>
   <trkpt lat="36.716178" lon="3.004268"><ele>182</ele></trkpt>
   <trkpt lat="36.716112" lon="3.004136"><ele>182.5</ele></trkpt>
   <trkpt lat="36.716089" lon="3.004006"><ele>185</ele></trkpt>
   <trkpt lat="36.716093" lon="3.003844"><ele>187</ele></trkpt>
   <trkpt lat="36.716167" lon="3.003291"><ele>187.25</ele></trkpt>
   <trkpt lat="36.71619" lon="3.003076"><ele>189.75</ele></trkpt>
   <trkpt lat="36.716205" lon="3.00293"><ele>190</ele></trkpt>
   <trkpt lat="36.716229" lon="3.002875"><ele>190</ele></trkpt>
   <trkpt lat="36.716231" lon="3.002823"><ele>190</ele></trkpt>
   <trkpt lat="36.716219" lon="3.002781"><ele>190</ele></trkpt>
   <trkpt lat="36.716201" lon="3.002751"><ele>190</ele></trkpt>
   <trkpt lat="36.716242" lon="3.002614"><ele>190</ele></trkpt>
   <trkpt lat="36.716351" lon="3.002387"><ele>190.25</ele></trkpt>
   <trkpt lat="36.716399" lon="3.002255"><ele>190.75</ele></trkpt>
   <trkpt lat="36.716453" lon="3.002025"><ele>191</ele></trkpt>
   <trkpt lat="36.716559" lon="3.001469"><ele>192.25</ele></trkpt>
   <trkpt lat="36.716774" lon="3.000218"><ele>197.5</ele></trkpt>
   <trkpt lat="36.716797" lon="3.000037"><ele>197.5</ele></trkpt>
   <trkpt lat="36.716807" lon="2.999795"><ele>198.5</ele></trkpt>
   <trkpt lat="36.71679" lon="2.999628"><ele>198.75</ele></trkpt>
   <trkpt lat="36.716673" lon="2.999099"><ele>198.5</ele></trkpt>
   <trkpt lat="36.716526" lon="2.998297"><ele>200.5</ele></trkpt>
   <trkpt lat="36.716506" lon="2.998179"><ele>202.75</ele></trkpt>
   <trkpt lat="36.716412" lon="2.997607"><ele>205</ele></trkpt>
   <trkpt lat="36.716412" lon="2.997509"><ele>204.75</ele></trkpt>
   <trkpt lat="36.716436" lon="2.997376"><ele>206.25</ele></trkpt>
   <trkpt lat="36.716467" lon="2.997346"><ele>206.5</ele></trkpt>
   <trkpt lat="36.71648" lon="2.99732"><ele>206.75</ele></trkpt>
   <trkpt lat="36.716488" lon="2.997269"><ele>207.25</ele></trkpt>
   <trkpt lat="36.716481" lon="2.99723"><ele>207.75</ele></trkpt>
   <trkpt lat="36.716509" lon="2.997169"><ele>208</ele></trkpt>
   <trkpt lat="36.716585" lon="2.997106"><ele>208</ele></trkpt>
   <trkpt lat="36.716943" lon="2.996874"><ele>209.75</ele></trkpt>
   <trkpt lat="36.717144" lon="2.99676"><ele>210</ele></trkpt>
   <trkpt lat="36.717231" lon="2.99672"><ele>209.75</ele></trkpt>
   <trkpt lat="36.71743" lon="2.996651"><ele>209.75</ele></trkpt>
   <trkpt lat="36.71794" lon="2.996493"><ele>212.25</ele></trkpt>
   <trkpt lat="36.718065" lon="2.996455"><ele>212</ele></trkpt>
   <trkpt lat="36.718474" lon="2.996294"><ele>213.5</ele></trkpt>
   <trkpt lat="36.719267" lon="2.995948"><ele>214.25</ele></trkpt>
   <trkpt lat="36.719472" lon="2.995832"><ele>213</ele></trkpt>
   <trkpt lat="36.719537" lon="2.995787"><ele>213.75</ele></trkpt>
   <trkpt lat="36.719649" lon="2.995685"><ele>215.5</ele></trkpt>
   <trkpt lat="36.719682" lon="2.995652"><ele>216.25</ele></trkpt>
   <trkpt lat="36.719815" lon="2.995498"><ele>218</ele></trkpt>
   <trkpt lat="36.71991" lon="2.995386"><ele>218</ele></trkpt>
   <trkpt lat="36.719949" lon="2.995328"><ele>218</ele></trkpt>
   <trkpt lat="36.720074" lon="2.995168"><ele>216.75</ele></trkpt>
   <trkpt lat="36.720112" lon="2.995149"><ele>216.25</ele></trkpt>
   <trkpt lat="36.720125" lon="2.995129"><ele>216</ele></trkpt>
   <trkpt lat="36.720133" lon="2.995106"><ele>216</ele></trkpt>
   <trkpt lat="36.720128" lon="2.995055"><ele>216</ele></trkpt>
   <trkpt lat="36.720204" lon="2.994975"><ele>215.5</ele></trkpt>
   <trkpt lat="36.72034" lon="2.994809"><ele>218</ele></trkpt>
   <trkpt lat="36.720295" lon="2.994751"><ele>219.25</ele></trkpt>
   <trkpt lat="36.720143" lon="2.994913"><ele>217</ele></trkpt>
  </trkseg>
 </trk>
</gpx>