<?xml version="1.0" encoding="UTF-8"?>
<!-- track-length = 8543 filtered ascend = 35 plain-ascend = -7 cost=14076 energy=0.0kwh time=25m 15s -->
<gpx 
 xmlns="http://www.topografix.com/GPX/1/1" 
 xmlns:xsi="http://www.w3.org/2001/XMLSchema-instance" 
 xsi:schemaLocation="http://www.topografix.com/GPX/1/1 http://www.topografix.com/GPX/1/1/gpx.xsd" 
 version="1.1" 
 creator="BRouter-Web 0.18.1">
 <trk>
  <name>HusseinDey</name>
  <trkseg>
   <trkpt lat="36.707028" lon="3.16712"><ele>14</ele></trkpt>
   <trkpt lat="36.707055" lon="3.167082"><ele>14</ele></trkpt>
   <trkpt lat="36.707088" lon="3.166995"><ele>14</ele></trkpt>
   <trkpt lat="36.707101" lon="3.1669"><ele>14</ele></trkpt>
   <trkpt lat="36.707093" lon="3.166804"><ele>14</ele></trkpt>
   <trkpt lat="36.707064" lon="3.166712"><ele>14</ele></trkpt>
   <trkpt lat="36.707016" lon="3.166633"><ele>14.25</ele></trkpt>
   <trkpt lat="36.706953" lon="3.166574"><ele>15.25</ele></trkpt>
   <trkpt lat="36.706867" lon="3.166463"><ele>16</ele></trkpt>
   <trkpt lat="36.706807" lon="3.166368"><ele>16.5</ele></trkpt>
   <trkpt lat="36.706774" lon="3.166293"><ele>16</ele></trkpt>
   <trkpt lat="36.706722" lon="3.166153"><ele>15.5</ele></trkpt>
   <trkpt lat="36.706735" lon="3.166101"><ele>15.5</ele></trkpt>
   <trkpt lat="36.707192" lon="3.165067"><ele>18</ele></trkpt>
   <trkpt lat="36.707732" lon="3.163872"><ele>21.5</ele></trkpt>
   <trkpt lat="36.707854" lon="3.163574"><ele>22</ele></trkpt>
   <trkpt lat="36.708162" lon="3.162882"><ele>21</ele></trkpt>
   <trkpt lat="36.708257" lon="3.162656"><ele>21</ele></trkpt>
   <trkpt lat="36.708657" lon="3.161778"><ele>25</ele></trkpt>
   <trkpt lat="36.709114" lon="3.160742"><ele>23.5</ele></trkpt>
   <trkpt lat="36.709545" lon="3.159746"><ele>25.75</ele></trkpt>
   <trkpt lat="36.70957" lon="3.159681"><ele>26</ele></trkpt>
   <trkpt lat="36.709871" lon="3.159006"><ele>25.25</ele></trkpt>
   <trkpt lat="36.709974" lon="3.158715"><ele>25</ele></trkpt>
   <trkpt lat="36.710088" lon="3.158419"><ele>25.25</ele></trkpt>
   <trkpt lat="36.710307" lon="3.157725"><ele>26</ele></trkpt>
   <trkpt lat="36.710627" lon="3.156801"><ele>26</ele></trkpt>
   <trkpt lat="36.710704" lon="3.156568"><ele>25.5</ele></trkpt>
   <trkpt lat="36.710755" lon="3.156417"><ele>25</ele></trkpt>
   <trkpt lat="36.711044" lon="3.155535"><ele>23</ele></trkpt>
   <trkpt lat="36.711319" lon="3.154656"><ele>19</ele></trkpt>
   <trkpt lat="36.7115" lon="3.154269"><ele>19</ele></trkpt>
   <trkpt lat="36.711763" lon="3.153823"><ele>14.5</ele></trkpt>
   <trkpt lat="36.712122" lon="3.153426"><ele>16</ele></trkpt>
   <trkpt lat="36.712363" lon="3.153231"><ele>14.75</ele></trkpt>
   <trkpt lat="36.712673" lon="3.153066"><ele>16</ele></trkpt>
   <trkpt lat="36.71311" lon="3.152997"><ele>18</ele></trkpt>
   <trkpt lat="36.713892" lon="3.152745"><ele>21</ele></trkpt>
   <trkpt lat="36.714038" lon="3.152567"><ele>21</ele></trkpt>
   <trkpt lat="36.714139" lon="3.152444"><ele>22</ele></trkpt>
   <trkpt lat="36.715532" lon="3.149806"><ele>30.25</ele></trkpt>
   <trkpt lat="36.715745" lon="3.149401"><ele>31</ele></trkpt>
   <trkpt lat="36.715877" lon="3.149159"><ele>31</ele></trkpt>
   <trkpt lat="36.716114" lon="3.148728"><ele>31</ele></trkpt>
   <trkpt lat="36.71671" lon="3.148033"><ele>29.5</ele></trkpt>
   <trkpt lat="36.717028" lon="3.147645"><ele>27</ele></trkpt>
   <trkpt lat="36.717069" lon="3.147602"><ele>27</ele></trkpt>
   <trkpt lat="36.717423" lon="3.146381"><ele>25.75</ele></trkpt>
   <trkpt lat="36.717489" lon="3.14618"><ele>26</ele></trkpt>
   <trkpt lat="36.717435" lon="3.145883"><ele>26</ele></trkpt>
   <trkpt lat="36.717333" lon="3.144815"><ele>25.25</ele></trkpt>
   <trkpt lat="36.717312" lon="3.14456"><ele>23.75</ele></trkpt>
   <trkpt lat="36.717312" lon="3.144496"><ele>24</ele></trkpt>
   <trkpt lat="36.717321" lon="3.144443"><ele>24</ele></trkpt>
   <trkpt lat="36.717497" lon="3.144017"><ele>20.75</ele></trkpt>
   <trkpt lat="36.717617" lon="3.143802"><ele>18.75</ele></trkpt>
   <trkpt lat="36.71769" lon="3.143672"><ele>19.25</ele></trkpt>
   <trkpt lat="36.717981" lon="3.143331"><ele>19.75</ele></trkpt>
   <trkpt lat="36.718454" lon="3.142639"><ele>23.5</ele></trkpt>
   <trkpt lat="36.719146" lon="3.140823"><ele>13.75</ele></trkpt>
   <trkpt lat="36.719173" lon="3.140702"><ele>13</ele></trkpt>
   <trkpt lat="36.719332" lon="3.14001"><ele>13.75</ele></trkpt>
   <trkpt lat="36.719403" lon="3.13969"><ele>10.5</ele></trkpt>
   <trkpt lat="36.719537" lon="3.139454"><ele>11</ele></trkpt>
   <trkpt lat="36.719954" lon="3.138836"><ele>9</ele></trkpt>
   <trkpt lat="36.720475" lon="3.13858"><ele>13</ele></trkpt>
   <trkpt lat="36.720891" lon="3.138398"><ele>12.75</ele></trkpt>
   <trkpt lat="36.72134" lon="3.138244"><ele>9.5</ele></trkpt>
   <trkpt lat="36.721714" lon="3.138078"><ele>6</ele></trkpt>
   <trkpt lat="36.721787" lon="3.138055"><ele>6.5</ele></trkpt>
   <trkpt lat="36.723317" lon="3.137733"><ele>13</ele></trkpt>
   <trkpt lat="36.723761" lon="3.137605"><ele>17</ele></trkpt>
   <trkpt lat="36.724278" lon="3.137429"><ele>15.75</ele></trkpt>
   <trkpt lat="36.724393" lon="3.137351"><ele>13.5</ele></trkpt>
   <trkpt lat="36.724702" lon="3.137026"><ele>10</ele></trkpt>
   <trkpt lat="36.724758" lon="3.136948"><ele>10</ele></trkpt>
   <trkpt lat="36.72499" lon="3.136672"><ele>10</ele></trkpt>
   <trkpt lat="36.725402" lon="3.136228"><ele>8</ele></trkpt>
   <trkpt lat="36.725841" lon="3.135755"><ele>7.75</ele></trkpt>
   <trkpt lat="36.726165" lon="3.135406"><ele>8</ele></trkpt>
   <trkpt lat="36.726502" lon="3.135048"><ele>8</ele></trkpt>
   <trkpt lat="36.726597" lon="3.134946"><ele>7.75</ele></trkpt>
   <trkpt lat="36.726788" lon="3.134753"><ele>8</ele></trkpt>
   <trkpt lat="36.72732" lon="3.134174"><ele>9</ele></trkpt>
   <trkpt lat="36.727897" lon="3.13361"><ele>11</ele></trkpt>
   <trkpt lat="36.727989" lon="3.13342"><ele>11</ele></trkpt>
   <trkpt lat="36.728127" lon="3.1331"><ele>9.25</ele></trkpt>
   <trkpt lat="36.728854" lon="3.131397"><ele>4</ele></trkpt>
   <trkpt lat="36.728912" lon="3.13131"><ele>4</ele></trkpt>
   <trkpt lat="36.728996" lon="3.131216"><ele>4</ele></trkpt>
   <trkpt lat="36.729092" lon="3.131123"><ele>4</ele></trkpt>
   <trkpt lat="36.729216" lon="3.131037"><ele>4.5</ele></trkpt>
   <trkpt lat="36.729392" lon="3.130955"><ele>6.25</ele></trkpt>
   <trkpt lat="36.729728" lon="3.130863"><ele>7</ele></trkpt>
   <trkpt lat="36.729917" lon="3.130764"><ele>6.5</ele></trkpt>
   <trkpt lat="36.730031" lon="3.130762"><ele>6.5</ele></trkpt>
   <trkpt lat="36.730179" lon="3.130719"><ele>6.75</ele></trkpt>
   <trkpt lat="36.730225" lon="3.130707"><ele>6.75</ele></trkpt>
   <trkpt lat="36.730308" lon="3.130686"><ele>6.75</ele></trkpt>
   <trkpt lat="36.730555" lon="3.130606"><ele>5.5</ele></trkpt>
   <trkpt lat="36.730811" lon="3.130484"><ele>5</ele></trkpt>
   <trkpt lat="36.731072" lon="3.1304"><ele>5</ele></trkpt>
   <trkpt lat="36.731346" lon="3.130337"><ele>5</ele></trkpt>
   <trkpt lat="36.731669" lon="3.130281"><ele>4.75</ele></trkpt>
   <trkpt lat="36.732098" lon="3.130269"><ele>4</ele></trkpt>
   <trkpt lat="36.732612" lon="3.130373"><ele>4</ele></trkpt>
   <trkpt lat="36.732956" lon="3.130393"><ele>4</ele></trkpt>
   <trkpt lat="36.733014" lon="3.130399"><ele>4</ele></trkpt>
   <trkpt lat="36.733209" lon="3.130482"><ele>4</ele></trkpt>
   <trkpt lat="36.73327" lon="3.13052"><ele>4</ele></trkpt>
   <trkpt lat="36.733321" lon="3.130562"><ele>4</ele></trkpt>
   <trkpt lat="36.733371" lon="3.130617"><ele>4.25</ele></trkpt>
   <trkpt lat="36.733394" lon="3.130649"><ele>4.5</ele></trkpt>
   <trkpt lat="36.733422" lon="3.130674"><ele>4.5</ele></trkpt>
   <trkpt lat="36.733485" lon="3.130697"><ele>4.25</ele></trkpt>
   <trkpt lat="36.733518" lon="3.130696"><ele>4.25</ele></trkpt>
   <trkpt lat="36.73355" lon="3.130686"><ele>4</ele></trkpt>
   <trkpt lat="36.733606" lon="3.130642"><ele>4</ele></trkpt>
   <trkpt lat="36.733627" lon="3.13061"><ele>4</ele></trkpt>
   <trkpt lat="36.733642" lon="3.130573"><ele>4</ele></trkpt>
   <trkpt lat="36.733652" lon="3.130492"><ele>4</ele></trkpt>
   <trkpt lat="36.733646" lon="3.130451"><ele>4</ele></trkpt>
   <trkpt lat="36.733634" lon="3.130412"><ele>4</ele></trkpt>
   <trkpt lat="36.733591" lon="3.13035"><ele>4</ele></trkpt>
   <trkpt lat="36.733563" lon="3.130328"><ele>4</ele></trkpt>
   <trkpt lat="36.733502" lon="3.130198"><ele>4</ele></trkpt>
   <trkpt lat="36.733412" lon="3.129972"><ele>3.75</ele></trkpt>
   <trkpt lat="36.733332" lon="3.129682"><ele>3.75</ele></trkpt>
   <trkpt lat="36.733028" lon="3.127769"><ele>5.25</ele></trkpt>
   <trkpt lat="36.732621" lon="3.125355"><ele>6.75</ele></trkpt>
   <trkpt lat="36.732575" lon="3.125029"><ele>7</ele></trkpt>
   <trkpt lat="36.732573" lon="3.124935"><ele>7.25</ele></trkpt>
   <trkpt lat="36.732579" lon="3.124667"><ele>7.25</ele></trkpt>
   <trkpt lat="36.732604" lon="3.124432"><ele>7.5</ele></trkpt>
   <trkpt lat="36.732673" lon="3.124147"><ele>7.75</ele></trkpt>
   <trkpt lat="36.732752" lon="3.123945"><ele>8</ele></trkpt>
   <trkpt lat="36.732817" lon="3.123816"><ele>8</ele></trkpt>
   <trkpt lat="36.732888" lon="3.123703"><ele>8</ele></trkpt>
   <trkpt lat="36.733126" lon="3.123402"><ele>8</ele></trkpt>
   <trkpt lat="36.733299" lon="3.12317"><ele>9.75</ele></trkpt>
   <trkpt lat="36.733403" lon="3.12298"><ele>9.75</ele></trkpt>
   <trkpt lat="36.733447" lon="3.122885"><ele>9.25</ele></trkpt>
   <trkpt lat="36.733866" lon="3.121769"><ele>10</ele></trkpt>
   <trkpt lat="36.733874" lon="3.12175"><ele>10</ele></trkpt>
   <trkpt lat="36.733937" lon="3.121562"><ele>11</ele></trkpt>
   <trkpt lat="36.733976" lon="3.121485"><ele>11.75</ele></trkpt>
   <trkpt lat="36.734024" lon="3.121443"><ele>12.25</ele></trkpt>
   <trkpt lat="36.734051" lon="3.121389"><ele>12.75</ele></trkpt>
   <trkpt lat="36.73406" lon="3.121326"><ele>13</ele></trkpt>
   <trkpt lat="36.734057" lon="3.121295"><ele>13</ele></trkpt>
   <trkpt lat="36.734119" lon="3.121209"><ele>13</ele></trkpt>
   <trkpt lat="36.734197" lon="3.12104"><ele>13</ele></trkpt>
   <trkpt lat="36.734795" lon="3.119576"><ele>13</ele></trkpt>
   <trkpt lat="36.734897" lon="3.119358"><ele>13</ele></trkpt>
   <trkpt lat="36.735093" lon="3.118763"><ele>12</ele></trkpt>
   <trkpt lat="36.735319" lon="3.11823"><ele>13</ele></trkpt>
   <trkpt lat="36.735529" lon="3.117668"><ele>15</ele></trkpt>
   <trkpt lat="36.735546" lon="3.117558"><ele>15</ele></trkpt>
   <trkpt lat="36.73561" lon="3.117335"><ele>15</ele></trkpt>
   <trkpt lat="36.735827" lon="3.116754"><ele>15</ele></trkpt>
   <trkpt lat="36.735999" lon="3.11626"><ele>11.5</ele></trkpt>
   <trkpt lat="36.736103" lon="3.115988"><ele>10</ele></trkpt>
   <trkpt lat="36.73614" lon="3.115891"><ele>10</ele></trkpt>
   <trkpt lat="36.736678" lon="3.114479"><ele>12.75</ele></trkpt>
   <trkpt lat="36.736909" lon="3.113885"><ele>8.5</ele></trkpt>
   <trkpt lat="36.737083" lon="3.113435"><ele>8</ele></trkpt>
   <trkpt lat="36.737405" lon="3.112575"><ele>9</ele></trkpt>
   <trkpt lat="36.73772" lon="3.111788"><ele>9.5</ele></trkpt>
   <trkpt lat="36.738109" lon="3.110736"><ele>9.5</ele></trkpt>
   <trkpt lat="36.738638" lon="3.109374"><ele>8</ele></trkpt>
   <trkpt lat="36.739175" lon="3.107991"><ele>7</ele></trkpt>
   <trkpt lat="36.739856" lon="3.106225"><ele>6</ele></trkpt>
   <trkpt lat="36.740318" lon="3.105021"><ele>6</ele></trkpt>
   <trkpt lat="36.740812" lon="3.103692"><ele>9</ele></trkpt>
   <trkpt lat="36.741006" lon="3.103173"><ele>8</ele></trkpt>
   <trkpt lat="36.741157" lon="3.102791"><ele>7</ele></trkpt>
   <trkpt lat="36.741236" lon="3.102588"><ele>7</ele></trkpt>
   <trkpt lat="36.741409" lon="3.102119"><ele>7</ele></trkpt>
   <trkpt lat="36.741466" lon="3.10197"><ele>7</ele></trkpt>
   <trkpt lat="36.741515" lon="3.10184"><ele>7</ele></trkpt>
   <trkpt lat="36.741693" lon="3.101358"><ele>6.5</ele></trkpt>
   <trkpt lat="36.741856" lon="3.100952"><ele>4.75</ele></trkpt>
   <trkpt lat="36.742022" lon="3.100506"><ele>6</ele></trkpt>
   <trkpt lat="36.742264" lon="3.100021"><ele>6</ele></trkpt>
   <trkpt lat="36.742353" lon="3.099788"><ele>9</ele></trkpt>
   <trkpt lat="36.742616" lon="3.099039"><ele>8.75</ele></trkpt>
   <trkpt lat="36.742677" lon="3.098922"><ele>8.25</ele></trkpt>
   <trkpt lat="36.74287" lon="3.098422"><ele>8</ele></trkpt>
   <trkpt lat="36.743032" lon="3.097923"><ele>8</ele></trkpt>
   <trkpt lat="36.743063" lon="3.097833"><ele>8</ele></trkpt>
   <trkpt lat="36.743406" lon="3.096847"><ele>9</ele></trkpt>
   <trkpt lat="36.74361" lon="3.096323"><ele>6</ele></trkpt>
   <trkpt lat="36.743721" lon="3.096032"><ele>6</ele></trkpt>
   <trkpt lat="36.743886" lon="3.095601"><ele>7.5</ele></trkpt>
   <trkpt lat="36.744026" lon="3.095233"><ele>8</ele></trkpt>
   <trkpt lat="36.74421" lon="3.09473"><ele>8.5</ele></trkpt>
   <trkpt lat="36.74441" lon="3.09422"><ele>6.25</ele></trkpt>
   <trkpt lat="36.744722" lon="3.093401"><ele>5.75</ele></trkpt>
   <trkpt lat="36.744683" lon="3.093389"><ele>6</ele></trkpt>
  </trkseg>
 </trk>
</gpx>