<?xml version="1.0" encoding="UTF-8"?>
<!-- track-length = 14731 filtered ascend = 69 plain-ascend = 65 cost=30324 energy=0.1kwh time=47m 42s -->
<gpx 
 xmlns="http://www.topografix.com/GPX/1/1" 
 xmlns:xsi="http://www.w3.org/2001/XMLSchema-instance" 
 xsi:schemaLocation="http://www.topografix.com/GPX/1/1 http://www.topografix.com/GPX/1/1/gpx.xsd" 
 version="1.1" 
 creator="BRouter-Web 0.18.1">
 <trk>
  <name>Oued Semmar -&gt; Meftah</name>
  <trkseg>
   <trkpt lat="36.706686" lon="3.167203"><ele>11.25</ele></trkpt>
   <trkpt lat="36.706724" lon="3.167227"><ele>11.5</ele></trkpt>
   <trkpt lat="36.706814" lon="3.167245"><ele>12.75</ele></trkpt>
   <trkpt lat="36.706829" lon="3.167244"><ele>12.75</ele></trkpt>
   <trkpt lat="36.706844" lon="3.167243"><ele>13</ele></trkpt>
   <trkpt lat="36.706896" lon="3.16723"><ele>13.5</ele></trkpt>
   <trkpt lat="36.706946" lon="3.167205"><ele>14</ele></trkpt>
   <trkpt lat="36.706991" lon="3.167169"><ele>14</ele></trkpt>
   <trkpt lat="36.707004" lon="3.167155"><ele>14</ele></trkpt>
   <trkpt lat="36.707055" lon="3.167082"><ele>14</ele></trkpt>
   <trkpt lat="36.707088" lon="3.166995"><ele>14</ele></trkpt>
   <trkpt lat="36.707101" lon="3.1669"><ele>14</ele></trkpt>
   <trkpt lat="36.707093" lon="3.166804"><ele>14</ele></trkpt>
   <trkpt lat="36.707064" lon="3.166712"><ele>14</ele></trkpt>
   <trkpt lat="36.707016" lon="3.166633"><ele>14.25</ele></trkpt>
   <trkpt lat="36.706953" lon="3.166574"><ele>15.25</ele></trkpt>
   <trkpt lat="36.706878" lon="3.166538"><ele>15</ele></trkpt>
   <trkpt lat="36.706798" lon="3.166529"><ele>14.25</ele></trkpt>
   <trkpt lat="36.706719" lon="3.166549"><ele>13.25</ele></trkpt>
   <trkpt lat="36.706648" lon="3.166595"><ele>12</ele></trkpt>
   <trkpt lat="36.706589" lon="3.166664"><ele>11</ele></trkpt>
   <trkpt lat="36.706514" lon="3.166783"><ele>11</ele></trkpt>
   <trkpt lat="36.706429" lon="3.166886"><ele>11</ele></trkpt>
   <trkpt lat="36.706328" lon="3.166983"><ele>11</ele></trkpt>
   <trkpt lat="36.706174" lon="3.167103"><ele>11</ele></trkpt>
   <trkpt lat="36.705997" lon="3.167211"><ele>12</ele></trkpt>
   <trkpt lat="36.705487" lon="3.167374"><ele>13.25</ele></trkpt>
   <trkpt lat="36.705114" lon="3.167489"><ele>15.25</ele></trkpt>
   <trkpt lat="36.704119" lon="3.16779"><ele>14</ele></trkpt>
   <trkpt lat="36.703556" lon="3.167981"><ele>13.5</ele></trkpt>
   <trkpt lat="36.702353" lon="3.168363"><ele>12</ele></trkpt>
   <trkpt lat="36.702095" lon="3.168432"><ele>12</ele></trkpt>
   <trkpt lat="36.701834" lon="3.168485"><ele>12.25</ele></trkpt>
   <trkpt lat="36.701109" lon="3.168543"><ele>12.75</ele></trkpt>
   <trkpt lat="36.700995" lon="3.168544"><ele>11.25</ele></trkpt>
   <trkpt lat="36.700627" lon="3.168527"><ele>9</ele></trkpt>
   <trkpt lat="36.69884" lon="3.16848"><ele>12</ele></trkpt>
   <trkpt lat="36.698729" lon="3.168469"><ele>12</ele></trkpt>
   <trkpt lat="36.698481" lon="3.168415"><ele>11.5</ele></trkpt>
   <trkpt lat="36.698155" lon="3.168371"><ele>11</ele></trkpt>
   <trkpt lat="36.698081" lon="3.168348"><ele>11</ele></trkpt>
   <trkpt lat="36.698001" lon="3.168306"><ele>11</ele></trkpt>
   <trkpt lat="36.697938" lon="3.168252"><ele>11.25</ele></trkpt>
   <trkpt lat="36.697889" lon="3.168179"><ele>11.5</ele></trkpt>
   <trkpt lat="36.697862" lon="3.168122"><ele>11.75</ele></trkpt>
   <trkpt lat="36.697821" lon="3.168079"><ele>11.75</ele></trkpt>
   <trkpt lat="36.697736" lon="3.167943"><ele>12</ele></trkpt>
   <trkpt lat="36.69753" lon="3.167647"><ele>12</ele></trkpt>
   <trkpt lat="36.697459" lon="3.167562"><ele>12</ele></trkpt>
   <trkpt lat="36.697366" lon="3.167466"><ele>11.75</ele></trkpt>
   <trkpt lat="36.697201" lon="3.167324"><ele>11.25</ele></trkpt>
   <trkpt lat="36.697065" lon="3.167231"><ele>11</ele></trkpt>
   <trkpt lat="36.696911" lon="3.167161"><ele>11.25</ele></trkpt>
   <trkpt lat="36.696756" lon="3.167132"><ele>13</ele></trkpt>
   <trkpt lat="36.695863" lon="3.167036"><ele>13</ele></trkpt>
   <trkpt lat="36.695212" lon="3.166974"><ele>13</ele></trkpt>
   <trkpt lat="36.694895" lon="3.166927"><ele>13</ele></trkpt>
   <trkpt lat="36.694771" lon="3.166883"><ele>13</ele></trkpt>
   <trkpt lat="36.694583" lon="3.166793"><ele>13</ele></trkpt>
   <trkpt lat="36.694401" lon="3.166631"><ele>12.75</ele></trkpt>
   <trkpt lat="36.694335" lon="3.166541"><ele>13</ele></trkpt>
   <trkpt lat="36.694225" lon="3.166314"><ele>15.25</ele></trkpt>
   <trkpt lat="36.694195" lon="3.166209"><ele>15.5</ele></trkpt>
   <trkpt lat="36.694168" lon="3.166102"><ele>15.75</ele></trkpt>
   <trkpt lat="36.694152" lon="3.165986"><ele>16</ele></trkpt>
   <trkpt lat="36.694087" lon="3.165429"><ele>17</ele></trkpt>
   <trkpt lat="36.694072" lon="3.165326"><ele>17</ele></trkpt>
   <trkpt lat="36.694038" lon="3.165123"><ele>17</ele></trkpt>
   <trkpt lat="36.694016" lon="3.164998"><ele>16.75</ele></trkpt>
   <trkpt lat="36.693987" lon="3.164887"><ele>15.25</ele></trkpt>
   <trkpt lat="36.693945" lon="3.164765"><ele>13.5</ele></trkpt>
   <trkpt lat="36.693863" lon="3.164593"><ele>13</ele></trkpt>
   <trkpt lat="36.693695" lon="3.164372"><ele>13</ele></trkpt>
   <trkpt lat="36.693433" lon="3.164181"><ele>13</ele></trkpt>
   <trkpt lat="36.693033" lon="3.164081"><ele>12.5</ele></trkpt>
   <trkpt lat="36.692256" lon="3.164054"><ele>13</ele></trkpt>
   <trkpt lat="36.691176" lon="3.164003"><ele>10.5</ele></trkpt>
   <trkpt lat="36.690762" lon="3.164114"><ele>10</ele></trkpt>
   <trkpt lat="36.690439" lon="3.164346"><ele>10</ele></trkpt>
   <trkpt lat="36.690219" lon="3.164698"><ele>10</ele></trkpt>
   <trkpt lat="36.690143" lon="3.165105"><ele>12.5</ele></trkpt>
   <trkpt lat="36.690101" lon="3.165516"><ele>12.25</ele></trkpt>
   <trkpt lat="36.690073" lon="3.166247"><ele>13.25</ele></trkpt>
   <trkpt lat="36.690004" lon="3.168926"><ele>13.5</ele></trkpt>
   <trkpt lat="36.689818" lon="3.168941"><ele>13.5</ele></trkpt>
   <trkpt lat="36.689459" lon="3.168944"><ele>13.5</ele></trkpt>
   <trkpt lat="36.689281" lon="3.169049"><ele>13</ele></trkpt>
   <trkpt lat="36.688967" lon="3.169202"><ele>14</ele></trkpt>
   <trkpt lat="36.687796" lon="3.169221"><ele>16</ele></trkpt>
   <trkpt lat="36.686962" lon="3.169232"><ele>17</ele></trkpt>
   <trkpt lat="36.686817" lon="3.169283"><ele>18.25</ele></trkpt>
   <trkpt lat="36.68678" lon="3.169312"><ele>18.75</ele></trkpt>
   <trkpt lat="36.686417" lon="3.169588"><ele>20</ele></trkpt>
   <trkpt lat="36.686032" lon="3.169834"><ele>18</ele></trkpt>
   <trkpt lat="36.686047" lon="3.170073"><ele>17</ele></trkpt>
   <trkpt lat="36.686175" lon="3.170463"><ele>17</ele></trkpt>
   <trkpt lat="36.686227" lon="3.170598"><ele>16.5</ele></trkpt>
   <trkpt lat="36.686338" lon="3.170877"><ele>15</ele></trkpt>
   <trkpt lat="36.686428" lon="3.171066"><ele>15</ele></trkpt>
   <trkpt lat="36.686512" lon="3.171274"><ele>15</ele></trkpt>
   <trkpt lat="36.686558" lon="3.171391"><ele>15</ele></trkpt>
   <trkpt lat="36.686588" lon="3.171508"><ele>16.25</ele></trkpt>
   <trkpt lat="36.686891" lon="3.172174"><ele>15.5</ele></trkpt>
   <trkpt lat="36.687115" lon="3.172789"><ele>14</ele></trkpt>
   <trkpt lat="36.687142" lon="3.17285"><ele>14</ele></trkpt>
   <trkpt lat="36.687283" lon="3.173215"><ele>15</ele></trkpt>
   <trkpt lat="36.687508" lon="3.173793"><ele>16</ele></trkpt>
   <trkpt lat="36.687728" lon="3.174281"><ele>15.25</ele></trkpt>
   <trkpt lat="36.688019" lon="3.174977"><ele>15</ele></trkpt>
   <trkpt lat="36.688437" lon="3.175979"><ele>14.25</ele></trkpt>
   <trkpt lat="36.688029" lon="3.176349"><ele>15</ele></trkpt>
   <trkpt lat="36.687975" lon="3.176386"><ele>15</ele></trkpt>
   <trkpt lat="36.687823" lon="3.176544"><ele>15</ele></trkpt>
   <trkpt lat="36.687533" lon="3.176811"><ele>15.75</ele></trkpt>
   <trkpt lat="36.687164" lon="3.177197"><ele>16</ele></trkpt>
   <trkpt lat="36.687139" lon="3.177215"><ele>16</ele></trkpt>
   <trkpt lat="36.686915" lon="3.177446"><ele>17.25</ele></trkpt>
   <trkpt lat="36.686842" lon="3.177605"><ele>17.5</ele></trkpt>
   <trkpt lat="36.68454" lon="3.179844"><ele>19.25</ele></trkpt>
   <trkpt lat="36.684112" lon="3.180276"><ele>20</ele></trkpt>
   <trkpt lat="36.683909" lon="3.180061"><ele>19.75</ele></trkpt>
   <trkpt lat="36.683823" lon="3.179968"><ele>19.5</ele></trkpt>
   <trkpt lat="36.679772" lon="3.175757"><ele>18.25</ele></trkpt>
   <trkpt lat="36.679037" lon="3.174982"><ele>17.75</ele></trkpt>
   <trkpt lat="36.678497" lon="3.174388"><ele>17.75</ele></trkpt>
   <trkpt lat="36.678474" lon="3.174364"><ele>17.75</ele></trkpt>
   <trkpt lat="36.67811" lon="3.173998"><ele>19.5</ele></trkpt>
   <trkpt lat="36.678045" lon="3.173925"><ele>19.75</ele></trkpt>
   <trkpt lat="36.677654" lon="3.173537"><ele>20</ele></trkpt>
   <trkpt lat="36.677155" lon="3.172995"><ele>20</ele></trkpt>
   <trkpt lat="36.676821" lon="3.172646"><ele>20.75</ele></trkpt>
   <trkpt lat="36.676565" lon="3.17238"><ele>22</ele></trkpt>
   <trkpt lat="36.676422" lon="3.172245"><ele>22</ele></trkpt>
   <trkpt lat="36.675995" lon="3.171744"><ele>21</ele></trkpt>
   <trkpt lat="36.675548" lon="3.171281"><ele>20</ele></trkpt>
   <trkpt lat="36.675486" lon="3.171212"><ele>20</ele></trkpt>
   <trkpt lat="36.675097" lon="3.170784"><ele>21.5</ele></trkpt>
   <trkpt lat="36.674836" lon="3.17049"><ele>23</ele></trkpt>
   <trkpt lat="36.674792" lon="3.170533"><ele>23</ele></trkpt>
   <trkpt lat="36.673551" lon="3.171939"><ele>22</ele></trkpt>
   <trkpt lat="36.671433" lon="3.174266"><ele>22</ele></trkpt>
   <trkpt lat="36.667984" lon="3.178028"><ele>23</ele></trkpt>
   <trkpt lat="36.667064" lon="3.179046"><ele>23</ele></trkpt>
   <trkpt lat="36.666069" lon="3.180105"><ele>24.75</ele></trkpt>
   <trkpt lat="36.665476" lon="3.180746"><ele>24</ele></trkpt>
   <trkpt lat="36.664885" lon="3.181385"><ele>25</ele></trkpt>
   <trkpt lat="36.664715" lon="3.181568"><ele>24.25</ele></trkpt>
   <trkpt lat="36.662392" lon="3.184134"><ele>27</ele></trkpt>
   <trkpt lat="36.662035" lon="3.184526"><ele>26.75</ele></trkpt>
   <trkpt lat="36.661606" lon="3.184945"><ele>28</ele></trkpt>
   <trkpt lat="36.661509" lon="3.185001"><ele>28</ele></trkpt>
   <trkpt lat="36.661411" lon="3.185008"><ele>28</ele></trkpt>
   <trkpt lat="36.661224" lon="3.184948"><ele>28</ele></trkpt>
   <trkpt lat="36.660794" lon="3.184765"><ele>28</ele></trkpt>
   <trkpt lat="36.659889" lon="3.184385"><ele>29</ele></trkpt>
   <trkpt lat="36.658784" lon="3.183919"><ele>28.75</ele></trkpt>
   <trkpt lat="36.658576" lon="3.183819"><ele>29</ele></trkpt>
   <trkpt lat="36.658226" lon="3.183695"><ele>30</ele></trkpt>
   <trkpt lat="36.657461" lon="3.183532"><ele>29</ele></trkpt>
   <trkpt lat="36.655972" lon="3.183224"><ele>28.75</ele></trkpt>
   <trkpt lat="36.655054" lon="3.182927"><ele>31</ele></trkpt>
   <trkpt lat="36.654677" lon="3.182791"><ele>31</ele></trkpt>
   <trkpt lat="36.654395" lon="3.182653"><ele>30.75</ele></trkpt>
   <trkpt lat="36.654155" lon="3.182487"><ele>30</ele></trkpt>
   <trkpt lat="36.653484" lon="3.18197"><ele>30.25</ele></trkpt>
   <trkpt lat="36.653331" lon="3.181873"><ele>31</ele></trkpt>
   <trkpt lat="36.653192" lon="3.181807"><ele>31</ele></trkpt>
   <trkpt lat="36.652966" lon="3.181748"><ele>31</ele></trkpt>
   <trkpt lat="36.652433" lon="3.181655"><ele>31</ele></trkpt>
   <trkpt lat="36.65068" lon="3.18105"><ele>35</ele></trkpt>
   <trkpt lat="36.649929" lon="3.180787"><ele>34</ele></trkpt>
   <trkpt lat="36.6498" lon="3.180741"><ele>34.25</ele></trkpt>
   <trkpt lat="36.649681" lon="3.1807"><ele>34.25</ele></trkpt>
   <trkpt lat="36.647828" lon="3.180032"><ele>36</ele></trkpt>
   <trkpt lat="36.646904" lon="3.179726"><ele>33.25</ele></trkpt>
   <trkpt lat="36.646774" lon="3.179676"><ele>34</ele></trkpt>
   <trkpt lat="36.646567" lon="3.179568"><ele>35</ele></trkpt>
   <trkpt lat="36.646121" lon="3.179298"><ele>35</ele></trkpt>
   <trkpt lat="36.645789" lon="3.179123"><ele>34</ele></trkpt>
   <trkpt lat="36.645054" lon="3.178824"><ele>34</ele></trkpt>
   <trkpt lat="36.643811" lon="3.178294"><ele>35</ele></trkpt>
   <trkpt lat="36.642662" lon="3.177716"><ele>36.5</ele></trkpt>
   <trkpt lat="36.641997" lon="3.177455"><ele>35.75</ele></trkpt>
   <trkpt lat="36.640595" lon="3.176798"><ele>38</ele></trkpt>
   <trkpt lat="36.639871" lon="3.178619"><ele>39</ele></trkpt>
   <trkpt lat="36.639408" lon="3.179672"><ele>36</ele></trkpt>
   <trkpt lat="36.639261" lon="3.179989"><ele>36</ele></trkpt>
   <trkpt lat="36.638611" lon="3.181395"><ele>35</ele></trkpt>
   <trkpt lat="36.637398" lon="3.184276"><ele>39</ele></trkpt>
   <trkpt lat="36.636905" lon="3.185446"><ele>38</ele></trkpt>
   <trkpt lat="36.636761" lon="3.185807"><ele>38.5</ele></trkpt>
   <trkpt lat="36.636404" lon="3.186703"><ele>40</ele></trkpt>
   <trkpt lat="36.635778" lon="3.188274"><ele>37.75</ele></trkpt>
   <trkpt lat="36.635571" lon="3.188794"><ele>38</ele></trkpt>
   <trkpt lat="36.635251" lon="3.189571"><ele>38.75</ele></trkpt>
   <trkpt lat="36.63487" lon="3.190497"><ele>39</ele></trkpt>
   <trkpt lat="36.634566" lon="3.191167"><ele>40</ele></trkpt>
   <trkpt lat="36.63194" lon="3.197475"><ele>39</ele></trkpt>
   <trkpt lat="36.631917" lon="3.197614"><ele>39</ele></trkpt>
   <trkpt lat="36.630975" lon="3.199638"><ele>40.25</ele></trkpt>
   <trkpt lat="36.6309" lon="3.199821"><ele>41</ele></trkpt>
   <trkpt lat="36.630438" lon="3.200938"><ele>40</ele></trkpt>
   <trkpt lat="36.630372" lon="3.2011"><ele>40</ele></trkpt>
   <trkpt lat="36.628626" lon="3.205286"><ele>42</ele></trkpt>
   <trkpt lat="36.627452" lon="3.208077"><ele>43</ele></trkpt>
   <trkpt lat="36.627368" lon="3.208224"><ele>44</ele></trkpt>
   <trkpt lat="36.627309" lon="3.208298"><ele>44.5</ele></trkpt>
   <trkpt lat="36.627208" lon="3.208357"><ele>45</ele></trkpt>
   <trkpt lat="36.627173" lon="3.208388"><ele>45</ele></trkpt>
   <trkpt lat="36.627144" lon="3.208429"><ele>45</ele></trkpt>
   <trkpt lat="36.627124" lon="3.208476"><ele>45</ele></trkpt>
   <trkpt lat="36.627111" lon="3.208552"><ele>45</ele></trkpt>
   <trkpt lat="36.627119" lon="3.208628"><ele>45</ele></trkpt>
   <trkpt lat="36.627102" lon="3.208691"><ele>45</ele></trkpt>
   <trkpt lat="36.627102" lon="3.208834"><ele>45</ele></trkpt>
   <trkpt lat="36.627081" lon="3.208947"><ele>45</ele></trkpt>
   <trkpt lat="36.627052" lon="3.20905"><ele>45</ele></trkpt>
   <trkpt lat="36.626774" lon="3.209688"><ele>45.5</ele></trkpt>
   <trkpt lat="36.62625" lon="3.21074"><ele>49.25</ele></trkpt>
   <trkpt lat="36.62601" lon="3.211288"><ele>49.25</ele></trkpt>
   <trkpt lat="36.625783" lon="3.211842"><ele>51</ele></trkpt>
   <trkpt lat="36.624611" lon="3.214624"><ele>52</ele></trkpt>
   <trkpt lat="36.624376" lon="3.215172"><ele>55.5</ele></trkpt>
   <trkpt lat="36.623725" lon="3.216757"><ele>58</ele></trkpt>
   <trkpt lat="36.623598" lon="3.217084"><ele>58</ele></trkpt>
   <trkpt lat="36.623445" lon="3.21749"><ele>59</ele></trkpt>
   <trkpt lat="36.623378" lon="3.217705"><ele>59.5</ele></trkpt>
   <trkpt lat="36.623331" lon="3.217896"><ele>60</ele></trkpt>
   <trkpt lat="36.623054" lon="3.218616"><ele>59</ele></trkpt>
   <trkpt lat="36.622698" lon="3.21945"><ele>64</ele></trkpt>
   <trkpt lat="36.622487" lon="3.219854"><ele>67.75</ele></trkpt>
   <trkpt lat="36.622106" lon="3.220745"><ele>69.5</ele></trkpt>
   <trkpt lat="36.621652" lon="3.221337"><ele>71</ele></trkpt>
   <trkpt lat="36.621551" lon="3.221448"><ele>71.5</ele></trkpt>
   <trkpt lat="36.621307" lon="3.221707"><ele>73.75</ele></trkpt>
   <trkpt lat="36.621013" lon="3.222"><ele>74.5</ele></trkpt>
   <trkpt lat="36.62046" lon="3.222544"><ele>76.25</ele></trkpt>
  </trkseg>
 </trk>
</gpx>