<?xml version="1.0" encoding="UTF-8"?>
<!-- track-length = 6398 filtered ascend = 25 plain-ascend = -12 cost=10429 energy=0.0kwh time=18m 28s -->
<gpx 
 xmlns="http://www.topografix.com/GPX/1/1" 
 xmlns:xsi="http://www.w3.org/2001/XMLSchema-instance" 
 xsi:schemaLocation="http://www.topografix.com/GPX/1/1 http://www.topografix.com/GPX/1/1/gpx.xsd" 
 version="1.1" 
 creator="BRouter-Web 0.18.1">
 <trk>
  <name>Sablettes</name>
  <trkseg>
   <trkpt lat="36.707071" lon="3.167038"><ele>14</ele></trkpt>
   <trkpt lat="36.707088" lon="3.166995"><ele>14</ele></trkpt>
   <trkpt lat="36.707101" lon="3.1669"><ele>14</ele></trkpt>
   <trkpt lat="36.707093" lon="3.166804"><ele>14</ele></trkpt>
   <trkpt lat="36.707064" lon="3.166712"><ele>14</ele></trkpt>
   <trkpt lat="36.707016" lon="3.166633"><ele>14.25</ele></trkpt>
   <trkpt lat="36.706953" lon="3.166574"><ele>15.25</ele></trkpt>
   <trkpt lat="36.706867" lon="3.166463"><ele>16</ele></trkpt>
   <trkpt lat="36.706807" lon="3.166368"><ele>16.5</ele></trkpt>
   <trkpt lat="36.706774" lon="3.166293"><ele>16</ele></trkpt>
   <trkpt lat="36.706722" lon="3.166153"><ele>15.5</ele></trkpt>
   <trkpt lat="36.706735" lon="3.166101"><ele>15.5</ele></trkpt>
   <trkpt lat="36.707192" lon="3.165067"><ele>18</ele></trkpt>
   <trkpt lat="36.707732" lon="3.163872"><ele>21.5</ele></trkpt>
   <trkpt lat="36.707854" lon="3.163574"><ele>22</ele></trkpt>
   <trkpt lat="36.708162" lon="3.162882"><ele>21</ele></trkpt>
   <trkpt lat="36.708257" lon="3.162656"><ele>21</ele></trkpt>
   <trkpt lat="36.708657" lon="3.161778"><ele>25</ele></trkpt>
   <trkpt lat="36.709114" lon="3.160742"><ele>23.5</ele></trkpt>
   <trkpt lat="36.709545" lon="3.159746"><ele>25.75</ele></trkpt>
   <trkpt lat="36.70957" lon="3.159681"><ele>26</ele></trkpt>
   <trkpt lat="36.709871" lon="3.159006"><ele>25.25</ele></trkpt>
   <trkpt lat="36.709974" lon="3.158715"><ele>25</ele></trkpt>
   <trkpt lat="36.710088" lon="3.158419"><ele>25.25</ele></trkpt>
   <trkpt lat="36.710307" lon="3.157725"><ele>26</ele></trkpt>
   <trkpt lat="36.710627" lon="3.156801"><ele>26</ele></trkpt>
   <trkpt lat="36.710704" lon="3.156568"><ele>25.5</ele></trkpt>
   <trkpt lat="36.710755" lon="3.156417"><ele>25</ele></trkpt>
   <trkpt lat="36.711044" lon="3.155535"><ele>23</ele></trkpt>
   <trkpt lat="36.711319" lon="3.154656"><ele>19</ele></trkpt>
   <trkpt lat="36.7115" lon="3.154269"><ele>19</ele></trkpt>
   <trkpt lat="36.711763" lon="3.153823"><ele>14.5</ele></trkpt>
   <trkpt lat="36.712122" lon="3.153426"><ele>16</ele></trkpt>
   <trkpt lat="36.712363" lon="3.153231"><ele>14.75</ele></trkpt>
   <trkpt lat="36.712673" lon="3.153066"><ele>16</ele></trkpt>
   <trkpt lat="36.71311" lon="3.152997"><ele>18</ele></trkpt>
   <trkpt lat="36.713892" lon="3.152745"><ele>21</ele></trkpt>
   <trkpt lat="36.714038" lon="3.152567"><ele>21</ele></trkpt>
   <trkpt lat="36.714139" lon="3.152444"><ele>22</ele></trkpt>
   <trkpt lat="36.715532" lon="3.149806"><ele>30.25</ele></trkpt>
   <trkpt lat="36.715745" lon="3.149401"><ele>31</ele></trkpt>
   <trkpt lat="36.715877" lon="3.149159"><ele>31</ele></trkpt>
   <trkpt lat="36.716114" lon="3.148728"><ele>31</ele></trkpt>
   <trkpt lat="36.71671" lon="3.148033"><ele>29.5</ele></trkpt>
   <trkpt lat="36.717028" lon="3.147645"><ele>27</ele></trkpt>
   <trkpt lat="36.717069" lon="3.147602"><ele>27</ele></trkpt>
   <trkpt lat="36.717423" lon="3.146381"><ele>25.75</ele></trkpt>
   <trkpt lat="36.717489" lon="3.14618"><ele>26</ele></trkpt>
   <trkpt lat="36.717435" lon="3.145883"><ele>26</ele></trkpt>
   <trkpt lat="36.717333" lon="3.144815"><ele>25.25</ele></trkpt>
   <trkpt lat="36.717312" lon="3.14456"><ele>23.75</ele></trkpt>
   <trkpt lat="36.717312" lon="3.144496"><ele>24</ele></trkpt>
   <trkpt lat="36.717321" lon="3.144443"><ele>24</ele></trkpt>
   <trkpt lat="36.717497" lon="3.144017"><ele>20.75</ele></trkpt>
   <trkpt lat="36.717617" lon="3.143802"><ele>18.75</ele></trkpt>
   <trkpt lat="36.71769" lon="3.143672"><ele>19.25</ele></trkpt>
   <trkpt lat="36.717981" lon="3.143331"><ele>19.75</ele></trkpt>
   <trkpt lat="36.718454" lon="3.142639"><ele>23.5</ele></trkpt>
   <trkpt lat="36.719146" lon="3.140823"><ele>13.75</ele></trkpt>
   <trkpt lat="36.719173" lon="3.140702"><ele>13</ele></trkpt>
   <trkpt lat="36.719332" lon="3.14001"><ele>13.75</ele></trkpt>
   <trkpt lat="36.719403" lon="3.13969"><ele>10.5</ele></trkpt>
   <trkpt lat="36.719537" lon="3.139454"><ele>11</ele></trkpt>
   <trkpt lat="36.719954" lon="3.138836"><ele>9</ele></trkpt>
   <trkpt lat="36.720475" lon="3.13858"><ele>13</ele></trkpt>
   <trkpt lat="36.720891" lon="3.138398"><ele>12.75</ele></trkpt>
   <trkpt lat="36.72134" lon="3.138244"><ele>9.5</ele></trkpt>
   <trkpt lat="36.721714" lon="3.138078"><ele>6</ele></trkpt>
   <trkpt lat="36.721787" lon="3.138055"><ele>6.5</ele></trkpt>
   <trkpt lat="36.721696" lon="3.137415"><ele>5.25</ele></trkpt>
   <trkpt lat="36.721644" lon="3.137033"><ele>5</ele></trkpt>
   <trkpt lat="36.721523" lon="3.135994"><ele>5</ele></trkpt>
   <trkpt lat="36.721426" lon="3.136016"><ele>5</ele></trkpt>
   <trkpt lat="36.721427" lon="3.135945"><ele>5</ele></trkpt>
   <trkpt lat="36.721449" lon="3.135907"><ele>5</ele></trkpt>
   <trkpt lat="36.721465" lon="3.135896"><ele>5</ele></trkpt>
   <trkpt lat="36.721635" lon="3.135858"><ele>5</ele></trkpt>
   <trkpt lat="36.721691" lon="3.135838"><ele>4.75</ele></trkpt>
   <trkpt lat="36.721743" lon="3.135803"><ele>4.5</ele></trkpt>
   <trkpt lat="36.721803" lon="3.135776"><ele>4.25</ele></trkpt>
   <trkpt lat="36.722042" lon="3.135714"><ele>3.5</ele></trkpt>
   <trkpt lat="36.722128" lon="3.13566"><ele>3.25</ele></trkpt>
   <trkpt lat="36.722172" lon="3.135637"><ele>3.25</ele></trkpt>
   <trkpt lat="36.722147" lon="3.135569"><ele>3</ele></trkpt>
   <trkpt lat="36.722112" lon="3.135477"><ele>3</ele></trkpt>
   <trkpt lat="36.722063" lon="3.135338"><ele>3</ele></trkpt>
   <trkpt lat="36.72193" lon="3.13429"><ele>4</ele></trkpt>
   <trkpt lat="36.722054" lon="3.134166"><ele>4</ele></trkpt>
   <trkpt lat="36.722071" lon="3.134118"><ele>4.25</ele></trkpt>
   <trkpt lat="36.722031" lon="3.133846"><ele>6</ele></trkpt>
   <trkpt lat="36.722137" lon="3.133819"><ele>6</ele></trkpt>
   <trkpt lat="36.722187" lon="3.133795"><ele>6</ele></trkpt>
   <trkpt lat="36.722235" lon="3.133764"><ele>5.75</ele></trkpt>
   <trkpt lat="36.722371" lon="3.133647"><ele>6</ele></trkpt>
   <trkpt lat="36.722524" lon="3.133529"><ele>6</ele></trkpt>
   <trkpt lat="36.722635" lon="3.133463"><ele>6</ele></trkpt>
   <trkpt lat="36.722742" lon="3.133426"><ele>6</ele></trkpt>
   <trkpt lat="36.722927" lon="3.133385"><ele>6</ele></trkpt>
   <trkpt lat="36.723029" lon="3.133352"><ele>6</ele></trkpt>
   <trkpt lat="36.723163" lon="3.133295"><ele>6.5</ele></trkpt>
   <trkpt lat="36.72331" lon="3.133223"><ele>7.5</ele></trkpt>
   <trkpt lat="36.723765" lon="3.132934"><ele>9</ele></trkpt>
   <trkpt lat="36.724097" lon="3.132687"><ele>9</ele></trkpt>
   <trkpt lat="36.724381" lon="3.132384"><ele>8.5</ele></trkpt>
   <trkpt lat="36.724841" lon="3.132013"><ele>10</ele></trkpt>
   <trkpt lat="36.725301" lon="3.131734"><ele>4</ele></trkpt>
   <trkpt lat="36.725758" lon="3.131507"><ele>5.5</ele></trkpt>
   <trkpt lat="36.726565" lon="3.131175"><ele>6</ele></trkpt>
   <trkpt lat="36.726864" lon="3.131013"><ele>4.5</ele></trkpt>
   <trkpt lat="36.727103" lon="3.13081"><ele>4.25</ele></trkpt>
   <trkpt lat="36.727402" lon="3.13053"><ele>7</ele></trkpt>
   <trkpt lat="36.728402" lon="3.129785"><ele>5.25</ele></trkpt>
   <trkpt lat="36.728448" lon="3.129753"><ele>5.25</ele></trkpt>
   <trkpt lat="36.728496" lon="3.129738"><ele>5.25</ele></trkpt>
   <trkpt lat="36.728613" lon="3.129727"><ele>5</ele></trkpt>
   <trkpt lat="36.728661" lon="3.129701"><ele>5</ele></trkpt>
   <trkpt lat="36.728817" lon="3.129562"><ele>5</ele></trkpt>
   <trkpt lat="36.729254" lon="3.129117"><ele>5</ele></trkpt>
   <trkpt lat="36.729654" lon="3.128698"><ele>6</ele></trkpt>
   <trkpt lat="36.729759" lon="3.128591"><ele>6</ele></trkpt>
   <trkpt lat="36.729882" lon="3.128489"><ele>6</ele></trkpt>
   <trkpt lat="36.730025" lon="3.128382"><ele>5.5</ele></trkpt>
   <trkpt lat="36.730694" lon="3.127918"><ele>4</ele></trkpt>
   <trkpt lat="36.731245" lon="3.127572"><ele>5</ele></trkpt>
   <trkpt lat="36.731458" lon="3.127478"><ele>5</ele></trkpt>
   <trkpt lat="36.731679" lon="3.127408"><ele>4.75</ele></trkpt>
   <trkpt lat="36.731839" lon="3.127379"><ele>3.75</ele></trkpt>
   <trkpt lat="36.732096" lon="3.127377"><ele>3</ele></trkpt>
   <trkpt lat="36.732358" lon="3.127382"><ele>3</ele></trkpt>
   <trkpt lat="36.732455" lon="3.127405"><ele>3</ele></trkpt>
   <trkpt lat="36.732773" lon="3.127477"><ele>2</ele></trkpt>
   <trkpt lat="36.733226" lon="3.127618"><ele>2</ele></trkpt>
   <trkpt lat="36.734583" lon="3.128014"><ele>4</ele></trkpt>
   <trkpt lat="36.734823" lon="3.128089"><ele>3.75</ele></trkpt>
   <trkpt lat="36.735007" lon="3.12816"><ele>3.5</ele></trkpt>
   <trkpt lat="36.735563" lon="3.12832"><ele>3</ele></trkpt>
   <trkpt lat="36.736659" lon="3.128709"><ele>3</ele></trkpt>
   <trkpt lat="36.737731" lon="3.129103"><ele>1.5</ele></trkpt>
   <trkpt lat="36.738159" lon="3.12925"><ele>1</ele></trkpt>
   <trkpt lat="36.738396" lon="3.129342"><ele>1</ele></trkpt>
   <trkpt lat="36.738578" lon="3.129425"><ele>1</ele></trkpt>
   <trkpt lat="36.739184" lon="3.129683"><ele>0.75</ele></trkpt>
   <trkpt lat="36.739205" lon="3.129687"><ele>0.5</ele></trkpt>
   <trkpt lat="36.739303" lon="3.129664"><ele>0</ele></trkpt>
   <trkpt lat="36.739439" lon="3.129718"><ele>-0.75</ele></trkpt>
   <trkpt lat="36.739456" lon="3.129694"><ele>-1</ele></trkpt>
   <trkpt lat="36.739536" lon="3.129592"><ele>-1</ele></trkpt>
   <trkpt lat="36.739621" lon="3.12947"><ele>-1</ele></trkpt>
   <trkpt lat="36.739875" lon="3.129075"><ele>-0.25</ele></trkpt>
   <trkpt lat="36.739975" lon="3.12889"><ele>0.75</ele></trkpt>
   <trkpt lat="36.739992" lon="3.128856"><ele>0.75</ele></trkpt>
   <trkpt lat="36.740047" lon="3.128738"><ele>0.75</ele></trkpt>
   <trkpt lat="36.740064" lon="3.128703"><ele>0.75</ele></trkpt>
   <trkpt lat="36.740094" lon="3.128629"><ele>0.75</ele></trkpt>
   <trkpt lat="36.740129" lon="3.128534"><ele>0.75</ele></trkpt>
   <trkpt lat="36.740206" lon="3.128345"><ele>0.75</ele></trkpt>
   <trkpt lat="36.740253" lon="3.128221"><ele>0.75</ele></trkpt>
   <trkpt lat="36.740322" lon="3.128008"><ele>0.75</ele></trkpt>
   <trkpt lat="36.740355" lon="3.12791"><ele>1</ele></trkpt>
   <trkpt lat="36.740441" lon="3.127596"><ele>1</ele></trkpt>
   <trkpt lat="36.740446" lon="3.127576"><ele>1</ele></trkpt>
   <trkpt lat="36.740492" lon="3.127464"><ele>1</ele></trkpt>
   <trkpt lat="36.740446" lon="3.127347"><ele>1</ele></trkpt>
   <trkpt lat="36.740403" lon="3.127191"><ele>1</ele></trkpt>
   <trkpt lat="36.740354" lon="3.127161"><ele>1</ele></trkpt>
   <trkpt lat="36.740319" lon="3.127149"><ele>1</ele></trkpt>
   <trkpt lat="36.740284" lon="3.127147"><ele>1</ele></trkpt>
   <trkpt lat="36.740226" lon="3.127158"><ele>1.5</ele></trkpt>
   <trkpt lat="36.740181" lon="3.127166"><ele>2</ele></trkpt>
   <trkpt lat="36.740182" lon="3.126999"><ele>2</ele></trkpt>
   <trkpt lat="36.740151" lon="3.126665"><ele>2.25</ele></trkpt>
   <trkpt lat="36.740139" lon="3.126622"><ele>2.25</ele></trkpt>
   <trkpt lat="36.740114" lon="3.126578"><ele>2.75</ele></trkpt>
   <trkpt lat="36.740119" lon="3.126415"><ele>2.5</ele></trkpt>
   <trkpt lat="36.740147" lon="3.126273"><ele>2.25</ele></trkpt>
   <trkpt lat="36.740175" lon="3.12617"><ele>2</ele></trkpt>
   <trkpt lat="36.740227" lon="3.126024"><ele>1.5</ele></trkpt>
   <trkpt lat="36.740466" lon="3.12548"><ele>1</ele></trkpt>
   <trkpt lat="36.740551" lon="3.125351"><ele>1</ele></trkpt>
   <trkpt lat="36.740616" lon="3.125296"><ele>1</ele></trkpt>
   <trkpt lat="36.740797" lon="3.125173"><ele>1</ele></trkpt>
   <trkpt lat="36.740833" lon="3.125148"><ele>1</ele></trkpt>
   <trkpt lat="36.740869" lon="3.125118"><ele>1</ele></trkpt>
   <trkpt lat="36.740905" lon="3.125084"><ele>1</ele></trkpt>
   <trkpt lat="36.74094" lon="3.125048"><ele>1</ele></trkpt>
   <trkpt lat="36.740966" lon="3.125013"><ele>1</ele></trkpt>
   <trkpt lat="36.740993" lon="3.12497"><ele>1</ele></trkpt>
   <trkpt lat="36.741018" lon="3.124925"><ele>1</ele></trkpt>
   <trkpt lat="36.741041" lon="3.124865"><ele>1</ele></trkpt>
   <trkpt lat="36.741059" lon="3.124791"><ele>1</ele></trkpt>
  </trkseg>
 </trk>
</gpx>