<?xml version="1.0" encoding="UTF-8"?>
<!-- track-length = 10024 filtered ascend = 22 plain-ascend = 19 cost=20688 energy=0.1kwh time=30m 20s -->
<gpx 
 xmlns="http://www.topografix.com/GPX/1/1" 
 xmlns:xsi="http://www.w3.org/2001/XMLSchema-instance" 
 xsi:schemaLocation="http://www.topografix.com/GPX/1/1 http://www.topografix.com/GPX/1/1/gpx.xsd" 
 version="1.1" 
 creator="BRouter-Web 0.18.1">
 <trk>
  <name>Souakria</name>
  <trkseg>
   <trkpt lat="36.706985" lon="3.166603"><ele>14.5</ele></trkpt>
   <trkpt lat="36.706953" lon="3.166574"><ele>15.25</ele></trkpt>
   <trkpt lat="36.706878" lon="3.166538"><ele>15</ele></trkpt>
   <trkpt lat="36.706798" lon="3.166529"><ele>14.25</ele></trkpt>
   <trkpt lat="36.706719" lon="3.166549"><ele>13.25</ele></trkpt>
   <trkpt lat="36.706648" lon="3.166595"><ele>12</ele></trkpt>
   <trkpt lat="36.706589" lon="3.166664"><ele>11</ele></trkpt>
   <trkpt lat="36.706514" lon="3.166783"><ele>11</ele></trkpt>
   <trkpt lat="36.706429" lon="3.166886"><ele>11</ele></trkpt>
   <trkpt lat="36.706328" lon="3.166983"><ele>11</ele></trkpt>
   <trkpt lat="36.706174" lon="3.167103"><ele>11</ele></trkpt>
   <trkpt lat="36.705997" lon="3.167211"><ele>12</ele></trkpt>
   <trkpt lat="36.705487" lon="3.167374"><ele>13.25</ele></trkpt>
   <trkpt lat="36.705114" lon="3.167489"><ele>15.25</ele></trkpt>
   <trkpt lat="36.704119" lon="3.16779"><ele>14</ele></trkpt>
   <trkpt lat="36.703556" lon="3.167981"><ele>13.5</ele></trkpt>
   <trkpt lat="36.702353" lon="3.168363"><ele>12</ele></trkpt>
   <trkpt lat="36.702095" lon="3.168432"><ele>12</ele></trkpt>
   <trkpt lat="36.701834" lon="3.168485"><ele>12.25</ele></trkpt>
   <trkpt lat="36.701109" lon="3.168543"><ele>12.75</ele></trkpt>
   <trkpt lat="36.700995" lon="3.168544"><ele>11.25</ele></trkpt>
   <trkpt lat="36.700627" lon="3.168527"><ele>9</ele></trkpt>
   <trkpt lat="36.69884" lon="3.16848"><ele>12</ele></trkpt>
   <trkpt lat="36.698729" lon="3.168469"><ele>12</ele></trkpt>
   <trkpt lat="36.698481" lon="3.168415"><ele>11.5</ele></trkpt>
   <trkpt lat="36.698155" lon="3.168371"><ele>11</ele></trkpt>
   <trkpt lat="36.698081" lon="3.168348"><ele>11</ele></trkpt>
   <trkpt lat="36.698001" lon="3.168306"><ele>11</ele></trkpt>
   <trkpt lat="36.697938" lon="3.168252"><ele>11.25</ele></trkpt>
   <trkpt lat="36.697889" lon="3.168179"><ele>11.5</ele></trkpt>
   <trkpt lat="36.697862" lon="3.168122"><ele>11.75</ele></trkpt>
   <trkpt lat="36.697821" lon="3.168079"><ele>11.75</ele></trkpt>
   <trkpt lat="36.697736" lon="3.167943"><ele>12</ele></trkpt>
   <trkpt lat="36.69753" lon="3.167647"><ele>12</ele></trkpt>
   <trkpt lat="36.697459" lon="3.167562"><ele>12</ele></trkpt>
   <trkpt lat="36.697366" lon="3.167466"><ele>11.75</ele></trkpt>
   <trkpt lat="36.697201" lon="3.167324"><ele>11.25</ele></trkpt>
   <trkpt lat="36.697065" lon="3.167231"><ele>11</ele></trkpt>
   <trkpt lat="36.696911" lon="3.167161"><ele>11.25</ele></trkpt>
   <trkpt lat="36.696756" lon="3.167132"><ele>13</ele></trkpt>
   <trkpt lat="36.695863" lon="3.167036"><ele>13</ele></trkpt>
   <trkpt lat="36.695212" lon="3.166974"><ele>13</ele></trkpt>
   <trkpt lat="36.694895" lon="3.166927"><ele>13</ele></trkpt>
   <trkpt lat="36.694771" lon="3.166883"><ele>13</ele></trkpt>
   <trkpt lat="36.694583" lon="3.166793"><ele>13</ele></trkpt>
   <trkpt lat="36.694401" lon="3.166631"><ele>12.75</ele></trkpt>
   <trkpt lat="36.694335" lon="3.166541"><ele>13</ele></trkpt>
   <trkpt lat="36.694225" lon="3.166314"><ele>15.25</ele></trkpt>
   <trkpt lat="36.694195" lon="3.166209"><ele>15.5</ele></trkpt>
   <trkpt lat="36.694168" lon="3.166102"><ele>15.75</ele></trkpt>
   <trkpt lat="36.694152" lon="3.165986"><ele>16</ele></trkpt>
   <trkpt lat="36.694087" lon="3.165429"><ele>17</ele></trkpt>
   <trkpt lat="36.694072" lon="3.165326"><ele>17</ele></trkpt>
   <trkpt lat="36.694038" lon="3.165123"><ele>17</ele></trkpt>
   <trkpt lat="36.694016" lon="3.164998"><ele>16.75</ele></trkpt>
   <trkpt lat="36.693987" lon="3.164887"><ele>15.25</ele></trkpt>
   <trkpt lat="36.693945" lon="3.164765"><ele>13.5</ele></trkpt>
   <trkpt lat="36.693863" lon="3.164593"><ele>13</ele></trkpt>
   <trkpt lat="36.693695" lon="3.164372"><ele>13</ele></trkpt>
   <trkpt lat="36.693433" lon="3.164181"><ele>13</ele></trkpt>
   <trkpt lat="36.693033" lon="3.164081"><ele>12.5</ele></trkpt>
   <trkpt lat="36.692256" lon="3.164054"><ele>13</ele></trkpt>
   <trkpt lat="36.691176" lon="3.164003"><ele>10.5</ele></trkpt>
   <trkpt lat="36.690762" lon="3.164114"><ele>10</ele></trkpt>
   <trkpt lat="36.690439" lon="3.164346"><ele>10</ele></trkpt>
   <trkpt lat="36.690219" lon="3.164698"><ele>10</ele></trkpt>
   <trkpt lat="36.690143" lon="3.165105"><ele>12.5</ele></trkpt>
   <trkpt lat="36.690101" lon="3.165516"><ele>12.25</ele></trkpt>
   <trkpt lat="36.690073" lon="3.166247"><ele>13.25</ele></trkpt>
   <trkpt lat="36.690004" lon="3.168926"><ele>13.5</ele></trkpt>
   <trkpt lat="36.689818" lon="3.168941"><ele>13.5</ele></trkpt>
   <trkpt lat="36.689459" lon="3.168944"><ele>13.5</ele></trkpt>
   <trkpt lat="36.689281" lon="3.169049"><ele>13</ele></trkpt>
   <trkpt lat="36.688967" lon="3.169202"><ele>14</ele></trkpt>
   <trkpt lat="36.687796" lon="3.169221"><ele>16</ele></trkpt>
   <trkpt lat="36.686962" lon="3.169232"><ele>17</ele></trkpt>
   <trkpt lat="36.686817" lon="3.169283"><ele>18.25</ele></trkpt>
   <trkpt lat="36.68678" lon="3.169312"><ele>18.75</ele></trkpt>
   <trkpt lat="36.686417" lon="3.169588"><ele>20</ele></trkpt>
   <trkpt lat="36.686032" lon="3.169834"><ele>18</ele></trkpt>
   <trkpt lat="36.686047" lon="3.170073"><ele>17</ele></trkpt>
   <trkpt lat="36.686175" lon="3.170463"><ele>17</ele></trkpt>
   <trkpt lat="36.686227" lon="3.170598"><ele>16.5</ele></trkpt>
   <trkpt lat="36.686338" lon="3.170877"><ele>15</ele></trkpt>
   <trkpt lat="36.686428" lon="3.171066"><ele>15</ele></trkpt>
   <trkpt lat="36.686512" lon="3.171274"><ele>15</ele></trkpt>
   <trkpt lat="36.686558" lon="3.171391"><ele>15</ele></trkpt>
   <trkpt lat="36.686588" lon="3.171508"><ele>16.25</ele></trkpt>
   <trkpt lat="36.686891" lon="3.172174"><ele>15.5</ele></trkpt>
   <trkpt lat="36.687115" lon="3.172789"><ele>14</ele></trkpt>
   <trkpt lat="36.687142" lon="3.17285"><ele>14</ele></trkpt>
   <trkpt lat="36.687283" lon="3.173215"><ele>15</ele></trkpt>
   <trkpt lat="36.687508" lon="3.173793"><ele>16</ele></trkpt>
   <trkpt lat="36.687728" lon="3.174281"><ele>15.25</ele></trkpt>
   <trkpt lat="36.688019" lon="3.174977"><ele>15</ele></trkpt>
   <trkpt lat="36.688437" lon="3.175979"><ele>14.25</ele></trkpt>
   <trkpt lat="36.688029" lon="3.176349"><ele>15</ele></trkpt>
   <trkpt lat="36.687975" lon="3.176386"><ele>15</ele></trkpt>
   <trkpt lat="36.687823" lon="3.176544"><ele>15</ele></trkpt>
   <trkpt lat="36.687533" lon="3.176811"><ele>15.75</ele></trkpt>
   <trkpt lat="36.687164" lon="3.177197"><ele>16</ele></trkpt>
   <trkpt lat="36.687139" lon="3.177215"><ele>16</ele></trkpt>
   <trkpt lat="36.686915" lon="3.177446"><ele>17.25</ele></trkpt>
   <trkpt lat="36.686842" lon="3.177605"><ele>17.5</ele></trkpt>
   <trkpt lat="36.687341" lon="3.178251"><ele>17.25</ele></trkpt>
   <trkpt lat="36.687668" lon="3.178668"><ele>17</ele></trkpt>
   <trkpt lat="36.68805" lon="3.179126"><ele>17</ele></trkpt>
   <trkpt lat="36.68841" lon="3.179658"><ele>16.25</ele></trkpt>
   <trkpt lat="36.687513" lon="3.180525"><ele>18.75</ele></trkpt>
   <trkpt lat="36.686736" lon="3.181304"><ele>18.75</ele></trkpt>
   <trkpt lat="36.685892" lon="3.182215"><ele>16.5</ele></trkpt>
   <trkpt lat="36.686504" lon="3.182866"><ele>17</ele></trkpt>
   <trkpt lat="36.686565" lon="3.182932"><ele>17</ele></trkpt>
   <trkpt lat="36.687494" lon="3.183936"><ele>18.25</ele></trkpt>
   <trkpt lat="36.687654" lon="3.184107"><ele>17.5</ele></trkpt>
   <trkpt lat="36.688641" lon="3.185163"><ele>15</ele></trkpt>
   <trkpt lat="36.688782" lon="3.185329"><ele>15</ele></trkpt>
   <trkpt lat="36.688983" lon="3.185653"><ele>15</ele></trkpt>
   <trkpt lat="36.689036" lon="3.185787"><ele>15</ele></trkpt>
   <trkpt lat="36.689087" lon="3.185877"><ele>15</ele></trkpt>
   <trkpt lat="36.689088" lon="3.185914"><ele>14.75</ele></trkpt>
   <trkpt lat="36.689097" lon="3.185948"><ele>15</ele></trkpt>
   <trkpt lat="36.689105" lon="3.18627"><ele>15</ele></trkpt>
   <trkpt lat="36.689062" lon="3.186676"><ele>14</ele></trkpt>
   <trkpt lat="36.689006" lon="3.186842"><ele>14</ele></trkpt>
   <trkpt lat="36.68893" lon="3.186957"><ele>14</ele></trkpt>
   <trkpt lat="36.688797" lon="3.187072"><ele>14</ele></trkpt>
   <trkpt lat="36.68719" lon="3.187924"><ele>16</ele></trkpt>
   <trkpt lat="36.685132" lon="3.188936"><ele>19</ele></trkpt>
   <trkpt lat="36.682214" lon="3.19043"><ele>21</ele></trkpt>
   <trkpt lat="36.681466" lon="3.19083"><ele>19.75</ele></trkpt>
   <trkpt lat="36.680493" lon="3.191327"><ele>20</ele></trkpt>
   <trkpt lat="36.680101" lon="3.191511"><ele>20.25</ele></trkpt>
   <trkpt lat="36.679884" lon="3.191635"><ele>21.5</ele></trkpt>
   <trkpt lat="36.679359" lon="3.191872"><ele>21</ele></trkpt>
   <trkpt lat="36.679223" lon="3.191947"><ele>19.5</ele></trkpt>
   <trkpt lat="36.678889" lon="3.192112"><ele>19</ele></trkpt>
   <trkpt lat="36.678848" lon="3.192138"><ele>19</ele></trkpt>
   <trkpt lat="36.678197" lon="3.192478"><ele>22</ele></trkpt>
   <trkpt lat="36.677948" lon="3.192592"><ele>22</ele></trkpt>
   <trkpt lat="36.677747" lon="3.192696"><ele>22</ele></trkpt>
   <trkpt lat="36.677662" lon="3.192757"><ele>22</ele></trkpt>
   <trkpt lat="36.677227" lon="3.192975"><ele>22</ele></trkpt>
   <trkpt lat="36.677003" lon="3.193104"><ele>22.25</ele></trkpt>
   <trkpt lat="36.676255" lon="3.193493"><ele>24</ele></trkpt>
   <trkpt lat="36.676215" lon="3.193518"><ele>24</ele></trkpt>
   <trkpt lat="36.675404" lon="3.193919"><ele>24</ele></trkpt>
   <trkpt lat="36.675233" lon="3.193996"><ele>24</ele></trkpt>
   <trkpt lat="36.675028" lon="3.194092"><ele>23.75</ele></trkpt>
   <trkpt lat="36.67273" lon="3.19526"><ele>22</ele></trkpt>
   <trkpt lat="36.672157" lon="3.195553"><ele>23</ele></trkpt>
   <trkpt lat="36.671364" lon="3.195943"><ele>25</ele></trkpt>
   <trkpt lat="36.671233" lon="3.195882"><ele>25</ele></trkpt>
   <trkpt lat="36.671203" lon="3.19585"><ele>25</ele></trkpt>
   <trkpt lat="36.671157" lon="3.195841"><ele>25</ele></trkpt>
   <trkpt lat="36.671115" lon="3.195867"><ele>25</ele></trkpt>
   <trkpt lat="36.671101" lon="3.19589"><ele>24.75</ele></trkpt>
   <trkpt lat="36.671091" lon="3.195933"><ele>24.75</ele></trkpt>
   <trkpt lat="36.671093" lon="3.195955"><ele>24.75</ele></trkpt>
   <trkpt lat="36.671076" lon="3.196031"><ele>24.75</ele></trkpt>
   <trkpt lat="36.671033" lon="3.196107"><ele>24.5</ele></trkpt>
   <trkpt lat="36.669885" lon="3.196708"><ele>25</ele></trkpt>
   <trkpt lat="36.669097" lon="3.197108"><ele>26</ele></trkpt>
   <trkpt lat="36.667699" lon="3.197804"><ele>24.5</ele></trkpt>
   <trkpt lat="36.667124" lon="3.198086"><ele>25.75</ele></trkpt>
   <trkpt lat="36.666896" lon="3.198208"><ele>25.25</ele></trkpt>
   <trkpt lat="36.666248" lon="3.198537"><ele>24</ele></trkpt>
   <trkpt lat="36.665506" lon="3.198907"><ele>25</ele></trkpt>
   <trkpt lat="36.664844" lon="3.199257"><ele>25</ele></trkpt>
   <trkpt lat="36.664417" lon="3.199473"><ele>25</ele></trkpt>
   <trkpt lat="36.664029" lon="3.199665"><ele>25</ele></trkpt>
   <trkpt lat="36.663859" lon="3.199749"><ele>25</ele></trkpt>
   <trkpt lat="36.663661" lon="3.199847"><ele>25.75</ele></trkpt>
   <trkpt lat="36.663313" lon="3.200019"><ele>27</ele></trkpt>
   <trkpt lat="36.659335" lon="3.202067"><ele>27.5</ele></trkpt>
   <trkpt lat="36.656572" lon="3.203427"><ele>28</ele></trkpt>
   <trkpt lat="36.656115" lon="3.203648"><ele>28</ele></trkpt>
   <trkpt lat="36.654699" lon="3.204352"><ele>29</ele></trkpt>
   <trkpt lat="36.654137" lon="3.204647"><ele>32</ele></trkpt>
   <trkpt lat="36.653638" lon="3.204899"><ele>30</ele></trkpt>
   <trkpt lat="36.653133" lon="3.20515"><ele>31</ele></trkpt>
   <trkpt lat="36.651053" lon="3.206217"><ele>32</ele></trkpt>
   <trkpt lat="36.650929" lon="3.206281"><ele>32</ele></trkpt>
   <trkpt lat="36.650586" lon="3.206456"><ele>32</ele></trkpt>
   <trkpt lat="36.649545" lon="3.206425"><ele>33</ele></trkpt>
   <trkpt lat="36.648836" lon="3.206427"><ele>33</ele></trkpt>
   <trkpt lat="36.647313" lon="3.206406"><ele>33</ele></trkpt>
   <trkpt lat="36.646844" lon="3.206364"><ele>33</ele></trkpt>
  </trkseg>
 </trk>
</gpx>